{
"type": "FeatureCollection",
"name": "cleaned_gravity_data",
"crs": { "type": "name", "properties": { "name": "urn:ogc:def:crs:EPSG::3857" } },
"features": [
{ "type": "Feature", "properties": { "ID": 52205, "VALU_COORX": -704570.24986707699, "VALU_COORY": 4548244.4441469666, "CODE_H50": 939, "CODE_DOCU": " 40292", "VALU_BOU267": 12.85, "ESRI_OID": 63647 }, "geometry": { "type": "Point", "coordinates": [ -704570.249867076985538, 4548244.444146966561675 ] } },
{ "type": "Feature", "properties": { "ID": 62796, "VALU_COORX": -704382.53236132243, "VALU_COORY": 4532066.0435839351, "CODE_H50": 961, "CODE_DOCU": " 40292", "VALU_BOU267": 19.403, "ESRI_OID": 70478 }, "geometry": { "type": "Point", "coordinates": [ -704382.532361322431825, 4532066.043583935126662 ] } },
{ "type": "Feature", "properties": { "ID": 52348, "VALU_COORX": -690136.47248240281, "VALU_COORY": 4544432.9805455236, "CODE_H50": 939, "CODE_DOCU": " 40292", "VALU_BOU267": 34.056, "ESRI_OID": 75262 }, "geometry": { "type": "Point", "coordinates": [ -690136.472482402808964, 4544432.980545523576438 ] } },
{ "type": "Feature", "properties": { "ID": 53065, "VALU_COORX": -707002.14761003945, "VALU_COORY": 4539093.6374357529, "CODE_H50": 939, "CODE_DOCU": " 40292", "VALU_BOU267": 10.896, "ESRI_OID": 201542 }, "geometry": { "type": "Point", "coordinates": [ -707002.147610039450228, 4539093.637435752898455 ] } },
{ "type": "Feature", "properties": { "ID": 62804, "VALU_COORX": -704699.53653821431, "VALU_COORY": 4531968.5861774711, "CODE_H50": 961, "CODE_DOCU": " 40292", "VALU_BOU267": 19.767, "ESRI_OID": 114963 }, "geometry": { "type": "Point", "coordinates": [ -704699.536538214306347, 4531968.586177471093833 ] } },
{ "type": "Feature", "properties": { "ID": 52497, "VALU_COORX": -700950.96131678321, "VALU_COORY": 4546793.5331653487, "CODE_H50": 939, "CODE_DOCU": " 40292", "VALU_BOU267": 16.882, "ESRI_OID": 71973 }, "geometry": { "type": "Point", "coordinates": [ -700950.961316783213988, 4546793.533165348693728 ] } },
{ "type": "Feature", "properties": { "ID": 52371, "VALU_COORX": -694189.65141921968, "VALU_COORY": 4548898.515897423, "CODE_H50": 939, "CODE_DOCU": " 40292", "VALU_BOU267": 23.231, "ESRI_OID": 73746 }, "geometry": { "type": "Point", "coordinates": [ -694189.651419219677337, 4548898.515897423028946 ] } },
{ "type": "Feature", "properties": { "ID": 53062, "VALU_COORX": -704846.42954987497, "VALU_COORY": 4539110.0378695736, "CODE_H50": 939, "CODE_DOCU": " 40292", "VALU_BOU267": 15.845, "ESRI_OID": 206885 }, "geometry": { "type": "Point", "coordinates": [ -704846.429549874970689, 4539110.037869573570788 ] } },
{ "type": "Feature", "properties": { "ID": 53111, "VALU_COORX": -703528.05797201255, "VALU_COORY": 4536776.3870667024, "CODE_H50": 939, "CODE_DOCU": " 40292", "VALU_BOU267": 18.464, "ESRI_OID": 198739 }, "geometry": { "type": "Point", "coordinates": [ -703528.057972012553364, 4536776.387066702358425 ] } },
{ "type": "Feature", "properties": { "ID": 53257, "VALU_COORX": -697783.81633133604, "VALU_COORY": 4533690.4339961549, "CODE_H50": 939, "CODE_DOCU": " 40292", "VALU_BOU267": 24.821, "ESRI_OID": 173307 }, "geometry": { "type": "Point", "coordinates": [ -697783.816331336041912, 4533690.433996154926717 ] } },
{ "type": "Feature", "properties": { "ID": 62774, "VALU_COORX": -700701.90939907636, "VALU_COORY": 4532053.4284281591, "CODE_H50": 961, "CODE_DOCU": " 40292", "VALU_BOU267": 24.489, "ESRI_OID": 219991 }, "geometry": { "type": "Point", "coordinates": [ -700701.909399076364934, 4532053.428428159095347 ] } },
{ "type": "Feature", "properties": { "ID": 52369, "VALU_COORX": -689387.22332328744, "VALU_COORY": 4548886.6657941313, "CODE_H50": 939, "CODE_DOCU": " 40292", "VALU_BOU267": 28.714, "ESRI_OID": 220954 }, "geometry": { "type": "Point", "coordinates": [ -689387.223323287442327, 4548886.665794131346047 ] } },
{ "type": "Feature", "properties": { "ID": 53074, "VALU_COORX": -706356.82611550775, "VALU_COORY": 4543381.2794974474, "CODE_H50": 939, "CODE_DOCU": " 40292", "VALU_BOU267": 12.876, "ESRI_OID": 159372 }, "geometry": { "type": "Point", "coordinates": [ -706356.826115507748909, 4543381.279497447423637 ] } },
{ "type": "Feature", "properties": { "ID": 53135, "VALU_COORX": -699725.79138370347, "VALU_COORY": 4539001.4191138595, "CODE_H50": 939, "CODE_DOCU": " 40292", "VALU_BOU267": 28.015, "ESRI_OID": 74122 }, "geometry": { "type": "Point", "coordinates": [ -699725.791383703472093, 4539001.419113859534264 ] } },
{ "type": "Feature", "properties": { "ID": 53059, "VALU_COORX": -704880.7610359306, "VALU_COORY": 4539722.4437996196, "CODE_H50": 939, "CODE_DOCU": " 40292", "VALU_BOU267": 15.283, "ESRI_OID": 236615 }, "geometry": { "type": "Point", "coordinates": [ -704880.761035930598155, 4539722.443799619562924 ] } },
{ "type": "Feature", "properties": { "ID": 53280, "VALU_COORX": -693539.7351415403, "VALU_COORY": 4533565.7519150339, "CODE_H50": 939, "CODE_DOCU": " 40292", "VALU_BOU267": 32.509, "ESRI_OID": 166341 }, "geometry": { "type": "Point", "coordinates": [ -693539.735141540295444, 4533565.751915033906698 ] } },
{ "type": "Feature", "properties": { "ID": 53478, "VALU_COORX": -689703.77835309308, "VALU_COORY": 4544115.4913251381, "CODE_H50": 939, "CODE_DOCU": " 40292", "VALU_BOU267": 35.516, "ESRI_OID": 128258 }, "geometry": { "type": "Point", "coordinates": [ -689703.778353093075566, 4544115.491325138136744 ] } },
{ "type": "Feature", "properties": { "ID": 52393, "VALU_COORX": -695657.88529586222, "VALU_COORY": 4548492.0601611789, "CODE_H50": 939, "CODE_DOCU": " 40292", "VALU_BOU267": 21.724, "ESRI_OID": 132938 }, "geometry": { "type": "Point", "coordinates": [ -695657.885295862215571, 4548492.060161178931594 ] } },
{ "type": "Feature", "properties": { "ID": 52021, "VALU_COORX": -701340.43666623498, "VALU_COORY": 4544538.1164753502, "CODE_H50": 939, "CODE_DOCU": " 40292", "VALU_BOU267": 19.836, "ESRI_OID": 143825 }, "geometry": { "type": "Point", "coordinates": [ -701340.436666234978475, 4544538.116475350223482 ] } },
{ "type": "Feature", "properties": { "ID": 52044, "VALU_COORX": -703113.49540004786, "VALU_COORY": 4544348.3086563218, "CODE_H50": 939, "CODE_DOCU": " 40292", "VALU_BOU267": 16.807, "ESRI_OID": 141639 }, "geometry": { "type": "Point", "coordinates": [ -703113.49540004786104, 4544348.308656321838498 ] } },
{ "type": "Feature", "properties": { "ID": 53384, "VALU_COORX": -696260.28828948329, "VALU_COORY": 4542539.0441104127, "CODE_H50": 939, "CODE_DOCU": " 40292", "VALU_BOU267": 30.895, "ESRI_OID": 106804 }, "geometry": { "type": "Point", "coordinates": [ -696260.288289483287372, 4542539.044110412709415 ] } },
{ "type": "Feature", "properties": { "ID": 53058, "VALU_COORX": -705269.75104385999, "VALU_COORY": 4539868.2869784627, "CODE_H50": 939, "CODE_DOCU": " 40292", "VALU_BOU267": 14.297, "ESRI_OID": 64832 }, "geometry": { "type": "Point", "coordinates": [ -705269.751043859985657, 4539868.286978462710977 ] } },
{ "type": "Feature", "properties": { "ID": 53151, "VALU_COORX": -702942.61676308163, "VALU_COORY": 4537427.1872871919, "CODE_H50": 939, "CODE_DOCU": " 40292", "VALU_BOU267": 19.862, "ESRI_OID": 200003 }, "geometry": { "type": "Point", "coordinates": [ -702942.616763081634417, 4537427.187287191860378 ] } },
{ "type": "Feature", "properties": { "ID": 53162, "VALU_COORX": -701668.40123045444, "VALU_COORY": 4538093.5417470951, "CODE_H50": 939, "CODE_DOCU": " 40292", "VALU_BOU267": 23.218, "ESRI_OID": 215831 }, "geometry": { "type": "Point", "coordinates": [ -701668.401230454444885, 4538093.541747095063329 ] } },
{ "type": "Feature", "properties": { "ID": 53196, "VALU_COORX": -696778.07863169035, "VALU_COORY": 4534563.2425609604, "CODE_H50": 939, "CODE_DOCU": " 40292", "VALU_BOU267": 28.412, "ESRI_OID": 49281 }, "geometry": { "type": "Point", "coordinates": [ -696778.078631690354086, 4534563.242560960352421 ] } },
{ "type": "Feature", "properties": { "ID": 53363, "VALU_COORX": -690189.5858760362, "VALU_COORY": 4535904.0438322965, "CODE_H50": 939, "CODE_DOCU": " 40292", "VALU_BOU267": 39.216, "ESRI_OID": 168177 }, "geometry": { "type": "Point", "coordinates": [ -690189.585876036202535, 4535904.04383229650557 ] } },
{ "type": "Feature", "properties": { "ID": 53324, "VALU_COORX": -694278.01439705992, "VALU_COORY": 4540390.1359672658, "CODE_H50": 939, "CODE_DOCU": " 40292", "VALU_BOU267": 38.778, "ESRI_OID": 81354 }, "geometry": { "type": "Point", "coordinates": [ -694278.014397059916519, 4540390.135967265814543 ] } },
{ "type": "Feature", "properties": { "ID": 53039, "VALU_COORX": -705932.22497261257, "VALU_COORY": 4541030.1046791906, "CODE_H50": 939, "CODE_DOCU": " 40292", "VALU_BOU267": 12.421, "ESRI_OID": 237665 }, "geometry": { "type": "Point", "coordinates": [ -705932.224972612573765, 4541030.104679190553725 ] } },
{ "type": "Feature", "properties": { "ID": 53278, "VALU_COORX": -694347.58951657231, "VALU_COORY": 4536690.9254820868, "CODE_H50": 939, "CODE_DOCU": " 40292", "VALU_BOU267": 36.712, "ESRI_OID": 110198 }, "geometry": { "type": "Point", "coordinates": [ -694347.589516572305001, 4536690.925482086837292 ] } },
{ "type": "Feature", "properties": { "ID": 53308, "VALU_COORX": -694530.80672662216, "VALU_COORY": 4538125.8545831796, "CODE_H50": 939, "CODE_DOCU": " 40292", "VALU_BOU267": 38.554, "ESRI_OID": 222546 }, "geometry": { "type": "Point", "coordinates": [ -694530.806726622162387, 4538125.854583179578185 ] } },
{ "type": "Feature", "properties": { "ID": 53030, "VALU_COORX": -706304.30027098535, "VALU_COORY": 4538569.7539214147, "CODE_H50": 939, "CODE_DOCU": " 40292", "VALU_BOU267": 12.739, "ESRI_OID": 39045 }, "geometry": { "type": "Point", "coordinates": [ -706304.300270985346287, 4538569.753921414725482 ] } },
{ "type": "Feature", "properties": { "ID": 62524, "VALU_COORX": -699847.4744109516, "VALU_COORY": 4530202.2711381046, "CODE_H50": 961, "CODE_DOCU": " 40292", "VALU_BOU267": 21.846, "ESRI_OID": 61686 }, "geometry": { "type": "Point", "coordinates": [ -699847.474410951603204, 4530202.271138104610145 ] } },
{ "type": "Feature", "properties": { "ID": 53145, "VALU_COORX": -700873.49686208891, "VALU_COORY": 4540481.1078718174, "CODE_H50": 939, "CODE_DOCU": " 40292", "VALU_BOU267": 22.611, "ESRI_OID": 234867 }, "geometry": { "type": "Point", "coordinates": [ -700873.496862088912167, 4540481.107871817424893 ] } },
{ "type": "Feature", "properties": { "ID": 53235, "VALU_COORX": -695459.41443812137, "VALU_COORY": 4535844.8930168906, "CODE_H50": 939, "CODE_DOCU": " 40292", "VALU_BOU267": 33.481, "ESRI_OID": 105872 }, "geometry": { "type": "Point", "coordinates": [ -695459.41443812137004, 4535844.893016890622675 ] } },
{ "type": "Feature", "properties": { "ID": 53048, "VALU_COORX": -707148.48877949559, "VALU_COORY": 4540896.4025162319, "CODE_H50": 939, "CODE_DOCU": " 40292", "VALU_BOU267": 9.508, "ESRI_OID": 189167 }, "geometry": { "type": "Point", "coordinates": [ -707148.488779495586641, 4540896.402516231872141 ] } },
{ "type": "Feature", "properties": { "ID": 53224, "VALU_COORX": -697998.06389421364, "VALU_COORY": 4534191.0747668706, "CODE_H50": 939, "CODE_DOCU": " 40292", "VALU_BOU267": 25.213, "ESRI_OID": 60523 }, "geometry": { "type": "Point", "coordinates": [ -697998.063894213642925, 4534191.074766870588064 ] } },
{ "type": "Feature", "properties": { "ID": 53370, "VALU_COORX": -691595.18818509497, "VALU_COORY": 4538700.2710175738, "CODE_H50": 939, "CODE_DOCU": " 40292", "VALU_BOU267": 41.558, "ESRI_OID": 70965 }, "geometry": { "type": "Point", "coordinates": [ -691595.188185094972141, 4538700.271017573773861 ] } },
{ "type": "Feature", "properties": { "ID": 53143, "VALU_COORX": -706430.33734245016, "VALU_COORY": 4536222.7297289995, "CODE_H50": 939, "CODE_DOCU": " 40292", "VALU_BOU267": 14.543, "ESRI_OID": 126115 }, "geometry": { "type": "Point", "coordinates": [ -706430.337342450162396, 4536222.72972899954766 ] } },
{ "type": "Feature", "properties": { "ID": 52492, "VALU_COORX": -699279.7889142877, "VALU_COORY": 4548646.7329040924, "CODE_H50": 939, "CODE_DOCU": " 40292", "VALU_BOU267": 17.037, "ESRI_OID": 46272 }, "geometry": { "type": "Point", "coordinates": [ -699279.788914287695661, 4548646.732904092408717 ] } },
{ "type": "Feature", "properties": { "ID": 62528, "VALU_COORX": -700033.65808099718, "VALU_COORY": 4528996.1822788846, "CODE_H50": 961, "CODE_DOCU": " 40292", "VALU_BOU267": 20.783, "ESRI_OID": 233848 }, "geometry": { "type": "Point", "coordinates": [ -700033.658080997178331, 4528996.182278884574771 ] } },
{ "type": "Feature", "properties": { "ID": 53010, "VALU_COORX": -705136.85138447757, "VALU_COORY": 4532988.1125985002, "CODE_H50": 939, "CODE_DOCU": " 40292", "VALU_BOU267": 17.774, "ESRI_OID": 39563 }, "geometry": { "type": "Point", "coordinates": [ -705136.851384477573447, 4532988.112598500214517 ] } },
{ "type": "Feature", "properties": { "ID": 62769, "VALU_COORX": -701343.70140840265, "VALU_COORY": 4531466.9779333342, "CODE_H50": 961, "CODE_DOCU": " 40292", "VALU_BOU267": 23.384, "ESRI_OID": 169760 }, "geometry": { "type": "Point", "coordinates": [ -701343.701408402645029, 4531466.977933334186673 ] } },
{ "type": "Feature", "properties": { "ID": 53307, "VALU_COORX": -694948.02944618126, "VALU_COORY": 4537851.4784640158, "CODE_H50": 939, "CODE_DOCU": " 40292", "VALU_BOU267": 37.604, "ESRI_OID": 69891 }, "geometry": { "type": "Point", "coordinates": [ -694948.029446181259118, 4537851.478464015759528 ] } },
{ "type": "Feature", "properties": { "ID": 52489, "VALU_COORX": -702561.88529242272, "VALU_COORY": 4549053.3376304982, "CODE_H50": 939, "CODE_DOCU": " 40292", "VALU_BOU267": 15.726, "ESRI_OID": 59961 }, "geometry": { "type": "Point", "coordinates": [ -702561.885292422724888, 4549053.337630498223007 ] } },
{ "type": "Feature", "properties": { "ID": 53385, "VALU_COORX": -693552.41750855639, "VALU_COORY": 4541982.6602648264, "CODE_H50": 939, "CODE_DOCU": " 40292", "VALU_BOU267": 37.266, "ESRI_OID": 48165 }, "geometry": { "type": "Point", "coordinates": [ -693552.417508556391113, 4541982.660264826379716 ] } },
{ "type": "Feature", "properties": { "ID": 52458, "VALU_COORX": -699527.19558862154, "VALU_COORY": 4547735.8090394577, "CODE_H50": 939, "CODE_DOCU": " 40292", "VALU_BOU267": 17.742, "ESRI_OID": 211333 }, "geometry": { "type": "Point", "coordinates": [ -699527.19558862154372, 4547735.809039457701147 ] } },
{ "type": "Feature", "properties": { "ID": 52019, "VALU_COORX": -701848.42285282176, "VALU_COORY": 4544220.7551865904, "CODE_H50": 939, "CODE_DOCU": " 40292", "VALU_BOU267": 19.589, "ESRI_OID": 8218 }, "geometry": { "type": "Point", "coordinates": [ -701848.422852821764536, 4544220.755186590366066 ] } },
{ "type": "Feature", "properties": { "ID": 52022, "VALU_COORX": -701110.47954434645, "VALU_COORY": 4544428.2933250219, "CODE_H50": 939, "CODE_DOCU": " 40292", "VALU_BOU267": 20.615, "ESRI_OID": 26140 }, "geometry": { "type": "Point", "coordinates": [ -701110.479544346453622, 4544428.293325021862984 ] } },
{ "type": "Feature", "properties": { "ID": 52025, "VALU_COORX": -697729.2071081273, "VALU_COORY": 4544722.5014500814, "CODE_H50": 939, "CODE_DOCU": " 40292", "VALU_BOU267": 26.371, "ESRI_OID": 11995 }, "geometry": { "type": "Point", "coordinates": [ -697729.20710812730249, 4544722.50145008135587 ] } },
{ "type": "Feature", "properties": { "ID": 52028, "VALU_COORX": -697146.94815308857, "VALU_COORY": 4544651.5775821116, "CODE_H50": 939, "CODE_DOCU": " 40292", "VALU_BOU267": 27.335, "ESRI_OID": 39285 }, "geometry": { "type": "Point", "coordinates": [ -697146.948153088567778, 4544651.57758211158216 ] } },
{ "type": "Feature", "properties": { "ID": 52031, "VALU_COORX": -702279.94101085083, "VALU_COORY": 4545678.1832580566, "CODE_H50": 939, "CODE_DOCU": " 40292", "VALU_BOU267": 17.325, "ESRI_OID": 39784 }, "geometry": { "type": "Point", "coordinates": [ -702279.941010850830935, 4545678.183258056640625 ] } },
{ "type": "Feature", "properties": { "ID": 52032, "VALU_COORX": -702500.43356688437, "VALU_COORY": 4546199.3683135603, "CODE_H50": 939, "CODE_DOCU": " 40292", "VALU_BOU267": 15.602, "ESRI_OID": 151699 }, "geometry": { "type": "Point", "coordinates": [ -702500.433566884370521, 4546199.368313560262322 ] } },
{ "type": "Feature", "properties": { "ID": 52034, "VALU_COORX": -701558.23536429403, "VALU_COORY": 4545847.1489323862, "CODE_H50": 939, "CODE_DOCU": " 40292", "VALU_BOU267": 17.169, "ESRI_OID": 34540 }, "geometry": { "type": "Point", "coordinates": [ -701558.235364294028841, 4545847.148932386189699 ] } },
{ "type": "Feature", "properties": { "ID": 52042, "VALU_COORX": -702871.5913405926, "VALU_COORY": 4544687.9849913111, "CODE_H50": 939, "CODE_DOCU": " 40292", "VALU_BOU267": 18.121, "ESRI_OID": 23788 }, "geometry": { "type": "Point", "coordinates": [ -702871.59134059259668, 4544687.984991311095655 ] } },
{ "type": "Feature", "properties": { "ID": 52045, "VALU_COORX": -703700.81098755659, "VALU_COORY": 4544597.5661593163, "CODE_H50": 939, "CODE_DOCU": " 40292", "VALU_BOU267": 15.843, "ESRI_OID": 10580 }, "geometry": { "type": "Point", "coordinates": [ -703700.810987556586042, 4544597.566159316338599 ] } },
{ "type": "Feature", "properties": { "ID": 52050, "VALU_COORX": -704147.38331019168, "VALU_COORY": 4544402.7823566925, "CODE_H50": 939, "CODE_DOCU": " 40292", "VALU_BOU267": 15.089, "ESRI_OID": 99637 }, "geometry": { "type": "Point", "coordinates": [ -704147.38331019168254, 4544402.782356692478061 ] } },
{ "type": "Feature", "properties": { "ID": 52171, "VALU_COORX": -707131.68857474765, "VALU_COORY": 4544390.9565328667, "CODE_H50": 939, "CODE_DOCU": " 40292", "VALU_BOU267": 11.594, "ESRI_OID": 17187 }, "geometry": { "type": "Point", "coordinates": [ -707131.68857474764809, 4544390.956532866694033 ] } },
{ "type": "Feature", "properties": { "ID": 52180, "VALU_COORX": -706458.74372508738, "VALU_COORY": 4547058.9058816852, "CODE_H50": 939, "CODE_DOCU": " 40292", "VALU_BOU267": 11.384, "ESRI_OID": 42424 }, "geometry": { "type": "Point", "coordinates": [ -706458.743725087377243, 4547058.905881685204804 ] } },
{ "type": "Feature", "properties": { "ID": 52203, "VALU_COORX": -705366.7231498633, "VALU_COORY": 4548469.7154165776, "CODE_H50": 939, "CODE_DOCU": " 40292", "VALU_BOU267": 12.164, "ESRI_OID": 217079 }, "geometry": { "type": "Point", "coordinates": [ -705366.72314986330457, 4548469.715416577644646 ] } },
{ "type": "Feature", "properties": { "ID": 52208, "VALU_COORX": -705436.91099987074, "VALU_COORY": 4548062.4183971332, "CODE_H50": 939, "CODE_DOCU": " 40292", "VALU_BOU267": 12.873, "ESRI_OID": 21902 }, "geometry": { "type": "Point", "coordinates": [ -705436.910999870742671, 4548062.418397133238614 ] } },
{ "type": "Feature", "properties": { "ID": 52213, "VALU_COORX": -705547.07893248252, "VALU_COORY": 4547144.9149047602, "CODE_H50": 939, "CODE_DOCU": " 40292", "VALU_BOU267": 11.717, "ESRI_OID": 110213 }, "geometry": { "type": "Point", "coordinates": [ -705547.078932482516393, 4547144.914904760196805 ] } },
{ "type": "Feature", "properties": { "ID": 52331, "VALU_COORX": -692878.52088754158, "VALU_COORY": 4545345.6636648485, "CODE_H50": 939, "CODE_DOCU": " 40292", "VALU_BOU267": 31.398, "ESRI_OID": 13413 }, "geometry": { "type": "Point", "coordinates": [ -692878.520887541584671, 4545345.663664848543704 ] } },
{ "type": "Feature", "properties": { "ID": 52334, "VALU_COORX": -693672.24965565535, "VALU_COORY": 4544586.2123979209, "CODE_H50": 939, "CODE_DOCU": " 40292", "VALU_BOU267": 32.816, "ESRI_OID": 26617 }, "geometry": { "type": "Point", "coordinates": [ -693672.249655655352399, 4544586.212397920899093 ] } },
{ "type": "Feature", "properties": { "ID": 52337, "VALU_COORX": -694720.65304312983, "VALU_COORY": 4544915.1271889117, "CODE_H50": 939, "CODE_DOCU": " 40292", "VALU_BOU267": 29.893, "ESRI_OID": 2088 }, "geometry": { "type": "Point", "coordinates": [ -694720.653043129830621, 4544915.127188911661506 ] } },
{ "type": "Feature", "properties": { "ID": 52342, "VALU_COORX": -690842.08756099315, "VALU_COORY": 4545492.0655075945, "CODE_H50": 939, "CODE_DOCU": " 40292", "VALU_BOU267": 31.002, "ESRI_OID": 105801 }, "geometry": { "type": "Point", "coordinates": [ -690842.087560993153602, 4545492.065507594496012 ] } },
{ "type": "Feature", "properties": { "ID": 52346, "VALU_COORX": -691144.54917450703, "VALU_COORY": 4546099.4841050934, "CODE_H50": 939, "CODE_DOCU": " 40292", "VALU_BOU267": 29.867, "ESRI_OID": 41151 }, "geometry": { "type": "Point", "coordinates": [ -691144.549174507032149, 4546099.484105093404651 ] } },
{ "type": "Feature", "properties": { "ID": 52354, "VALU_COORX": -688911.82735254604, "VALU_COORY": 4545418.7694964632, "CODE_H50": 939, "CODE_DOCU": " 40292", "VALU_BOU267": 33.147, "ESRI_OID": 7283 }, "geometry": { "type": "Point", "coordinates": [ -688911.827352546039037, 4545418.769496463239193 ] } },
{ "type": "Feature", "properties": { "ID": 52362, "VALU_COORX": -692466.0660476886, "VALU_COORY": 4549121.9897840247, "CODE_H50": 939, "CODE_DOCU": " 40292", "VALU_BOU267": 24.942, "ESRI_OID": 110931 }, "geometry": { "type": "Point", "coordinates": [ -692466.066047688596882, 4549121.989784024655819 ] } },
{ "type": "Feature", "properties": { "ID": 52363, "VALU_COORX": -692675.20755950676, "VALU_COORY": 4548808.9157671146, "CODE_H50": 939, "CODE_DOCU": " 40292", "VALU_BOU267": 24.806, "ESRI_OID": 52279 }, "geometry": { "type": "Point", "coordinates": [ -692675.207559506758116, 4548808.91576711460948 ] } },
{ "type": "Feature", "properties": { "ID": 52365, "VALU_COORX": -694114.99107865931, "VALU_COORY": 4548382.0943224421, "CODE_H50": 939, "CODE_DOCU": " 40292", "VALU_BOU267": 23.588, "ESRI_OID": 78434 }, "geometry": { "type": "Point", "coordinates": [ -694114.991078659310006, 4548382.0943224420771 ] } },
{ "type": "Feature", "properties": { "ID": 52377, "VALU_COORX": -690032.79740523803, "VALU_COORY": 4547694.5271242568, "CODE_H50": 939, "CODE_DOCU": " 40292", "VALU_BOU267": 28.581, "ESRI_OID": 29437 }, "geometry": { "type": "Point", "coordinates": [ -690032.797405238030478, 4547694.527124256826937 ] } },
{ "type": "Feature", "properties": { "ID": 52380, "VALU_COORX": -690656.63715559384, "VALU_COORY": 4547943.3541069413, "CODE_H50": 939, "CODE_DOCU": " 40292", "VALU_BOU267": 27.454, "ESRI_OID": 14346 }, "geometry": { "type": "Point", "coordinates": [ -690656.637155593838543, 4547943.354106941260397 ] } },
{ "type": "Feature", "properties": { "ID": 52389, "VALU_COORX": -695358.0464796375, "VALU_COORY": 4548956.8204465322, "CODE_H50": 939, "CODE_DOCU": " 40292", "VALU_BOU267": 21.91, "ESRI_OID": 222937 }, "geometry": { "type": "Point", "coordinates": [ -695358.046479637501761, 4548956.820446532219648 ] } },
{ "type": "Feature", "properties": { "ID": 52394, "VALU_COORX": -693118.14696420543, "VALU_COORY": 4546915.6104254741, "CODE_H50": 939, "CODE_DOCU": " 40292", "VALU_BOU267": 26.732, "ESRI_OID": 19556 }, "geometry": { "type": "Point", "coordinates": [ -693118.146964205428958, 4546915.610425474122167 ] } },
{ "type": "Feature", "properties": { "ID": 52397, "VALU_COORX": -691034.22083437152, "VALU_COORY": 4548417.6275833203, "CODE_H50": 939, "CODE_DOCU": " 40292", "VALU_BOU267": 26.593, "ESRI_OID": 24261 }, "geometry": { "type": "Point", "coordinates": [ -691034.220834371517412, 4548417.627583320252597 ] } },
{ "type": "Feature", "properties": { "ID": 52400, "VALU_COORX": -701197.86219535104, "VALU_COORY": 4547959.7082253806, "CODE_H50": 939, "CODE_DOCU": " 40292", "VALU_BOU267": 15.924, "ESRI_OID": 8216 }, "geometry": { "type": "Point", "coordinates": [ -701197.862195351044647, 4547959.708225380629301 ] } },
{ "type": "Feature", "properties": { "ID": 52415, "VALU_COORX": -695771.04715357395, "VALU_COORY": 4547088.5371137159, "CODE_H50": 939, "CODE_DOCU": " 40292", "VALU_BOU267": 23.345, "ESRI_OID": 215317 }, "geometry": { "type": "Point", "coordinates": [ -695771.04715357394889, 4547088.53711371589452 ] } },
{ "type": "Feature", "properties": { "ID": 52417, "VALU_COORX": -695592.35978279274, "VALU_COORY": 4546525.0990063604, "CODE_H50": 939, "CODE_DOCU": " 40292", "VALU_BOU267": 25.092, "ESRI_OID": 11517 }, "geometry": { "type": "Point", "coordinates": [ -695592.359782792744227, 4546525.099006360396743 ] } },
{ "type": "Feature", "properties": { "ID": 52420, "VALU_COORX": -694909.12732200627, "VALU_COORY": 4546825.4956390364, "CODE_H50": 939, "CODE_DOCU": " 40292", "VALU_BOU267": 25.036, "ESRI_OID": 24738 }, "geometry": { "type": "Point", "coordinates": [ -694909.127322006272152, 4546825.495639036409557 ] } },
{ "type": "Feature", "properties": { "ID": 52429, "VALU_COORX": -694523.99375678902, "VALU_COORY": 4548040.4884519912, "CODE_H50": 939, "CODE_DOCU": " 40292", "VALU_BOU267": 23.676, "ESRI_OID": 51080 }, "geometry": { "type": "Point", "coordinates": [ -694523.993756789015606, 4548040.488451991230249 ] } },
{ "type": "Feature", "properties": { "ID": 52437, "VALU_COORX": -692347.60157262348, "VALU_COORY": 4546441.1185916197, "CODE_H50": 939, "CODE_DOCU": " 40292", "VALU_BOU267": 28.177, "ESRI_OID": 2565 }, "geometry": { "type": "Point", "coordinates": [ -692347.601572623476386, 4546441.11859161965549 ] } },
{ "type": "Feature", "properties": { "ID": 52440, "VALU_COORX": -698635.86231411726, "VALU_COORY": 4546199.0062181707, "CODE_H50": 939, "CODE_DOCU": " 40292", "VALU_BOU267": 21.516, "ESRI_OID": 18604 }, "geometry": { "type": "Point", "coordinates": [ -698635.862314117257483, 4546199.006218170747161 ] } },
{ "type": "Feature", "properties": { "ID": 52453, "VALU_COORX": -699251.24929839361, "VALU_COORY": 4544901.1356342128, "CODE_H50": 939, "CODE_DOCU": " 40292", "VALU_BOU267": 23.289, "ESRI_OID": 163568 }, "geometry": { "type": "Point", "coordinates": [ -699251.249298393609934, 4544901.135634212754667 ] } },
{ "type": "Feature", "properties": { "ID": 52455, "VALU_COORX": -700027.78585447918, "VALU_COORY": 4546984.7685040142, "CODE_H50": 939, "CODE_DOCU": " 40292", "VALU_BOU267": 18.089, "ESRI_OID": 225068 }, "geometry": { "type": "Point", "coordinates": [ -700027.78585447918158, 4546984.768504014238715 ] } },
{ "type": "Feature", "properties": { "ID": 52457, "VALU_COORX": -699853.9190701145, "VALU_COORY": 4547467.974694524, "CODE_H50": 939, "CODE_DOCU": " 40292", "VALU_BOU267": 17.655, "ESRI_OID": 16234 }, "geometry": { "type": "Point", "coordinates": [ -699853.919070114498027, 4547467.974694523960352 ] } },
{ "type": "Feature", "properties": { "ID": 52460, "VALU_COORX": -698898.9713121528, "VALU_COORY": 4547873.4144027736, "CODE_H50": 939, "CODE_DOCU": " 40292", "VALU_BOU267": 18.683, "ESRI_OID": 1163 }, "geometry": { "type": "Point", "coordinates": [ -698898.971312152803876, 4547873.414402773603797 ] } },
{ "type": "Feature", "properties": { "ID": 52462, "VALU_COORX": -698433.21167579899, "VALU_COORY": 4547488.8440442588, "CODE_H50": 939, "CODE_DOCU": " 40292", "VALU_BOU267": 20.771, "ESRI_OID": 92231 }, "geometry": { "type": "Point", "coordinates": [ -698433.211675798986107, 4547488.84404425881803 ] } },
{ "type": "Feature", "properties": { "ID": 52463, "VALU_COORX": -698246.16620833916, "VALU_COORY": 4547124.926126549, "CODE_H50": 939, "CODE_DOCU": " 40292", "VALU_BOU267": 21.771, "ESRI_OID": 18138 }, "geometry": { "type": "Point", "coordinates": [ -698246.166208339156583, 4547124.92612654902041 ] } },
{ "type": "Feature", "properties": { "ID": 52467, "VALU_COORX": -698987.6865497753, "VALU_COORY": 4544660.5211728169, "CODE_H50": 939, "CODE_DOCU": " 40292", "VALU_BOU267": 23.961, "ESRI_OID": 177915 }, "geometry": { "type": "Point", "coordinates": [ -698987.68654977530241, 4544660.521172816865146 ] } },
{ "type": "Feature", "properties": { "ID": 52469, "VALU_COORX": -698034.30917751219, "VALU_COORY": 4544814.5434880834, "CODE_H50": 939, "CODE_DOCU": " 40292", "VALU_BOU267": 25.453, "ESRI_OID": 46162 }, "geometry": { "type": "Point", "coordinates": [ -698034.309177512186579, 4544814.543488083407283 ] } },
{ "type": "Feature", "properties": { "ID": 52475, "VALU_COORX": -703419.46537655545, "VALU_COORY": 4546430.5425717793, "CODE_H50": 939, "CODE_DOCU": " 40292", "VALU_BOU267": 14.99, "ESRI_OID": 224323 }, "geometry": { "type": "Point", "coordinates": [ -703419.465376555453986, 4546430.542571779340506 ] } },
{ "type": "Feature", "properties": { "ID": 52477, "VALU_COORX": -703097.2985528158, "VALU_COORY": 4547002.7957268339, "CODE_H50": 939, "CODE_DOCU": " 40292", "VALU_BOU267": 14.605, "ESRI_OID": 29910 }, "geometry": { "type": "Point", "coordinates": [ -703097.298552815802395, 4547002.795726833865047 ] } },
{ "type": "Feature", "properties": { "ID": 52480, "VALU_COORX": -702423.40210922586, "VALU_COORY": 4547956.8170504831, "CODE_H50": 939, "CODE_DOCU": " 40292", "VALU_BOU267": 15.373, "ESRI_OID": 13878 }, "geometry": { "type": "Point", "coordinates": [ -702423.40210922586266, 4547956.817050483077765 ] } },
{ "type": "Feature", "properties": { "ID": 52483, "VALU_COORX": -700026.69725194387, "VALU_COORY": 4548072.1971277641, "CODE_H50": 939, "CODE_DOCU": " 40292", "VALU_BOU267": 16.673, "ESRI_OID": 1625 }, "geometry": { "type": "Point", "coordinates": [ -700026.697251943871379, 4548072.197127764113247 ] } },
{ "type": "Feature", "properties": { "ID": 53001, "VALU_COORX": -703474.12458895973, "VALU_COORY": 4532887.7312196987, "CODE_H50": 939, "CODE_DOCU": " 40292", "VALU_BOU267": 19.884, "ESRI_OID": 2089 }, "geometry": { "type": "Point", "coordinates": [ -703474.124588959733956, 4532887.731219698674977 ] } },
{ "type": "Feature", "properties": { "ID": 53002, "VALU_COORX": -703810.66585573799, "VALU_COORY": 4532556.4647080814, "CODE_H50": 939, "CODE_DOCU": " 40292", "VALU_BOU267": 19.274, "ESRI_OID": 201658 }, "geometry": { "type": "Point", "coordinates": [ -703810.665855737985112, 4532556.464708081446588 ] } },
{ "type": "Feature", "properties": { "ID": 53004, "VALU_COORX": -704673.24662273657, "VALU_COORY": 4534363.0456990981, "CODE_H50": 939, "CODE_DOCU": " 40292", "VALU_BOU267": 19.704, "ESRI_OID": 15292 }, "geometry": { "type": "Point", "coordinates": [ -704673.246622736565769, 4534363.045699098147452 ] } },
{ "type": "Feature", "properties": { "ID": 53018, "VALU_COORX": -703698.42251712759, "VALU_COORY": 4534273.6018652488, "CODE_H50": 939, "CODE_DOCU": " 40292", "VALU_BOU267": 21.651, "ESRI_OID": 29915 }, "geometry": { "type": "Point", "coordinates": [ -703698.422517127590254, 4534273.601865248754621 ] } },
{ "type": "Feature", "properties": { "ID": 53021, "VALU_COORX": -705245.63815661357, "VALU_COORY": 4533280.7219313988, "CODE_H50": 939, "CODE_DOCU": " 40292", "VALU_BOU267": 17.215, "ESRI_OID": 11997 }, "geometry": { "type": "Point", "coordinates": [ -705245.638156613567844, 4533280.721931398846209 ] } },
{ "type": "Feature", "properties": { "ID": 53024, "VALU_COORX": -702630.88659026835, "VALU_COORY": 4539363.9290296156, "CODE_H50": 939, "CODE_DOCU": " 40292", "VALU_BOU267": 20.3, "ESRI_OID": 28028 }, "geometry": { "type": "Point", "coordinates": [ -702630.886590268346481, 4539363.929029615595937 ] } },
{ "type": "Feature", "properties": { "ID": 53029, "VALU_COORX": -703702.55587673432, "VALU_COORY": 4540037.0839011604, "CODE_H50": 939, "CODE_DOCU": " 40292", "VALU_BOU267": 17.173, "ESRI_OID": 101515 }, "geometry": { "type": "Point", "coordinates": [ -703702.55587673431728, 4540037.083901160396636 ] } },
{ "type": "Feature", "properties": { "ID": 53041, "VALU_COORX": -706361.49921640428, "VALU_COORY": 4541348.2031474756, "CODE_H50": 939, "CODE_DOCU": " 40292", "VALU_BOU267": 11.711, "ESRI_OID": 6814 }, "geometry": { "type": "Point", "coordinates": [ -706361.499216404277831, 4541348.203147475607693 ] } },
{ "type": "Feature", "properties": { "ID": 53044, "VALU_COORX": -704223.6709292247, "VALU_COORY": 4538493.3182980251, "CODE_H50": 939, "CODE_DOCU": " 40292", "VALU_BOU267": 17.589, "ESRI_OID": 21899 }, "geometry": { "type": "Point", "coordinates": [ -704223.67092922469601, 4538493.31829802505672 ] } },
{ "type": "Feature", "properties": { "ID": 53049, "VALU_COORX": -704356.3787687266, "VALU_COORY": 4537677.270467083, "CODE_H50": 939, "CODE_DOCU": " 40292", "VALU_BOU267": 16.64, "ESRI_OID": 104207 }, "geometry": { "type": "Point", "coordinates": [ -704356.378768726601265, 4537677.270467082969844 ] } },
{ "type": "Feature", "properties": { "ID": 53061, "VALU_COORX": -704665.01247885975, "VALU_COORY": 4539334.5827817805, "CODE_H50": 939, "CODE_DOCU": " 40292", "VALU_BOU267": 16.243, "ESRI_OID": 24263 }, "geometry": { "type": "Point", "coordinates": [ -704665.012478859745897, 4539334.582781780511141 ] } },
{ "type": "Feature", "properties": { "ID": 53064, "VALU_COORX": -706746.11239163508, "VALU_COORY": 4539242.2946815277, "CODE_H50": 939, "CODE_DOCU": " 40292", "VALU_BOU267": 11.278, "ESRI_OID": 8208 }, "geometry": { "type": "Point", "coordinates": [ -706746.112391635077074, 4539242.294681527651846 ] } },
{ "type": "Feature", "properties": { "ID": 53067, "VALU_COORX": -707058.64669512562, "VALU_COORY": 4542484.7665632479, "CODE_H50": 939, "CODE_DOCU": " 40292", "VALU_BOU267": 11.239, "ESRI_OID": 29926 }, "geometry": { "type": "Point", "coordinates": [ -707058.646695125615224, 4542484.76656324788928 ] } },
{ "type": "Feature", "properties": { "ID": 53069, "VALU_COORX": -706766.00399362936, "VALU_COORY": 4542707.0800389247, "CODE_H50": 939, "CODE_DOCU": " 40292", "VALU_BOU267": 12.205, "ESRI_OID": 102228 }, "geometry": { "type": "Point", "coordinates": [ -706766.003993629361503, 4542707.080038924701512 ] } },
{ "type": "Feature", "properties": { "ID": 53076, "VALU_COORX": -703396.64541142597, "VALU_COORY": 4541350.2123410599, "CODE_H50": 939, "CODE_DOCU": " 40292", "VALU_BOU267": 17.828, "ESRI_OID": 216161 }, "geometry": { "type": "Point", "coordinates": [ -703396.645411425968632, 4541350.212341059930623 ] } },
{ "type": "Feature", "properties": { "ID": 53081, "VALU_COORX": -706495.2178214984, "VALU_COORY": 4542373.1230904683, "CODE_H50": 939, "CODE_DOCU": " 40292", "VALU_BOU267": 12.688, "ESRI_OID": 19091 }, "geometry": { "type": "Point", "coordinates": [ -706495.217821498401463, 4542373.123090468347073 ] } },
{ "type": "Feature", "properties": { "ID": 53084, "VALU_COORX": -702357.30149999191, "VALU_COORY": 4540271.3118593385, "CODE_H50": 939, "CODE_DOCU": " 40292", "VALU_BOU267": 20.134, "ESRI_OID": 9646 }, "geometry": { "type": "Point", "coordinates": [ -702357.301499991910532, 4540271.311859338544309 ] } },
{ "type": "Feature", "properties": { "ID": 53087, "VALU_COORX": -701650.51242413057, "VALU_COORY": 4540854.2931894939, "CODE_H50": 939, "CODE_DOCU": " 40292", "VALU_BOU267": 22.259, "ESRI_OID": 22849 }, "geometry": { "type": "Point", "coordinates": [ -701650.5124241305748, 4540854.293189493939281 ] } },
{ "type": "Feature", "properties": { "ID": 53101, "VALU_COORX": -702891.56092997151, "VALU_COORY": 4543571.0705734156, "CODE_H50": 939, "CODE_DOCU": " 40292", "VALU_BOU267": 18.288, "ESRI_OID": 2566 }, "geometry": { "type": "Point", "coordinates": [ -702891.56092997151427, 4543571.070573415607214 ] } },
{ "type": "Feature", "properties": { "ID": 53104, "VALU_COORX": -707191.49748100643, "VALU_COORY": 4541323.4518815549, "CODE_H50": 939, "CODE_DOCU": " 40292", "VALU_BOU267": 9.517, "ESRI_OID": 18606 }, "geometry": { "type": "Point", "coordinates": [ -707191.497481006430462, 4541323.45188155490905 ] } },
{ "type": "Feature", "properties": { "ID": 53107, "VALU_COORX": -706988.19588254008, "VALU_COORY": 4539729.3213754278, "CODE_H50": 939, "CODE_DOCU": " 40292", "VALU_BOU267": 10.86, "ESRI_OID": 10121 }, "geometry": { "type": "Point", "coordinates": [ -706988.195882540079765, 4539729.321375427767634 ] } },
{ "type": "Feature", "properties": { "ID": 53110, "VALU_COORX": -702039.30893242592, "VALU_COORY": 4542681.8347074967, "CODE_H50": 939, "CODE_DOCU": " 40292", "VALU_BOU267": 20.946, "ESRI_OID": 49890 }, "geometry": { "type": "Point", "coordinates": [ -702039.30893242591992, 4542681.83470749668777 ] } },
{ "type": "Feature", "properties": { "ID": 53116, "VALU_COORX": -703405.54716937977, "VALU_COORY": 4535665.3855689447, "CODE_H50": 939, "CODE_DOCU": " 40292", "VALU_BOU267": 20.907, "ESRI_OID": 44387 }, "geometry": { "type": "Point", "coordinates": [ -703405.54716937977355, 4535665.385568944737315 ] } },
{ "type": "Feature", "properties": { "ID": 53117, "VALU_COORX": -703266.90931160317, "VALU_COORY": 4535312.9185380172, "CODE_H50": 939, "CODE_DOCU": " 40292", "VALU_BOU267": 21.404, "ESRI_OID": 156476 }, "geometry": { "type": "Point", "coordinates": [ -703266.909311603172682, 4535312.918538017198443 ] } },
{ "type": "Feature", "properties": { "ID": 53124, "VALU_COORX": -700236.26351607684, "VALU_COORY": 4542152.1281277062, "CODE_H50": 939, "CODE_DOCU": " 40292", "VALU_BOU267": 25.278, "ESRI_OID": 1165 }, "geometry": { "type": "Point", "coordinates": [ -700236.26351607684046, 4542152.128127706237137 ] } },
{ "type": "Feature", "properties": { "ID": 53127, "VALU_COORX": -703098.06443522964, "VALU_COORY": 4536752.3893394005, "CODE_H50": 939, "CODE_DOCU": " 40292", "VALU_BOU267": 18.796, "ESRI_OID": 18128 }, "geometry": { "type": "Point", "coordinates": [ -703098.064435229636729, 4536752.389339400455356 ] } },
{ "type": "Feature", "properties": { "ID": 53144, "VALU_COORX": -700548.76363513409, "VALU_COORY": 4540834.9452798441, "CODE_H50": 939, "CODE_DOCU": " 40292", "VALU_BOU267": 23.48, "ESRI_OID": 21423 }, "geometry": { "type": "Point", "coordinates": [ -700548.763635134091601, 4540834.945279844105244 ] } },
{ "type": "Feature", "properties": { "ID": 53147, "VALU_COORX": -701069.08788511786, "VALU_COORY": 4538174.3337753946, "CODE_H50": 939, "CODE_DOCU": " 40292", "VALU_BOU267": 24.292, "ESRI_OID": 1615 }, "geometry": { "type": "Point", "coordinates": [ -701069.087885117856786, 4538174.333775394596159 ] } },
{ "type": "Feature", "properties": { "ID": 53150, "VALU_COORX": -702545.84982515685, "VALU_COORY": 4536949.4610203234, "CODE_H50": 939, "CODE_DOCU": " 40292", "VALU_BOU267": 19.838, "ESRI_OID": 17663 }, "geometry": { "type": "Point", "coordinates": [ -702545.849825156852603, 4536949.461020323447883 ] } },
{ "type": "Feature", "properties": { "ID": 53153, "VALU_COORX": -701127.01557852118, "VALU_COORY": 4539537.6841782769, "CODE_H50": 939, "CODE_DOCU": " 40292", "VALU_BOU267": 23.373, "ESRI_OID": 45596 }, "geometry": { "type": "Point", "coordinates": [ -701127.015578521182761, 4539537.684178276918828 ] } },
{ "type": "Feature", "properties": { "ID": 53159, "VALU_COORX": -701413.47442146426, "VALU_COORY": 4537951.7143582096, "CODE_H50": 939, "CODE_DOCU": " 40292", "VALU_BOU267": 23.47, "ESRI_OID": 221538 }, "geometry": { "type": "Point", "coordinates": [ -701413.474421464256011, 4537951.714358209632337 ] } },
{ "type": "Feature", "properties": { "ID": 53164, "VALU_COORX": -701057.16691820126, "VALU_COORY": 4537510.5023672944, "CODE_H50": 939, "CODE_DOCU": " 40292", "VALU_BOU267": 24.14, "ESRI_OID": 11518 }, "geometry": { "type": "Point", "coordinates": [ -701057.166918201255612, 4537510.50236729439348 ] } },
{ "type": "Feature", "properties": { "ID": 53167, "VALU_COORX": -700774.76423518395, "VALU_COORY": 4534206.1789497277, "CODE_H50": 939, "CODE_DOCU": " 40292", "VALU_BOU267": 24.86, "ESRI_OID": 28504 }, "geometry": { "type": "Point", "coordinates": [ -700774.764235183945857, 4534206.178949727676809 ] } },
{ "type": "Feature", "properties": { "ID": 53170, "VALU_COORX": -699526.04965556436, "VALU_COORY": 4536572.019987585, "CODE_H50": 939, "CODE_DOCU": " 40292", "VALU_BOU267": 27.276, "ESRI_OID": 218 }, "geometry": { "type": "Point", "coordinates": [ -699526.049655564362183, 4536572.019987585023046 ] } },
{ "type": "Feature", "properties": { "ID": 53173, "VALU_COORX": -698705.00188736117, "VALU_COORY": 4536553.9944834709, "CODE_H50": 939, "CODE_DOCU": " 40292", "VALU_BOU267": 28.76, "ESRI_OID": 50177 }, "geometry": { "type": "Point", "coordinates": [ -698705.001887361169793, 4536553.994483470916748 ] } },
{ "type": "Feature", "properties": { "ID": 53187, "VALU_COORX": -698738.61132778542, "VALU_COORY": 4535960.9034868916, "CODE_H50": 939, "CODE_DOCU": " 40292", "VALU_BOU267": 28.086, "ESRI_OID": 4439 }, "geometry": { "type": "Point", "coordinates": [ -698738.611327785416506, 4535960.903486891649663 ] } },
{ "type": "Feature", "properties": { "ID": 53190, "VALU_COORX": -698138.89062063082, "VALU_COORY": 4535410.3505164143, "CODE_H50": 939, "CODE_DOCU": " 40292", "VALU_BOU267": 28.572, "ESRI_OID": 22370 }, "geometry": { "type": "Point", "coordinates": [ -698138.890620630816557, 4535410.350516414269805 ] } },
{ "type": "Feature", "properties": { "ID": 53193, "VALU_COORX": -700814.35383023997, "VALU_COORY": 4532742.5097726313, "CODE_H50": 939, "CODE_DOCU": " 40292", "VALU_BOU267": 25.734, "ESRI_OID": 50764 }, "geometry": { "type": "Point", "coordinates": [ -700814.353830239968374, 4532742.509772631339729 ] } },
{ "type": "Feature", "properties": { "ID": 53197, "VALU_COORX": -701536.97573847941, "VALU_COORY": 4533164.2454329552, "CODE_H50": 939, "CODE_DOCU": " 40292", "VALU_BOU267": 25.066, "ESRI_OID": 164524 }, "geometry": { "type": "Point", "coordinates": [ -701536.975738479406573, 4533164.245432955212891 ] } },
{ "type": "Feature", "properties": { "ID": 53200, "VALU_COORX": -695709.21517765208, "VALU_COORY": 4533869.3238211591, "CODE_H50": 939, "CODE_DOCU": " 40292", "VALU_BOU267": 29.157, "ESRI_OID": 163075 }, "geometry": { "type": "Point", "coordinates": [ -695709.215177652076818, 4533869.323821159079671 ] } },
{ "type": "Feature", "properties": { "ID": 53207, "VALU_COORX": -696976.39341613103, "VALU_COORY": 4536898.4977113586, "CODE_H50": 939, "CODE_DOCU": " 40292", "VALU_BOU267": 32.356, "ESRI_OID": 8704 }, "geometry": { "type": "Point", "coordinates": [ -696976.393416131031699, 4536898.497711358591914 ] } },
{ "type": "Feature", "properties": { "ID": 53210, "VALU_COORX": -699658.44070863607, "VALU_COORY": 4533026.5347474199, "CODE_H50": 939, "CODE_DOCU": " 40292", "VALU_BOU267": 25.935, "ESRI_OID": 27557 }, "geometry": { "type": "Point", "coordinates": [ -699658.440708636073396, 4533026.53474741987884 ] } },
{ "type": "Feature", "properties": { "ID": 53225, "VALU_COORX": -696528.74804073933, "VALU_COORY": 4535089.010260269, "CODE_H50": 939, "CODE_DOCU": " 40292", "VALU_BOU267": 30.113, "ESRI_OID": 213804 }, "geometry": { "type": "Point", "coordinates": [ -696528.748040739330463, 4535089.01026026904583 ] } },
{ "type": "Feature", "properties": { "ID": 53227, "VALU_COORX": -696655.90731212264, "VALU_COORY": 4534132.84213016, "CODE_H50": 939, "CODE_DOCU": " 40292", "VALU_BOU267": 27.089, "ESRI_OID": 11061 }, "geometry": { "type": "Point", "coordinates": [ -696655.907312122639269, 4534132.842130159959197 ] } },
{ "type": "Feature", "properties": { "ID": 53230, "VALU_COORX": -695936.54873976531, "VALU_COORY": 4535554.5125569096, "CODE_H50": 939, "CODE_DOCU": " 40292", "VALU_BOU267": 32.04, "ESRI_OID": 23318 }, "geometry": { "type": "Point", "coordinates": [ -695936.548739765305072, 4535554.512556909583509 ] } },
{ "type": "Feature", "properties": { "ID": 53231, "VALU_COORX": -694863.55901824974, "VALU_COORY": 4533167.586280887, "CODE_H50": 939, "CODE_DOCU": " 40292", "VALU_BOU267": 29.31, "ESRI_OID": 210413 }, "geometry": { "type": "Point", "coordinates": [ -694863.559018249739893, 4533167.586280887015164 ] } },
{ "type": "Feature", "properties": { "ID": 53233, "VALU_COORX": -695976.08013545233, "VALU_COORY": 4536004.3377794074, "CODE_H50": 939, "CODE_DOCU": " 40292", "VALU_BOU267": 32.909, "ESRI_OID": 5387 }, "geometry": { "type": "Point", "coordinates": [ -695976.08013545232825, 4536004.337779407389462 ] } },
{ "type": "Feature", "properties": { "ID": 53236, "VALU_COORX": -696879.19145567075, "VALU_COORY": 4533366.0048823887, "CODE_H50": 939, "CODE_DOCU": " 40292", "VALU_BOU267": 25.795, "ESRI_OID": 47479 }, "geometry": { "type": "Point", "coordinates": [ -696879.191455670748837, 4533366.004882388748229 ] } },
{ "type": "Feature", "properties": { "ID": 53250, "VALU_COORX": -696445.45921713812, "VALU_COORY": 4532974.404325027, "CODE_H50": 939, "CODE_DOCU": " 40292", "VALU_BOU267": 25.907, "ESRI_OID": 9644 }, "geometry": { "type": "Point", "coordinates": [ -696445.459217138122767, 4532974.404325027018785 ] } },
{ "type": "Feature", "properties": { "ID": 53252, "VALU_COORX": -697873.96947400528, "VALU_COORY": 4533198.1612013252, "CODE_H50": 939, "CODE_DOCU": " 40292", "VALU_BOU267": 24.331, "ESRI_OID": 117733 }, "geometry": { "type": "Point", "coordinates": [ -697873.969474005280063, 4533198.161201325245202 ] } },
{ "type": "Feature", "properties": { "ID": 53253, "VALU_COORX": -694769.80339433148, "VALU_COORY": 4533815.8232593611, "CODE_H50": 939, "CODE_DOCU": " 40292", "VALU_BOU267": 30.686, "ESRI_OID": 22847 }, "geometry": { "type": "Point", "coordinates": [ -694769.803394331480376, 4533815.823259361088276 ] } },
{ "type": "Feature", "properties": { "ID": 53268, "VALU_COORX": -694221.2445265248, "VALU_COORY": 4538191.1131542427, "CODE_H50": 939, "CODE_DOCU": " 40292", "VALU_BOU267": 38.72, "ESRI_OID": 217173 }, "geometry": { "type": "Point", "coordinates": [ -694221.244526524795219, 4538191.113154242746532 ] } },
{ "type": "Feature", "properties": { "ID": 53270, "VALU_COORX": -693857.00013920886, "VALU_COORY": 4538648.7267923038, "CODE_H50": 939, "CODE_DOCU": " 40292", "VALU_BOU267": 39.396, "ESRI_OID": 12935 }, "geometry": { "type": "Point", "coordinates": [ -693857.000139208859764, 4538648.726792303845286 ] } },
{ "type": "Feature", "properties": { "ID": 53273, "VALU_COORX": -693360.40887111449, "VALU_COORY": 4534002.8023021482, "CODE_H50": 939, "CODE_DOCU": " 40292", "VALU_BOU267": 33.05, "ESRI_OID": 25206 }, "geometry": { "type": "Point", "coordinates": [ -693360.408871114486828, 4534002.802302148193121 ] } },
{ "type": "Feature", "properties": { "ID": 53275, "VALU_COORX": -693017.49292759004, "VALU_COORY": 4534048.8748044316, "CODE_H50": 939, "CODE_DOCU": " 40292", "VALU_BOU267": 33.608, "ESRI_OID": 119413 }, "geometry": { "type": "Point", "coordinates": [ -693017.492927590035833, 4534048.874804431572556 ] } },
{ "type": "Feature", "properties": { "ID": 53290, "VALU_COORX": -693705.28857102152, "VALU_COORY": 4537026.2849305617, "CODE_H50": 939, "CODE_DOCU": " 40292", "VALU_BOU267": 38.213, "ESRI_OID": 21898 }, "geometry": { "type": "Point", "coordinates": [ -693705.288571021519601, 4537026.284930561669171 ] } },
{ "type": "Feature", "properties": { "ID": 53293, "VALU_COORX": -692957.10914448497, "VALU_COORY": 4536741.6246452788, "CODE_H50": 939, "CODE_DOCU": " 40292", "VALU_BOU267": 38.632, "ESRI_OID": 4912 }, "geometry": { "type": "Point", "coordinates": [ -692957.109144484973513, 4536741.624645278789103 ] } },
{ "type": "Feature", "properties": { "ID": 53299, "VALU_COORX": -691953.38660151709, "VALU_COORY": 4536512.6278420929, "CODE_H50": 939, "CODE_DOCU": " 40292", "VALU_BOU267": 39.033, "ESRI_OID": 46422 }, "geometry": { "type": "Point", "coordinates": [ -691953.386601517093368, 4536512.627842092886567 ] } },
{ "type": "Feature", "properties": { "ID": 53310, "VALU_COORX": -694163.74847926933, "VALU_COORY": 4539601.6402198356, "CODE_H50": 939, "CODE_DOCU": " 40292", "VALU_BOU267": 39.372, "ESRI_OID": 28965 }, "geometry": { "type": "Point", "coordinates": [ -694163.748479269328527, 4539601.640219835564494 ] } },
{ "type": "Feature", "properties": { "ID": 53313, "VALU_COORX": -693028.81331842078, "VALU_COORY": 4542879.6844609426, "CODE_H50": 939, "CODE_DOCU": " 40292", "VALU_BOU267": 35.854, "ESRI_OID": 14809 }, "geometry": { "type": "Point", "coordinates": [ -693028.813318420783617, 4542879.68446094263345 ] } },
{ "type": "Feature", "properties": { "ID": 53316, "VALU_COORX": -693133.42730853695, "VALU_COORY": 4543462.0301984586, "CODE_H50": 939, "CODE_DOCU": " 40292", "VALU_BOU267": 34.966, "ESRI_OID": 28966 }, "geometry": { "type": "Point", "coordinates": [ -693133.427308536949567, 4543462.030198458582163 ] } },
{ "type": "Feature", "properties": { "ID": 53319, "VALU_COORX": -697132.62908900564, "VALU_COORY": 4542129.346652112, "CODE_H50": 939, "CODE_DOCU": " 40292", "VALU_BOU267": 27.88, "ESRI_OID": 49446 }, "geometry": { "type": "Point", "coordinates": [ -697132.629089005640708, 4542129.346652111969888 ] } },
{ "type": "Feature", "properties": { "ID": 53321, "VALU_COORX": -697180.78549477004, "VALU_COORY": 4542607.0472653992, "CODE_H50": 939, "CODE_DOCU": " 40292", "VALU_BOU267": 28.51, "ESRI_OID": 105754 }, "geometry": { "type": "Point", "coordinates": [ -697180.785494770039804, 4542607.047265399247408 ] } },
{ "type": "Feature", "properties": { "ID": 53322, "VALU_COORX": -697719.24216226465, "VALU_COORY": 4542838.0273436289, "CODE_H50": 939, "CODE_DOCU": " 40292", "VALU_BOU267": 27.542, "ESRI_OID": 47115 }, "geometry": { "type": "Point", "coordinates": [ -697719.242162264650688, 4542838.027343628928065 ] } },
{ "type": "Feature", "properties": { "ID": 53330, "VALU_COORX": -690694.92534505739, "VALU_COORY": 4541585.4461538913, "CODE_H50": 939, "CODE_DOCU": " 40292", "VALU_BOU267": 39.916, "ESRI_OID": 19090 }, "geometry": { "type": "Point", "coordinates": [ -690694.925345057388768, 4541585.446153891272843 ] } },
{ "type": "Feature", "properties": { "ID": 53331, "VALU_COORX": -690350.44150586263, "VALU_COORY": 4541630.2555784751, "CODE_H50": 939, "CODE_DOCU": " 40292", "VALU_BOU267": 40.475, "ESRI_OID": 218012 }, "geometry": { "type": "Point", "coordinates": [ -690350.441505862632766, 4541630.25557847507298 ] } },
{ "type": "Feature", "properties": { "ID": 53333, "VALU_COORX": -689598.97851543559, "VALU_COORY": 4541293.3524053777, "CODE_H50": 939, "CODE_DOCU": " 40292", "VALU_BOU267": 41.575, "ESRI_OID": 5866 }, "geometry": { "type": "Point", "coordinates": [ -689598.978515435592271, 4541293.352405377663672 ] } },
{ "type": "Feature", "properties": { "ID": 53335, "VALU_COORX": -689177.71438931546, "VALU_COORY": 4540713.0525680538, "CODE_H50": 939, "CODE_DOCU": " 40292", "VALU_BOU267": 42.831, "ESRI_OID": 120661 }, "geometry": { "type": "Point", "coordinates": [ -689177.714389315457083, 4540713.05256805382669 ] } },
{ "type": "Feature", "properties": { "ID": 53336, "VALU_COORX": -692605.68299727165, "VALU_COORY": 4535068.0593220592, "CODE_H50": 939, "CODE_DOCU": " 40292", "VALU_BOU267": 36.107, "ESRI_OID": 15302 }, "geometry": { "type": "Point", "coordinates": [ -692605.682997271651402, 4535068.05932205915451 ] } },
{ "type": "Feature", "properties": { "ID": 53338, "VALU_COORX": -692447.82643206976, "VALU_COORY": 4535359.9336454514, "CODE_H50": 939, "CODE_DOCU": " 40292", "VALU_BOU267": 36.619, "ESRI_OID": 117155 }, "geometry": { "type": "Point", "coordinates": [ -692447.826432069763541, 4535359.933645451441407 ] } },
{ "type": "Feature", "properties": { "ID": 53345, "VALU_COORX": -689925.86846736132, "VALU_COORY": 4539803.6333505893, "CODE_H50": 939, "CODE_DOCU": " 40292", "VALU_BOU267": 42.994, "ESRI_OID": 50229 }, "geometry": { "type": "Point", "coordinates": [ -689925.868467361317016, 4539803.633350589312613 ] } },
{ "type": "Feature", "properties": { "ID": 53348, "VALU_COORX": -691488.42312197888, "VALU_COORY": 4534835.3654372171, "CODE_H50": 939, "CODE_DOCU": " 40292", "VALU_BOU267": 36.354, "ESRI_OID": 222421 }, "geometry": { "type": "Point", "coordinates": [ -691488.423121978878044, 4534835.365437217056751 ] } },
{ "type": "Feature", "properties": { "ID": 53353, "VALU_COORX": -691400.71719710913, "VALU_COORY": 4539290.1685522543, "CODE_H50": 939, "CODE_DOCU": " 40292", "VALU_BOU267": 41.562, "ESRI_OID": 27088 }, "geometry": { "type": "Point", "coordinates": [ -691400.717197109130211, 4539290.168552254326642 ] } },
{ "type": "Feature", "properties": { "ID": 53356, "VALU_COORX": -691219.30339300307, "VALU_COORY": 4538414.0191427004, "CODE_H50": 939, "CODE_DOCU": " 40292", "VALU_BOU267": 41.799, "ESRI_OID": 12934 }, "geometry": { "type": "Point", "coordinates": [ -691219.303393003065139, 4538414.019142700359225 ] } },
{ "type": "Feature", "properties": { "ID": 53359, "VALU_COORX": -690900.32022166194, "VALU_COORY": 4537352.5228195433, "CODE_H50": 939, "CODE_DOCU": " 40292", "VALU_BOU267": 40.382, "ESRI_OID": 55831 }, "geometry": { "type": "Point", "coordinates": [ -690900.320221661939286, 4537352.522819543257356 ] } },
{ "type": "Feature", "properties": { "ID": 53368, "VALU_COORX": -691760.82444830239, "VALU_COORY": 4538892.3401413281, "CODE_H50": 939, "CODE_DOCU": " 40292", "VALU_BOU267": 41.884, "ESRI_OID": 223010 }, "geometry": { "type": "Point", "coordinates": [ -691760.824448302388191, 4538892.340141328051686 ] } },
{ "type": "Feature", "properties": { "ID": 53371, "VALU_COORX": -692013.57908456714, "VALU_COORY": 4538272.5586577747, "CODE_H50": 939, "CODE_DOCU": " 40292", "VALU_BOU267": 41.306, "ESRI_OID": 223549 }, "geometry": { "type": "Point", "coordinates": [ -692013.579084567143582, 4538272.558657774701715 ] } },
{ "type": "Feature", "properties": { "ID": 53373, "VALU_COORX": -693278.78772496537, "VALU_COORY": 4539383.8092021504, "CODE_H50": 939, "CODE_DOCU": " 40292", "VALU_BOU267": 40.966, "ESRI_OID": 25685 }, "geometry": { "type": "Point", "coordinates": [ -693278.787724965368398, 4539383.809202150441706 ] } },
{ "type": "Feature", "properties": { "ID": 53376, "VALU_COORX": -691108.66682790348, "VALU_COORY": 4539759.1975883674, "CODE_H50": 939, "CODE_DOCU": " 40292", "VALU_BOU267": 41.671, "ESRI_OID": 10591 }, "geometry": { "type": "Point", "coordinates": [ -691108.666827903478406, 4539759.197588367387652 ] } },
{ "type": "Feature", "properties": { "ID": 53379, "VALU_COORX": -695312.40653945354, "VALU_COORY": 4542738.2459275993, "CODE_H50": 939, "CODE_DOCU": " 40292", "VALU_BOU267": 33.027, "ESRI_OID": 4913 }, "geometry": { "type": "Point", "coordinates": [ -695312.406539453542791, 4542738.245927599258721 ] } },
{ "type": "Feature", "properties": { "ID": 53382, "VALU_COORX": -696085.90121923899, "VALU_COORY": 4542973.8077364508, "CODE_H50": 939, "CODE_DOCU": " 40292", "VALU_BOU267": 30.652, "ESRI_OID": 55187 }, "geometry": { "type": "Point", "coordinates": [ -696085.90121923899278, 4542973.80773645080626 ] } },
{ "type": "Feature", "properties": { "ID": 53393, "VALU_COORX": -696506.01679654303, "VALU_COORY": 4541065.7441379316, "CODE_H50": 939, "CODE_DOCU": " 40292", "VALU_BOU267": 32.173, "ESRI_OID": 9178 }, "geometry": { "type": "Point", "coordinates": [ -696506.016796543030068, 4541065.744137931615114 ] } },
{ "type": "Feature", "properties": { "ID": 53394, "VALU_COORX": -689036.65019646636, "VALU_COORY": 4543737.5265468275, "CODE_H50": 939, "CODE_DOCU": " 40292", "VALU_BOU267": 37.169, "ESRI_OID": 215087 }, "geometry": { "type": "Point", "coordinates": [ -689036.650196466362104, 4543737.52654682751745 ] } },
{ "type": "Feature", "properties": { "ID": 53396, "VALU_COORX": -696502.84110629733, "VALU_COORY": 4540354.4954851931, "CODE_H50": 939, "CODE_DOCU": " 40292", "VALU_BOU267": 33.152, "ESRI_OID": 23319 }, "geometry": { "type": "Point", "coordinates": [ -696502.841106297331862, 4540354.495485193096101 ] } },
{ "type": "Feature", "properties": { "ID": 53399, "VALU_COORX": -691995.89391311491, "VALU_COORY": 4543254.0268069739, "CODE_H50": 939, "CODE_DOCU": " 40292", "VALU_BOU267": 36.796, "ESRI_OID": 11062 }, "geometry": { "type": "Point", "coordinates": [ -691995.893913114909083, 4543254.026806973852217 ] } },
{ "type": "Feature", "properties": { "ID": 53403, "VALU_COORX": -695746.8102739387, "VALU_COORY": 4541093.5101295132, "CODE_H50": 939, "CODE_DOCU": " 40292", "VALU_BOU267": 34.94, "ESRI_OID": 174045 }, "geometry": { "type": "Point", "coordinates": [ -695746.8102739386959, 4541093.510129513218999 ] } },
{ "type": "Feature", "properties": { "ID": 53408, "VALU_COORX": -695624.7254453568, "VALU_COORY": 4542018.4251667038, "CODE_H50": 939, "CODE_DOCU": " 40292", "VALU_BOU267": 32.178, "ESRI_OID": 228502 }, "geometry": { "type": "Point", "coordinates": [ -695624.725445356802084, 4542018.425166703760624 ] } },
{ "type": "Feature", "properties": { "ID": 53411, "VALU_COORX": -692006.34323638561, "VALU_COORY": 4542378.5472242348, "CODE_H50": 939, "CODE_DOCU": " 40292", "VALU_BOU267": 38.004, "ESRI_OID": 222131 }, "geometry": { "type": "Point", "coordinates": [ -692006.343236385611817, 4542378.54722423478961 ] } },
{ "type": "Feature", "properties": { "ID": 53416, "VALU_COORX": -691133.13863777998, "VALU_COORY": 4542621.7124246741, "CODE_H50": 939, "CODE_DOCU": " 40292", "VALU_BOU267": 38.436, "ESRI_OID": 28493 }, "geometry": { "type": "Point", "coordinates": [ -691133.138637779979035, 4542621.712424674071372 ] } },
{ "type": "Feature", "properties": { "ID": 53419, "VALU_COORX": -690716.49557232135, "VALU_COORY": 4542514.2949880287, "CODE_H50": 939, "CODE_DOCU": " 40292", "VALU_BOU267": 39.037, "ESRI_OID": 7753 }, "geometry": { "type": "Point", "coordinates": [ -690716.495572321349755, 4542514.29498802870512 ] } },
{ "type": "Feature", "properties": { "ID": 53421, "VALU_COORX": -695074.93975426035, "VALU_COORY": 4543139.6862265561, "CODE_H50": 939, "CODE_DOCU": " 40292", "VALU_BOU267": 32.867, "ESRI_OID": 118871 }, "geometry": { "type": "Point", "coordinates": [ -695074.939754260354675, 4543139.6862265560776 ] } },
{ "type": "Feature", "properties": { "ID": 53436, "VALU_COORX": -699027.89611701225, "VALU_COORY": 4539515.3728928138, "CODE_H50": 939, "CODE_DOCU": " 40292", "VALU_BOU267": 28.268, "ESRI_OID": 22371 }, "geometry": { "type": "Point", "coordinates": [ -699027.896117012249306, 4539515.372892813757062 ] } },
{ "type": "Feature", "properties": { "ID": 53438, "VALU_COORX": -701022.09773343976, "VALU_COORY": 4544105.4338231962, "CODE_H50": 939, "CODE_DOCU": " 40292", "VALU_BOU267": 21.556, "ESRI_OID": 126262 }, "geometry": { "type": "Point", "coordinates": [ -701022.097733439761214, 4544105.433823196217418 ] } },
{ "type": "Feature", "properties": { "ID": 53439, "VALU_COORX": -700368.87131864042, "VALU_COORY": 4540024.7228976507, "CODE_H50": 939, "CODE_DOCU": " 40292", "VALU_BOU267": 24.586, "ESRI_OID": 6338 }, "geometry": { "type": "Point", "coordinates": [ -700368.871318640420213, 4540024.722897650673985 ] } },
{ "type": "Feature", "properties": { "ID": 53440, "VALU_COORX": -700069.02620730631, "VALU_COORY": 4539935.1393589685, "CODE_H50": 939, "CODE_DOCU": " 40292", "VALU_BOU267": 24.974, "ESRI_OID": 182317 }, "geometry": { "type": "Point", "coordinates": [ -700069.026207306305878, 4539935.139358968473971 ] } },
{ "type": "Feature", "properties": { "ID": 53444, "VALU_COORX": -698734.31438762986, "VALU_COORY": 4539966.9223492537, "CODE_H50": 939, "CODE_DOCU": " 40292", "VALU_BOU267": 27.123, "ESRI_OID": 114070 }, "geometry": { "type": "Point", "coordinates": [ -698734.314387629856355, 4539966.922349253669381 ] } },
{ "type": "Feature", "properties": { "ID": 53452, "VALU_COORX": -697556.32596058806, "VALU_COORY": 4543928.1698375419, "CODE_H50": 939, "CODE_DOCU": " 40292", "VALU_BOU267": 26.704, "ESRI_OID": 161914 }, "geometry": { "type": "Point", "coordinates": [ -697556.325960588059388, 4543928.169837541878223 ] } },
{ "type": "Feature", "properties": { "ID": 53454, "VALU_COORX": -696691.8413248111, "VALU_COORY": 4544021.8605407998, "CODE_H50": 939, "CODE_DOCU": " 40292", "VALU_BOU267": 29.035, "ESRI_OID": 225722 }, "geometry": { "type": "Point", "coordinates": [ -696691.841324811102822, 4544021.860540799796581 ] } },
{ "type": "Feature", "properties": { "ID": 53456, "VALU_COORX": -700005.63291631755, "VALU_COORY": 4543248.4270230029, "CODE_H50": 939, "CODE_DOCU": " 40292", "VALU_BOU267": 24.362, "ESRI_OID": 1166 }, "geometry": { "type": "Point", "coordinates": [ -700005.632916317554191, 4543248.427023002877831 ] } },
{ "type": "Feature", "properties": { "ID": 53459, "VALU_COORX": -705393.0571269684, "VALU_COORY": 4542417.7175049828, "CODE_H50": 939, "CODE_DOCU": " 40292", "VALU_BOU267": 14.733, "ESRI_OID": 29438 }, "geometry": { "type": "Point", "coordinates": [ -705393.057126968400553, 4542417.717504982836545 ] } },
{ "type": "Feature", "properties": { "ID": 53462, "VALU_COORX": -703824.34931501502, "VALU_COORY": 4544161.8908080366, "CODE_H50": 939, "CODE_DOCU": " 40292", "VALU_BOU267": 15.708, "ESRI_OID": 14347 }, "geometry": { "type": "Point", "coordinates": [ -703824.349315015017055, 4544161.890808036550879 ] } },
{ "type": "Feature", "properties": { "ID": 53476, "VALU_COORX": -689313.75742799009, "VALU_COORY": 4535757.8716091216, "CODE_H50": 939, "CODE_DOCU": " 40292", "VALU_BOU267": 40.439, "ESRI_OID": 17661 }, "geometry": { "type": "Point", "coordinates": [ -689313.757427990087308, 4535757.87160912156105 ] } },
{ "type": "Feature", "properties": { "ID": 53479, "VALU_COORX": -689391.84552247066, "VALU_COORY": 4544005.6830167519, "CODE_H50": 939, "CODE_DOCU": " 40292", "VALU_BOU267": 36.516, "ESRI_OID": 1614 }, "geometry": { "type": "Point", "coordinates": [ -689391.845522470655851, 4544005.683016751892865 ] } },
{ "type": "Feature", "properties": { "ID": 53482, "VALU_COORX": -690158.38366981933, "VALU_COORY": 4543555.7387923691, "CODE_H50": 939, "CODE_DOCU": " 40292", "VALU_BOU267": 37.359, "ESRI_OID": 21422 }, "geometry": { "type": "Point", "coordinates": [ -690158.383669819333591, 4543555.738792369142175 ] } },
{ "type": "Feature", "properties": { "ID": 53496, "VALU_COORX": -698887.19241134613, "VALU_COORY": 4538304.5069894977, "CODE_H50": 939, "CODE_DOCU": " 40292", "VALU_BOU267": 30.13, "ESRI_OID": 70340 }, "geometry": { "type": "Point", "coordinates": [ -698887.19241134612821, 4538304.506989497691393 ] } },
{ "type": "Feature", "properties": { "ID": 53499, "VALU_COORX": -699887.21327075153, "VALU_COORY": 4538129.8574973922, "CODE_H50": 939, "CODE_DOCU": " 40292", "VALU_BOU267": 27.9, "ESRI_OID": 17186 }, "geometry": { "type": "Point", "coordinates": [ -699887.213270751526579, 4538129.857497392222285 ] } },
{ "type": "Feature", "properties": { "ID": 53502, "VALU_COORX": -706792.15611902985, "VALU_COORY": 4532631.0916112233, "CODE_H50": 939, "CODE_DOCU": " 40292", "VALU_BOU267": 18.014, "ESRI_OID": 219 }, "geometry": { "type": "Point", "coordinates": [ -706792.156119029852562, 4532631.091611223295331 ] } },
{ "type": "Feature", "properties": { "ID": 52326, "VALU_COORX": -692886.93617681367, "VALU_COORY": 4544155.5016167965, "CODE_H50": 939, "CODE_DOCU": " 40292", "VALU_BOU267": 34.048, "ESRI_OID": 225008 }, "geometry": { "type": "Point", "coordinates": [ -692886.936176813673228, 4544155.501616796478629 ] } },
{ "type": "Feature", "properties": { "ID": 52330, "VALU_COORX": -692149.12489832204, "VALU_COORY": 4545478.7152417256, "CODE_H50": 939, "CODE_DOCU": " 40292", "VALU_BOU267": 30.768, "ESRI_OID": 126462 }, "geometry": { "type": "Point", "coordinates": [ -692149.124898322043009, 4545478.715241725556552 ] } },
{ "type": "Feature", "properties": { "ID": 53208, "VALU_COORX": -696750.13650930428, "VALU_COORY": 4536962.177912239, "CODE_H50": 939, "CODE_DOCU": " 40292", "VALU_BOU267": 32.9, "ESRI_OID": 209500 }, "geometry": { "type": "Point", "coordinates": [ -696750.136509304284118, 4536962.1779122389853 ] } },
{ "type": "Feature", "properties": { "ID": 52448, "VALU_COORX": -696729.66753301199, "VALU_COORY": 4546423.1984171439, "CODE_H50": 939, "CODE_DOCU": " 40292", "VALU_BOU267": 24.473, "ESRI_OID": 82257 }, "geometry": { "type": "Point", "coordinates": [ -696729.667533011990599, 4546423.198417143896222 ] } },
{ "type": "Feature", "properties": { "ID": 101613, "VALU_COORX": -680457.49902116356, "VALU_COORY": 4529960.9245843552, "CODE_H50": 962, "CODE_DOCU": null, "VALU_BOU267": 38.449, "ESRI_OID": 137335 }, "geometry": { "type": "Point", "coordinates": [ -680457.499021163559519, 4529960.924584355205297 ] } },
{ "type": "Feature", "properties": { "ID": 52202, "VALU_COORX": -705624.39826724702, "VALU_COORY": 4548147.0565837985, "CODE_H50": 939, "CODE_DOCU": " 40292", "VALU_BOU267": 11.727, "ESRI_OID": 71717 }, "geometry": { "type": "Point", "coordinates": [ -705624.39826724701561, 4548147.056583798490465 ] } },
{ "type": "Feature", "properties": { "ID": 53057, "VALU_COORX": -703076.85222025204, "VALU_COORY": 4538119.6197023662, "CODE_H50": 939, "CODE_DOCU": " 40292", "VALU_BOU267": 20.489, "ESRI_OID": 126932 }, "geometry": { "type": "Point", "coordinates": [ -703076.852220252039842, 4538119.619702366180718 ] } },
{ "type": "Feature", "properties": { "ID": 62698, "VALU_COORX": -692756.56790738134, "VALU_COORY": 4530852.2973013064, "CODE_H50": 961, "CODE_DOCU": " 40292", "VALU_BOU267": 26.291, "ESRI_OID": 147477 }, "geometry": { "type": "Point", "coordinates": [ -692756.567907381337136, 4530852.297301306389272 ] } },
{ "type": "Feature", "properties": { "ID": 62741, "VALU_COORX": -688941.53885159187, "VALU_COORY": 4529095.8322547637, "CODE_H50": 961, "CODE_DOCU": " 40292", "VALU_BOU267": 30.824, "ESRI_OID": 143309 }, "geometry": { "type": "Point", "coordinates": [ -688941.538851591874845, 4529095.832254763692617 ] } },
{ "type": "Feature", "properties": { "ID": 62783, "VALU_COORX": -701749.40178778768, "VALU_COORY": 4531200.5211743861, "CODE_H50": 961, "CODE_DOCU": " 40292", "VALU_BOU267": 23.127, "ESRI_OID": 209499 }, "geometry": { "type": "Point", "coordinates": [ -701749.401787787675858, 4531200.521174386143684 ] } },
{ "type": "Feature", "properties": { "ID": 52177, "VALU_COORX": -705629.59827466763, "VALU_COORY": 4546836.1875508614, "CODE_H50": 939, "CODE_DOCU": " 40292", "VALU_BOU267": 11.669, "ESRI_OID": 44755 }, "geometry": { "type": "Point", "coordinates": [ -705629.598274667630903, 4546836.187550861388445 ] } },
{ "type": "Feature", "properties": { "ID": 53166, "VALU_COORX": -700662.44270028826, "VALU_COORY": 4537232.9027124997, "CODE_H50": 939, "CODE_DOCU": " 40292", "VALU_BOU267": 25.139, "ESRI_OID": 147072 }, "geometry": { "type": "Point", "coordinates": [ -700662.442700288258493, 4537232.902712499722838 ] } },
{ "type": "Feature", "properties": { "ID": 53323, "VALU_COORX": -694478.07989110088, "VALU_COORY": 4540186.6516961446, "CODE_H50": 939, "CODE_DOCU": " 40292", "VALU_BOU267": 38.74, "ESRI_OID": 169823 }, "geometry": { "type": "Point", "coordinates": [ -694478.079891100875102, 4540186.651696144603193 ] } },
{ "type": "Feature", "properties": { "ID": 53332, "VALU_COORX": -689850.51051508402, "VALU_COORY": 4541523.1361761373, "CODE_H50": 939, "CODE_DOCU": " 40292", "VALU_BOU267": 40.723, "ESRI_OID": 122009 }, "geometry": { "type": "Point", "coordinates": [ -689850.510515084024519, 4541523.136176137253642 ] } },
{ "type": "Feature", "properties": { "ID": 52429, "VALU_COORX": -694523.99375678902, "VALU_COORY": 4548040.4884519912, "CODE_H50": 939, "CODE_DOCU": " 40292", "VALU_BOU267": 23.676, "ESRI_OID": 51079 }, "geometry": { "type": "Point", "coordinates": [ -694523.993756789015606, 4548040.488451991230249 ] } },
{ "type": "Feature", "properties": { "ID": 52201, "VALU_COORX": -706608.12955531769, "VALU_COORY": 4548130.7655066364, "CODE_H50": 939, "CODE_DOCU": " 40292", "VALU_BOU267": 11.0, "ESRI_OID": 160466 }, "geometry": { "type": "Point", "coordinates": [ -706608.129555317689665, 4548130.765506636351347 ] } },
{ "type": "Feature", "properties": { "ID": 52343, "VALU_COORX": -691079.20840052015, "VALU_COORY": 4545776.9557385053, "CODE_H50": 939, "CODE_DOCU": " 40292", "VALU_BOU267": 30.613, "ESRI_OID": 47225 }, "geometry": { "type": "Point", "coordinates": [ -691079.208400520146824, 4545776.955738505348563 ] } },
{ "type": "Feature", "properties": { "ID": 62367, "VALU_COORX": -706061.10514375381, "VALU_COORY": 4528815.1346442755, "CODE_H50": 961, "CODE_DOCU": " 40292", "VALU_BOU267": 20.482, "ESRI_OID": 12472 }, "geometry": { "type": "Point", "coordinates": [ -706061.105143753811717, 4528815.134644275531173 ] } },
{ "type": "Feature", "properties": { "ID": 62387, "VALU_COORX": -706724.22097719426, "VALU_COORY": 4531041.0142080709, "CODE_H50": 961, "CODE_DOCU": " 40292", "VALU_BOU267": 20.032, "ESRI_OID": 7272 }, "geometry": { "type": "Point", "coordinates": [ -706724.220977194258012, 4531041.014208070933819 ] } },
{ "type": "Feature", "properties": { "ID": 62404, "VALU_COORX": -704821.30555818812, "VALU_COORY": 4528850.5682001868, "CODE_H50": 961, "CODE_DOCU": " 40292", "VALU_BOU267": 21.359, "ESRI_OID": 9635 }, "geometry": { "type": "Point", "coordinates": [ -704821.305558188119903, 4528850.568200186826289 ] } },
{ "type": "Feature", "properties": { "ID": 62407, "VALU_COORX": -701080.48124779132, "VALU_COORY": 4530219.5996563919, "CODE_H50": 961, "CODE_DOCU": " 40292", "VALU_BOU267": 21.558, "ESRI_OID": 22848 }, "geometry": { "type": "Point", "coordinates": [ -701080.481247791321948, 4530219.599656391888857 ] } },
{ "type": "Feature", "properties": { "ID": 62596, "VALU_COORX": -697759.9991342565, "VALU_COORY": 4530207.1357154036, "CODE_H50": 961, "CODE_DOCU": " 40292", "VALU_BOU267": 22.524, "ESRI_OID": 11060 }, "geometry": { "type": "Point", "coordinates": [ -697759.999134256504476, 4530207.135715403594077 ] } },
{ "type": "Feature", "properties": { "ID": 62598, "VALU_COORX": -697560.94162039738, "VALU_COORY": 4529378.079787829, "CODE_H50": 961, "CODE_DOCU": " 40292", "VALU_BOU267": 22.023, "ESRI_OID": 111188 }, "geometry": { "type": "Point", "coordinates": [ -697560.941620397381485, 4529378.079787828959525 ] } },
{ "type": "Feature", "properties": { "ID": 62613, "VALU_COORX": -695454.34384941065, "VALU_COORY": 4529006.9544388419, "CODE_H50": 961, "CODE_DOCU": " 40292", "VALU_BOU267": 21.874, "ESRI_OID": 27556 }, "geometry": { "type": "Point", "coordinates": [ -695454.343849410652183, 4529006.95443884190172 ] } },
{ "type": "Feature", "properties": { "ID": 62696, "VALU_COORX": -694517.91951949801, "VALU_COORY": 4529430.8626525374, "CODE_H50": 961, "CODE_DOCU": " 40292", "VALU_BOU267": 22.631, "ESRI_OID": 10590 }, "geometry": { "type": "Point", "coordinates": [ -694517.91951949801296, 4529430.862652537412941 ] } },
{ "type": "Feature", "properties": { "ID": 62699, "VALU_COORX": -693415.27782586042, "VALU_COORY": 4531373.0236490564, "CODE_H50": 961, "CODE_DOCU": " 40292", "VALU_BOU267": 26.657, "ESRI_OID": 27555 }, "geometry": { "type": "Point", "coordinates": [ -693415.277825860423036, 4531373.023649056442082 ] } },
{ "type": "Feature", "properties": { "ID": 62701, "VALU_COORX": -694228.48823522916, "VALU_COORY": 4531982.1327238567, "CODE_H50": 961, "CODE_DOCU": " 40292", "VALU_BOU267": 27.147, "ESRI_OID": 113117 }, "geometry": { "type": "Point", "coordinates": [ -694228.488235229160637, 4531982.132723856717348 ] } },
{ "type": "Feature", "properties": { "ID": 62702, "VALU_COORX": -695617.77795432042, "VALU_COORY": 4530088.0764087345, "CODE_H50": 961, "CODE_DOCU": " 40292", "VALU_BOU267": 23.103, "ESRI_OID": 1164 }, "geometry": { "type": "Point", "coordinates": [ -695617.777954320423305, 4530088.076408734545112 ] } },
{ "type": "Feature", "properties": { "ID": 62714, "VALU_COORX": -694136.67074350861, "VALU_COORY": 4529531.4785218798, "CODE_H50": 961, "CODE_DOCU": " 40292", "VALU_BOU267": 22.565, "ESRI_OID": 214892 }, "geometry": { "type": "Point", "coordinates": [ -694136.670743508613668, 4529531.478521879762411 ] } },
{ "type": "Feature", "properties": { "ID": 62716, "VALU_COORX": -693887.65833433263, "VALU_COORY": 4529993.5830724146, "CODE_H50": 961, "CODE_DOCU": " 40292", "VALU_BOU267": 23.598, "ESRI_OID": 8217 }, "geometry": { "type": "Point", "coordinates": [ -693887.658334332634695, 4529993.583072414621711 ] } },
{ "type": "Feature", "properties": { "ID": 62719, "VALU_COORX": -691133.79624356842, "VALU_COORY": 4529802.2869448224, "CODE_H50": 961, "CODE_DOCU": " 40292", "VALU_BOU267": 28.527, "ESRI_OID": 26151 }, "geometry": { "type": "Point", "coordinates": [ -691133.796243568416685, 4529802.286944822408259 ] } },
{ "type": "Feature", "properties": { "ID": 62724, "VALU_COORX": -694161.48633760365, "VALU_COORY": 4531024.1353369439, "CODE_H50": 961, "CODE_DOCU": " 40292", "VALU_BOU267": 25.531, "ESRI_OID": 109751 }, "geometry": { "type": "Point", "coordinates": [ -694161.486337603651918, 4531024.135336943902075 ] } },
{ "type": "Feature", "properties": { "ID": 62742, "VALU_COORX": -689202.79320460756, "VALU_COORY": 4529212.3066974804, "CODE_H50": 961, "CODE_DOCU": " 40292", "VALU_BOU267": 30.829, "ESRI_OID": 24739 }, "geometry": { "type": "Point", "coordinates": [ -689202.793204607558437, 4529212.306697480380535 ] } },
{ "type": "Feature", "properties": { "ID": 62744, "VALU_COORX": -689300.43402255571, "VALU_COORY": 4530566.9061671663, "CODE_H50": 961, "CODE_DOCU": " 40292", "VALU_BOU267": 29.534, "ESRI_OID": 108175 }, "geometry": { "type": "Point", "coordinates": [ -689300.434022555709817, 4530566.906167166307569 ] } },
{ "type": "Feature", "properties": { "ID": 62770, "VALU_COORX": -701111.26194587222, "VALU_COORY": 4531242.0871420912, "CODE_H50": 961, "CODE_DOCU": " 40292", "VALU_BOU267": 23.852, "ESRI_OID": 107734 }, "geometry": { "type": "Point", "coordinates": [ -701111.261945872218348, 4531242.087142091244459 ] } },
{ "type": "Feature", "properties": { "ID": 62772, "VALU_COORX": -701611.92980548705, "VALU_COORY": 4529511.7349142116, "CODE_H50": 961, "CODE_DOCU": " 40292", "VALU_BOU267": 21.75, "ESRI_OID": 164890 }, "geometry": { "type": "Point", "coordinates": [ -701611.929805487045087, 4529511.734914211556315 ] } },
{ "type": "Feature", "properties": { "ID": 62779, "VALU_COORX": -699811.92988537962, "VALU_COORY": 4531243.5677117612, "CODE_H50": 961, "CODE_DOCU": " 40292", "VALU_BOU267": 23.923, "ESRI_OID": 6813 }, "geometry": { "type": "Point", "coordinates": [ -699811.929885379620828, 4531243.56771176122129 ] } },
{ "type": "Feature", "properties": { "ID": 62782, "VALU_COORX": -700231.84745044436, "VALU_COORY": 4530516.8243897771, "CODE_H50": 961, "CODE_DOCU": " 40292", "VALU_BOU267": 22.315, "ESRI_OID": 21909 }, "geometry": { "type": "Point", "coordinates": [ -700231.847450444358401, 4530516.82438977714628 ] } },
{ "type": "Feature", "properties": { "ID": 62785, "VALU_COORX": -703557.16546477191, "VALU_COORY": 4531593.7299124878, "CODE_H50": 961, "CODE_DOCU": " 40292", "VALU_BOU267": 20.064, "ESRI_OID": 23789 }, "geometry": { "type": "Point", "coordinates": [ -703557.165464771911502, 4531593.729912487789989 ] } },
{ "type": "Feature", "properties": { "ID": 62791, "VALU_COORX": -705055.27448740893, "VALU_COORY": 4530970.2580921408, "CODE_H50": 961, "CODE_DOCU": " 40292", "VALU_BOU267": 21.031, "ESRI_OID": 50840 }, "geometry": { "type": "Point", "coordinates": [ -705055.274487408925779, 4530970.258092140778899 ] } },
{ "type": "Feature", "properties": { "ID": 62799, "VALU_COORX": -706108.1384622542, "VALU_COORY": 4530033.2142959433, "CODE_H50": 961, "CODE_DOCU": " 40292", "VALU_BOU267": 20.692, "ESRI_OID": 16717 }, "geometry": { "type": "Point", "coordinates": [ -706108.138462254195474, 4530033.214295943267643 ] } },
{ "type": "Feature", "properties": { "ID": 62802, "VALU_COORX": -704459.35807063, "VALU_COORY": 4530028.7781981276, "CODE_H50": 961, "CODE_DOCU": " 40292", "VALU_BOU267": 20.605, "ESRI_OID": 13883 }, "geometry": { "type": "Point", "coordinates": [ -704459.35807062999811, 4530028.778198127634823 ] } },
{ "type": "Feature", "properties": { "ID": 62805, "VALU_COORX": -704977.75891750248, "VALU_COORY": 4532379.2877326244, "CODE_H50": 961, "CODE_DOCU": " 40292", "VALU_BOU267": 18.929, "ESRI_OID": 29916 }, "geometry": { "type": "Point", "coordinates": [ -704977.758917502476834, 4532379.287732624448836 ] } },
{ "type": "Feature", "properties": { "ID": 62810, "VALU_COORX": -695321.48820441321, "VALU_COORY": 4532140.5645315992, "CODE_H50": 961, "CODE_DOCU": " 40292", "VALU_BOU267": 26.146, "ESRI_OID": 110313 }, "geometry": { "type": "Point", "coordinates": [ -695321.488204413210042, 4532140.56453159917146 ] } },
{ "type": "Feature", "properties": { "ID": 62820, "VALU_COORX": -697282.73869209038, "VALU_COORY": 4531322.1578645976, "CODE_H50": 961, "CODE_DOCU": " 40292", "VALU_BOU267": 26.255, "ESRI_OID": 218179 }, "geometry": { "type": "Point", "coordinates": [ -697282.738692090380937, 4531322.15786459762603 ] } },
{ "type": "Feature", "properties": { "ID": 62822, "VALU_COORX": -697979.60211997433, "VALU_COORY": 4530827.7720087534, "CODE_H50": 961, "CODE_DOCU": " 40292", "VALU_BOU267": 24.322, "ESRI_OID": 15291 }, "geometry": { "type": "Point", "coordinates": [ -697979.602119974326342, 4530827.77200875338167 ] } },
{ "type": "Feature", "properties": { "ID": 62692, "VALU_COORX": -692196.4032490399, "VALU_COORY": 4530998.3039533719, "CODE_H50": 961, "CODE_DOCU": " 40292", "VALU_BOU267": 26.854, "ESRI_OID": 123604 }, "geometry": { "type": "Point", "coordinates": [ -692196.403249039896764, 4530998.303953371942043 ] } },
{ "type": "Feature", "properties": { "ID": 53096, "VALU_COORX": -703422.71668230288, "VALU_COORY": 4542446.2274280293, "CODE_H50": 939, "CODE_DOCU": " 40292", "VALU_BOU267": 17.85, "ESRI_OID": 213157 }, "geometry": { "type": "Point", "coordinates": [ -703422.716682302881964, 4542446.227428029291332 ] } },
{ "type": "Feature", "properties": { "ID": 62366, "VALU_COORX": -706538.45692982187, "VALU_COORY": 4528903.1631414015, "CODE_H50": 961, "CODE_DOCU": " 40292", "VALU_BOU267": 20.243, "ESRI_OID": 133055 }, "geometry": { "type": "Point", "coordinates": [ -706538.45692982187029, 4528903.163141401484609 ] } },
{ "type": "Feature", "properties": { "ID": 53212, "VALU_COORX": -699215.40699524281, "VALU_COORY": 4535301.5750590852, "CODE_H50": 939, "CODE_DOCU": " 40292", "VALU_BOU267": 25.564, "ESRI_OID": 119288 }, "geometry": { "type": "Point", "coordinates": [ -699215.406995242810808, 4535301.575059085153043 ] } },
{ "type": "Feature", "properties": { "ID": 101528, "VALU_COORX": -689698.50635551359, "VALU_COORY": 4547042.3984842878, "CODE_H50": 939, "CODE_DOCU": null, "VALU_BOU267": 29.505, "ESRI_OID": 17197 }, "geometry": { "type": "Point", "coordinates": [ -689698.506355513585731, 4547042.398484287783504 ] } },
{ "type": "Feature", "properties": { "ID": 101531, "VALU_COORX": -699284.1296875556, "VALU_COORY": 4536330.8371518292, "CODE_H50": 939, "CODE_DOCU": null, "VALU_BOU267": 28.241, "ESRI_OID": 3976 }, "geometry": { "type": "Point", "coordinates": [ -699284.129687555599958, 4536330.837151829153299 ] } },
{ "type": "Feature", "properties": { "ID": 101548, "VALU_COORX": -696499.3390293502, "VALU_COORY": 4534531.1545986682, "CODE_H50": 939, "CODE_DOCU": null, "VALU_BOU267": 28.441, "ESRI_OID": 3506 }, "geometry": { "type": "Point", "coordinates": [ -696499.339029350201599, 4534531.154598668217659 ] } },
{ "type": "Feature", "properties": { "ID": 101554, "VALU_COORX": -682972.3896869896, "VALU_COORY": 4548424.4631201029, "CODE_H50": 940, "CODE_DOCU": null, "VALU_BOU267": 37.649, "ESRI_OID": 12945 }, "geometry": { "type": "Point", "coordinates": [ -682972.389686989597976, 4548424.463120102882385 ] } },
{ "type": "Feature", "properties": { "ID": 101577, "VALU_COORX": -687802.64357388671, "VALU_COORY": 4540676.3357916344, "CODE_H50": 940, "CODE_DOCU": null, "VALU_BOU267": 47.323, "ESRI_OID": 41070 }, "geometry": { "type": "Point", "coordinates": [ -687802.643573886714876, 4540676.335791634395719 ] } },
{ "type": "Feature", "properties": { "ID": 53388, "VALU_COORX": -693430.25335437595, "VALU_COORY": 4542543.6410381533, "CODE_H50": 939, "CODE_DOCU": " 40292", "VALU_BOU267": 35.902, "ESRI_OID": 227877 }, "geometry": { "type": "Point", "coordinates": [ -693430.253354375949129, 4542543.641038153320551 ] } },
{ "type": "Feature", "properties": { "ID": 53175, "VALU_COORX": -701585.54515974515, "VALU_COORY": 4535985.9887054786, "CODE_H50": 939, "CODE_DOCU": " 40292", "VALU_BOU267": 20.772, "ESRI_OID": 106356 }, "geometry": { "type": "Point", "coordinates": [ -701585.54515974514652, 4535985.988705478608608 ] } },
{ "type": "Feature", "properties": { "ID": 62595, "VALU_COORX": -698010.14738311886, "VALU_COORY": 4530617.6788042532, "CODE_H50": 961, "CODE_DOCU": " 40292", "VALU_BOU267": 23.909, "ESRI_OID": 139049 }, "geometry": { "type": "Point", "coordinates": [ -698010.147383118863218, 4530617.678804253228009 ] } },
{ "type": "Feature", "properties": { "ID": 52018, "VALU_COORX": -700367.86757378629, "VALU_COORY": 4544287.1220409749, "CODE_H50": 939, "CODE_DOCU": " 40292", "VALU_BOU267": 22.497, "ESRI_OID": 149126 }, "geometry": { "type": "Point", "coordinates": [ -700367.867573786294088, 4544287.122040974907577 ] } }
]
}
