{
"type": "FeatureCollection",
"name": "cleaned_gravity_data",
"crs": { "type": "name", "properties": { "name": "urn:ogc:def:crs:EPSG::3857" } },
"features": [
{ "type": "Feature", "properties": { "ID": 52205, "VALU_COORX": -704570.60760493507, "VALU_COORY": 4548243.5115212696, "CODE_H50": 939, "CODE_DOCU": " 40292", "VALU_BOU267": 12.85, "ESRI_OID": 63647 }, "geometry": { "type": "Point", "coordinates": [ -704570.607604935066774, 4548243.511521269567311 ] } },
{ "type": "Feature", "properties": { "ID": 62796, "VALU_COORX": -704382.79419604945, "VALU_COORY": 4532065.0118867895, "CODE_H50": 961, "CODE_DOCU": " 40292", "VALU_BOU267": 19.403, "ESRI_OID": 70478 }, "geometry": { "type": "Point", "coordinates": [ -704382.794196049449965, 4532065.01188678946346 ] } },
{ "type": "Feature", "properties": { "ID": 52348, "VALU_COORX": -690136.66862943885, "VALU_COORY": 4544432.1243161019, "CODE_H50": 939, "CODE_DOCU": " 40292", "VALU_BOU267": 34.056, "ESRI_OID": 75262 }, "geometry": { "type": "Point", "coordinates": [ -690136.668629438849166, 4544432.124316101893783 ] } },
{ "type": "Feature", "properties": { "ID": 53065, "VALU_COORX": -707002.44865513616, "VALU_COORY": 4539092.6348897154, "CODE_H50": 939, "CODE_DOCU": " 40292", "VALU_BOU267": 10.896, "ESRI_OID": 201542 }, "geometry": { "type": "Point", "coordinates": [ -707002.448655136162415, 4539092.634889715351164 ] } },
{ "type": "Feature", "properties": { "ID": 62804, "VALU_COORX": -704699.80015408318, "VALU_COORY": 4531967.5514586875, "CODE_H50": 961, "CODE_DOCU": " 40292", "VALU_BOU267": 19.767, "ESRI_OID": 114963 }, "geometry": { "type": "Point", "coordinates": [ -704699.800154083175585, 4531967.551458687521517 ] } },
{ "type": "Feature", "properties": { "ID": 52497, "VALU_COORX": -700951.27040507877, "VALU_COORY": 4546792.618701417, "CODE_H50": 939, "CODE_DOCU": " 40292", "VALU_BOU267": 16.882, "ESRI_OID": 71973 }, "geometry": { "type": "Point", "coordinates": [ -700951.270405078772455, 4546792.618701416999102 ] } },
{ "type": "Feature", "properties": { "ID": 52371, "VALU_COORX": -694189.91026977974, "VALU_COORY": 4548897.6549882218, "CODE_H50": 939, "CODE_DOCU": " 40292", "VALU_BOU267": 23.231, "ESRI_OID": 73746 }, "geometry": { "type": "Point", "coordinates": [ -694189.910269779735245, 4548897.654988221824169 ] } },
{ "type": "Feature", "properties": { "ID": 53062, "VALU_COORX": -704846.71566184703, "VALU_COORY": 4539109.0511227557, "CODE_H50": 939, "CODE_DOCU": " 40292", "VALU_BOU267": 15.845, "ESRI_OID": 206885 }, "geometry": { "type": "Point", "coordinates": [ -704846.715661847032607, 4539109.051122755743563 ] } },
{ "type": "Feature", "properties": { "ID": 53111, "VALU_COORX": -703528.32805613207, "VALU_COORY": 4536775.3938927585, "CODE_H50": 939, "CODE_DOCU": " 40292", "VALU_BOU267": 18.464, "ESRI_OID": 198739 }, "geometry": { "type": "Point", "coordinates": [ -703528.328056132071652, 4536775.393892758525908 ] } },
{ "type": "Feature", "properties": { "ID": 53257, "VALU_COORX": -697784.04001249222, "VALU_COORY": 4533689.4604864232, "CODE_H50": 939, "CODE_DOCU": " 40292", "VALU_BOU267": 24.821, "ESRI_OID": 173307 }, "geometry": { "type": "Point", "coordinates": [ -697784.040012492216192, 4533689.460486423224211 ] } },
{ "type": "Feature", "properties": { "ID": 62774, "VALU_COORX": -700702.14883314655, "VALU_COORY": 4532052.4235478127, "CODE_H50": 961, "CODE_DOCU": " 40292", "VALU_BOU267": 24.489, "ESRI_OID": 219991 }, "geometry": { "type": "Point", "coordinates": [ -700702.148833146551624, 4532052.423547812737525 ] } },
{ "type": "Feature", "properties": { "ID": 52369, "VALU_COORX": -689387.43438368593, "VALU_COORY": 4548885.8348304527, "CODE_H50": 939, "CODE_DOCU": " 40292", "VALU_BOU267": 28.714, "ESRI_OID": 220954 }, "geometry": { "type": "Point", "coordinates": [ -689387.434383685933426, 4548885.834830452688038 ] } },
{ "type": "Feature", "properties": { "ID": 53074, "VALU_COORX": -706357.15656275896, "VALU_COORY": 4543380.3069385383, "CODE_H50": 939, "CODE_DOCU": " 40292", "VALU_BOU267": 12.876, "ESRI_OID": 159372 }, "geometry": { "type": "Point", "coordinates": [ -706357.156562758958898, 4543380.306938538327813 ] } },
{ "type": "Feature", "properties": { "ID": 53135, "VALU_COORX": -699726.0412158214, "VALU_COORY": 4539000.4683478475, "CODE_H50": 939, "CODE_DOCU": " 40292", "VALU_BOU267": 28.015, "ESRI_OID": 74122 }, "geometry": { "type": "Point", "coordinates": [ -699726.041215821402147, 4539000.4683478474617 ] } },
{ "type": "Feature", "properties": { "ID": 53059, "VALU_COORX": -704881.04929080093, "VALU_COORY": 4539721.4610213386, "CODE_H50": 939, "CODE_DOCU": " 40292", "VALU_BOU267": 15.283, "ESRI_OID": 236615 }, "geometry": { "type": "Point", "coordinates": [ -704881.049290800932795, 4539721.461021338589489 ] } },
{ "type": "Feature", "properties": { "ID": 53280, "VALU_COORX": -693539.92881633609, "VALU_COORY": 4533564.806577364, "CODE_H50": 939, "CODE_DOCU": " 40292", "VALU_BOU267": 32.509, "ESRI_OID": 166341 }, "geometry": { "type": "Point", "coordinates": [ -693539.928816336090676, 4533564.806577363982797 ] } },
{ "type": "Feature", "properties": { "ID": 53478, "VALU_COORX": -689703.96913516452, "VALU_COORY": 4544114.6363506215, "CODE_H50": 939, "CODE_DOCU": " 40292", "VALU_BOU267": 35.516, "ESRI_OID": 128258 }, "geometry": { "type": "Point", "coordinates": [ -689703.969135164516047, 4544114.636350621469319 ] } },
{ "type": "Feature", "properties": { "ID": 52393, "VALU_COORX": -695658.15553383855, "VALU_COORY": 4548491.1884093313, "CODE_H50": 939, "CODE_DOCU": " 40292", "VALU_BOU267": 21.724, "ESRI_OID": 132938 }, "geometry": { "type": "Point", "coordinates": [ -695658.155533838551491, 4548491.188409331254661 ] } },
{ "type": "Feature", "properties": { "ID": 52021, "VALU_COORX": -701340.73323110305, "VALU_COORY": 4544537.186623483, "CODE_H50": 939, "CODE_DOCU": " 40292", "VALU_BOU267": 19.836, "ESRI_OID": 143825 }, "geometry": { "type": "Point", "coordinates": [ -701340.733231103047729, 4544537.186623482964933 ] } },
{ "type": "Feature", "properties": { "ID": 52044, "VALU_COORX": -703113.80623528128, "VALU_COORY": 4544347.3649521032, "CODE_H50": 939, "CODE_DOCU": " 40292", "VALU_BOU267": 16.807, "ESRI_OID": 141639 }, "geometry": { "type": "Point", "coordinates": [ -703113.806235281284899, 4544347.364952103234828 ] } },
{ "type": "Feature", "properties": { "ID": 53384, "VALU_COORX": -696260.529134891, "VALU_COORY": 4542538.1374050826, "CODE_H50": 939, "CODE_DOCU": " 40292", "VALU_BOU267": 30.895, "ESRI_OID": 106804 }, "geometry": { "type": "Point", "coordinates": [ -696260.52913489099592, 4542538.137405082583427 ] } },
{ "type": "Feature", "properties": { "ID": 53058, "VALU_COORX": -705270.04249433137, "VALU_COORY": 4539867.3023783686, "CODE_H50": 939, "CODE_DOCU": " 40292", "VALU_BOU267": 14.297, "ESRI_OID": 64832 }, "geometry": { "type": "Point", "coordinates": [ -705270.042494331370108, 4539867.30237836856395 ] } },
{ "type": "Feature", "properties": { "ID": 53151, "VALU_COORX": -702942.88480400096, "VALU_COORY": 4537426.2028401447, "CODE_H50": 939, "CODE_DOCU": " 40292", "VALU_BOU267": 19.862, "ESRI_OID": 200003 }, "geometry": { "type": "Point", "coordinates": [ -702942.884804000961594, 4537426.202840144746006 ] } },
{ "type": "Feature", "properties": { "ID": 53162, "VALU_COORX": -701668.66246777214, "VALU_COORY": 4538092.5711410549, "CODE_H50": 939, "CODE_DOCU": " 40292", "VALU_BOU267": 23.218, "ESRI_OID": 215831 }, "geometry": { "type": "Point", "coordinates": [ -701668.662467772141099, 4538092.571141054853797 ] } },
{ "type": "Feature", "properties": { "ID": 53196, "VALU_COORX": -696778.29745070543, "VALU_COORY": 4534562.2818735102, "CODE_H50": 939, "CODE_DOCU": " 40292", "VALU_BOU267": 28.412, "ESRI_OID": 49281 }, "geometry": { "type": "Point", "coordinates": [ -696778.297450705431402, 4534562.281873510219157 ] } },
{ "type": "Feature", "properties": { "ID": 53363, "VALU_COORX": -690189.75669440452, "VALU_COORY": 4535903.136768301, "CODE_H50": 939, "CODE_DOCU": " 40292", "VALU_BOU267": 39.216, "ESRI_OID": 168177 }, "geometry": { "type": "Point", "coordinates": [ -690189.756694404524751, 4535903.136768301017582 ] } },
{ "type": "Feature", "properties": { "ID": 53324, "VALU_COORX": -694278.22778654308, "VALU_COORY": 4540389.231254803, "CODE_H50": 939, "CODE_DOCU": " 40292", "VALU_BOU267": 38.778, "ESRI_OID": 81354 }, "geometry": { "type": "Point", "coordinates": [ -694278.227786543080583, 4540389.231254803016782 ] } },
{ "type": "Feature", "properties": { "ID": 53039, "VALU_COORX": -705932.53041805606, "VALU_COORY": 4541029.122033054, "CODE_H50": 939, "CODE_DOCU": " 40292", "VALU_BOU267": 12.421, "ESRI_OID": 237665 }, "geometry": { "type": "Point", "coordinates": [ -705932.530418056063354, 4541029.12203305400908 ] } },
{ "type": "Feature", "properties": { "ID": 53278, "VALU_COORX": -694347.79547018628, "VALU_COORY": 4536689.9957795013, "CODE_H50": 939, "CODE_DOCU": " 40292", "VALU_BOU267": 36.712, "ESRI_OID": 110198 }, "geometry": { "type": "Point", "coordinates": [ -694347.795470186276361, 4536689.995779501274228 ] } },
{ "type": "Feature", "properties": { "ID": 53308, "VALU_COORX": -694531.01691521832, "VALU_COORY": 4538124.9333174974, "CODE_H50": 939, "CODE_DOCU": " 40292", "VALU_BOU267": 38.554, "ESRI_OID": 222546 }, "geometry": { "type": "Point", "coordinates": [ -694531.016915218322538, 4538124.933317497372627 ] } },
{ "type": "Feature", "properties": { "ID": 53030, "VALU_COORX": -706304.59474682831, "VALU_COORY": 4538568.7528415835, "CODE_H50": 939, "CODE_DOCU": " 40292", "VALU_BOU267": 12.739, "ESRI_OID": 39045 }, "geometry": { "type": "Point", "coordinates": [ -706304.594746828312054, 4538568.752841583453119 ] } },
{ "type": "Feature", "properties": { "ID": 62524, "VALU_COORX": -699847.70752873074, "VALU_COORY": 4530201.2586717373, "CODE_H50": 961, "CODE_DOCU": " 40292", "VALU_BOU267": 21.846, "ESRI_OID": 61686 }, "geometry": { "type": "Point", "coordinates": [ -699847.707528730737977, 4530201.258671737276018 ] } },
{ "type": "Feature", "properties": { "ID": 53145, "VALU_COORX": -700873.76066684653, "VALU_COORY": 4540480.1588717652, "CODE_H50": 939, "CODE_DOCU": " 40292", "VALU_BOU267": 22.611, "ESRI_OID": 234867 }, "geometry": { "type": "Point", "coordinates": [ -700873.760666846530512, 4540480.158871765248477 ] } },
{ "type": "Feature", "properties": { "ID": 53235, "VALU_COORX": -695459.62686296436, "VALU_COORY": 4535843.9500313671, "CODE_H50": 939, "CODE_DOCU": " 40292", "VALU_BOU267": 33.481, "ESRI_OID": 105872 }, "geometry": { "type": "Point", "coordinates": [ -695459.626862964360043, 4535843.950031367130578 ] } },
{ "type": "Feature", "properties": { "ID": 53048, "VALU_COORX": -707148.80254705681, "VALU_COORY": 4540895.4100741679, "CODE_H50": 939, "CODE_DOCU": " 40292", "VALU_BOU267": 9.508, "ESRI_OID": 189167 }, "geometry": { "type": "Point", "coordinates": [ -707148.802547056809999, 4540895.410074167884886 ] } },
{ "type": "Feature", "properties": { "ID": 53224, "VALU_COORX": -697998.29015036509, "VALU_COORY": 4534190.1031626891, "CODE_H50": 939, "CODE_DOCU": " 40292", "VALU_BOU267": 25.213, "ESRI_OID": 60523 }, "geometry": { "type": "Point", "coordinates": [ -697998.290150365093723, 4534190.103162689134479 ] } },
{ "type": "Feature", "properties": { "ID": 53370, "VALU_COORX": -691595.37504889932, "VALU_COORY": 4538699.3735651346, "CODE_H50": 939, "CODE_DOCU": " 40292", "VALU_BOU267": 41.558, "ESRI_OID": 70965 }, "geometry": { "type": "Point", "coordinates": [ -691595.375048899324611, 4538699.373565134592354 ] } },
{ "type": "Feature", "properties": { "ID": 53143, "VALU_COORX": -706430.62495390722, "VALU_COORY": 4536221.7115710881, "CODE_H50": 939, "CODE_DOCU": " 40292", "VALU_BOU267": 14.543, "ESRI_OID": 126115 }, "geometry": { "type": "Point", "coordinates": [ -706430.624953907215968, 4536221.711571088060737 ] } },
{ "type": "Feature", "properties": { "ID": 52492, "VALU_COORX": -699280.09623939998, "VALU_COORY": 4548645.8386850962, "CODE_H50": 939, "CODE_DOCU": " 40292", "VALU_BOU267": 17.037, "ESRI_OID": 46272 }, "geometry": { "type": "Point", "coordinates": [ -699280.096239399979822, 4548645.838685096241534 ] } },
{ "type": "Feature", "properties": { "ID": 62528, "VALU_COORX": -700033.89187370276, "VALU_COORY": 4528995.1597444005, "CODE_H50": 961, "CODE_DOCU": " 40292", "VALU_BOU267": 20.783, "ESRI_OID": 233848 }, "geometry": { "type": "Point", "coordinates": [ -700033.891873702756129, 4528995.159744400531054 ] } },
{ "type": "Feature", "properties": { "ID": 53010, "VALU_COORX": -705137.12035253504, "VALU_COORY": 4532987.0817334065, "CODE_H50": 939, "CODE_DOCU": " 40292", "VALU_BOU267": 17.774, "ESRI_OID": 39563 }, "geometry": { "type": "Point", "coordinates": [ -705137.120352535042912, 4532987.08173340652138 ] } },
{ "type": "Feature", "properties": { "ID": 62769, "VALU_COORX": -701343.94443450542, "VALU_COORY": 4531465.9641426317, "CODE_H50": 961, "CODE_DOCU": " 40292", "VALU_BOU267": 23.384, "ESRI_OID": 169760 }, "geometry": { "type": "Point", "coordinates": [ -701343.944434505421668, 4531465.964142631739378 ] } },
{ "type": "Feature", "properties": { "ID": 53307, "VALU_COORX": -694948.24223778711, "VALU_COORY": 4537850.552505495, "CODE_H50": 939, "CODE_DOCU": " 40292", "VALU_BOU267": 37.604, "ESRI_OID": 69891 }, "geometry": { "type": "Point", "coordinates": [ -694948.242237787111662, 4537850.552505495026708 ] } },
{ "type": "Feature", "properties": { "ID": 52489, "VALU_COORX": -702562.23018268216, "VALU_COORY": 4549052.4230899196, "CODE_H50": 939, "CODE_DOCU": " 40292", "VALU_BOU267": 15.726, "ESRI_OID": 59961 }, "geometry": { "type": "Point", "coordinates": [ -702562.230182682164013, 4549052.423089919611812 ] } },
{ "type": "Feature", "properties": { "ID": 53385, "VALU_COORX": -693552.63273852831, "VALU_COORY": 4541981.7687727502, "CODE_H50": 939, "CODE_DOCU": " 40292", "VALU_BOU267": 37.266, "ESRI_OID": 48165 }, "geometry": { "type": "Point", "coordinates": [ -693552.632738528307527, 4541981.768772750161588 ] } },
{ "type": "Feature", "properties": { "ID": 52458, "VALU_COORX": -699527.4975688738, "VALU_COORY": 4547734.9091213178, "CODE_H50": 939, "CODE_DOCU": " 40292", "VALU_BOU267": 17.742, "ESRI_OID": 211333 }, "geometry": { "type": "Point", "coordinates": [ -699527.497568873804994, 4547734.909121317788959 ] } },
{ "type": "Feature", "properties": { "ID": 52019, "VALU_COORX": -701848.72157519858, "VALU_COORY": 4544219.8199012969, "CODE_H50": 939, "CODE_DOCU": " 40292", "VALU_BOU267": 19.589, "ESRI_OID": 8218 }, "geometry": { "type": "Point", "coordinates": [ -701848.721575198578648, 4544219.81990129686892 ] } },
{ "type": "Feature", "properties": { "ID": 52022, "VALU_COORX": -701110.77327611903, "VALU_COORY": 4544427.3645200292, "CODE_H50": 939, "CODE_DOCU": " 40292", "VALU_BOU267": 20.615, "ESRI_OID": 26140 }, "geometry": { "type": "Point", "coordinates": [ -701110.773276119027287, 4544427.364520029164851 ] } },
{ "type": "Feature", "properties": { "ID": 52025, "VALU_COORX": -697729.47326123249, "VALU_COORY": 4544721.5967504997, "CODE_H50": 939, "CODE_DOCU": " 40292", "VALU_BOU267": 26.371, "ESRI_OID": 11995 }, "geometry": { "type": "Point", "coordinates": [ -697729.473261232487857, 4544721.596750499680638 ] } },
{ "type": "Feature", "properties": { "ID": 52028, "VALU_COORX": -697147.20877933537, "VALU_COORY": 4544650.6763375066, "CODE_H50": 939, "CODE_DOCU": " 40292", "VALU_BOU267": 27.335, "ESRI_OID": 39285 }, "geometry": { "type": "Point", "coordinates": [ -697147.208779335371219, 4544650.676337506622076 ] } },
{ "type": "Feature", "properties": { "ID": 52031, "VALU_COORX": -702280.25463961705, "VALU_COORY": 4545677.2529970985, "CODE_H50": 939, "CODE_DOCU": " 40292", "VALU_BOU267": 17.325, "ESRI_OID": 39784 }, "geometry": { "type": "Point", "coordinates": [ -702280.254639617050998, 4545677.252997098490596 ] } },
{ "type": "Feature", "properties": { "ID": 52032, "VALU_COORX": -702500.75328597368, "VALU_COORY": 4546198.4393801866, "CODE_H50": 939, "CODE_DOCU": " 40292", "VALU_BOU267": 15.602, "ESRI_OID": 151699 }, "geometry": { "type": "Point", "coordinates": [ -702500.753285973682068, 4546198.439380186609924 ] } },
{ "type": "Feature", "properties": { "ID": 52034, "VALU_COORX": -701558.54347239644, "VALU_COORY": 4545846.2248130422, "CODE_H50": 939, "CODE_DOCU": " 40292", "VALU_BOU267": 17.169, "ESRI_OID": 34540 }, "geometry": { "type": "Point", "coordinates": [ -701558.543472396442667, 4545846.224813042208552 ] } },
{ "type": "Feature", "properties": { "ID": 52042, "VALU_COORX": -702871.90271524771, "VALU_COORY": 4544687.044930785, "CODE_H50": 939, "CODE_DOCU": " 40292", "VALU_BOU267": 18.121, "ESRI_OID": 23788 }, "geometry": { "type": "Point", "coordinates": [ -702871.90271524770651, 4544687.044930784963071 ] } },
{ "type": "Feature", "properties": { "ID": 52045, "VALU_COORX": -703701.12904949917, "VALU_COORY": 4544596.6196095487, "CODE_H50": 939, "CODE_DOCU": " 40292", "VALU_BOU267": 15.843, "ESRI_OID": 10580 }, "geometry": { "type": "Point", "coordinates": [ -703701.129049499169923, 4544596.619609548710287 ] } },
{ "type": "Feature", "properties": { "ID": 52050, "VALU_COORX": -704147.70372155914, "VALU_COORY": 4544401.8314930061, "CODE_H50": 939, "CODE_DOCU": " 40292", "VALU_BOU267": 15.089, "ESRI_OID": 99637 }, "geometry": { "type": "Point", "coordinates": [ -704147.703721559140831, 4544401.83149300608784 ] } },
{ "type": "Feature", "properties": { "ID": 52171, "VALU_COORX": -707132.03558256652, "VALU_COORY": 4544389.9838610031, "CODE_H50": 939, "CODE_DOCU": " 40292", "VALU_BOU267": 11.594, "ESRI_OID": 17187 }, "geometry": { "type": "Point", "coordinates": [ -707132.035582566517405, 4544389.98386100307107 ] } },
{ "type": "Feature", "properties": { "ID": 52180, "VALU_COORX": -706459.10936416977, "VALU_COORY": 4547057.9532815991, "CODE_H50": 939, "CODE_DOCU": " 40292", "VALU_BOU267": 11.384, "ESRI_OID": 42424 }, "geometry": { "type": "Point", "coordinates": [ -706459.109364169766195, 4547057.953281599096954 ] } },
{ "type": "Feature", "properties": { "ID": 52203, "VALU_COORX": -705367.09158736223, "VALU_COORY": 4548468.7781826397, "CODE_H50": 939, "CODE_DOCU": " 40292", "VALU_BOU267": 12.164, "ESRI_OID": 217079 }, "geometry": { "type": "Point", "coordinates": [ -705367.091587362228893, 4548468.778182639740407 ] } },
{ "type": "Feature", "properties": { "ID": 52208, "VALU_COORX": -705437.27576056239, "VALU_COORY": 4548061.4786851564, "CODE_H50": 939, "CODE_DOCU": " 40292", "VALU_BOU267": 12.873, "ESRI_OID": 21902 }, "geometry": { "type": "Point", "coordinates": [ -705437.275760562391952, 4548061.478685156442225 ] } },
{ "type": "Feature", "properties": { "ID": 52213, "VALU_COORX": -705547.43630001438, "VALU_COORY": 4547143.9693522519, "CODE_H50": 939, "CODE_DOCU": " 40292", "VALU_BOU267": 11.717, "ESRI_OID": 110213 }, "geometry": { "type": "Point", "coordinates": [ -705547.436300014378503, 4547143.969352251850069 ] } },
{ "type": "Feature", "properties": { "ID": 52331, "VALU_COORX": -692878.74673030234, "VALU_COORY": 4545344.7941287672, "CODE_H50": 939, "CODE_DOCU": " 40292", "VALU_BOU267": 31.398, "ESRI_OID": 13413 }, "geometry": { "type": "Point", "coordinates": [ -692878.746730302344076, 4545344.794128767214715 ] } },
{ "type": "Feature", "properties": { "ID": 52334, "VALU_COORX": -693672.47907971533, "VALU_COORY": 4544585.3336978685, "CODE_H50": 939, "CODE_DOCU": " 40292", "VALU_BOU267": 32.816, "ESRI_OID": 26617 }, "geometry": { "type": "Point", "coordinates": [ -693672.479079715325497, 4544585.333697868511081 ] } },
{ "type": "Feature", "properties": { "ID": 52337, "VALU_COORX": -694720.89382097381, "VALU_COORY": 4544914.2433314435, "CODE_H50": 939, "CODE_DOCU": " 40292", "VALU_BOU267": 29.893, "ESRI_OID": 2088 }, "geometry": { "type": "Point", "coordinates": [ -694720.893820973811671, 4544914.2433314435184 ] } },
{ "type": "Feature", "properties": { "ID": 52342, "VALU_COORX": -690842.29502879176, "VALU_COORY": 4545491.2100164425, "CODE_H50": 939, "CODE_DOCU": " 40292", "VALU_BOU267": 31.002, "ESRI_OID": 105801 }, "geometry": { "type": "Point", "coordinates": [ -690842.295028791762888, 4545491.210016442462802 ] } },
{ "type": "Feature", "properties": { "ID": 52346, "VALU_COORX": -691144.76228354115, "VALU_COORY": 4546098.629741706, "CODE_H50": 939, "CODE_DOCU": " 40292", "VALU_BOU267": 29.867, "ESRI_OID": 41151 }, "geometry": { "type": "Point", "coordinates": [ -691144.762283541145734, 4546098.629741705954075 ] } },
{ "type": "Feature", "properties": { "ID": 52354, "VALU_COORX": -688912.01640038437, "VALU_COORY": 4545417.9262227304, "CODE_H50": 939, "CODE_DOCU": " 40292", "VALU_BOU267": 33.147, "ESRI_OID": 7283 }, "geometry": { "type": "Point", "coordinates": [ -688912.016400384367444, 4545417.92622273042798 ] } },
{ "type": "Feature", "properties": { "ID": 52362, "VALU_COORX": -692466.30943411472, "VALU_COORY": 4549121.1404147446, "CODE_H50": 939, "CODE_DOCU": " 40292", "VALU_BOU267": 24.942, "ESRI_OID": 110931 }, "geometry": { "type": "Point", "coordinates": [ -692466.309434114722535, 4549121.140414744615555 ] } },
{ "type": "Feature", "properties": { "ID": 52363, "VALU_COORX": -692675.45070808311, "VALU_COORY": 4548808.0640058182, "CODE_H50": 939, "CODE_DOCU": " 40292", "VALU_BOU267": 24.806, "ESRI_OID": 52279 }, "geometry": { "type": "Point", "coordinates": [ -692675.45070808310993, 4548808.064005818217993 ] } },
{ "type": "Feature", "properties": { "ID": 52365, "VALU_COORX": -694115.24525550578, "VALU_COORY": 4548381.2319689309, "CODE_H50": 939, "CODE_DOCU": " 40292", "VALU_BOU267": 23.588, "ESRI_OID": 78434 }, "geometry": { "type": "Point", "coordinates": [ -694115.245255505782552, 4548381.231968930922449 ] } },
{ "type": "Feature", "properties": { "ID": 52377, "VALU_COORX": -690033.00703020883, "VALU_COORY": 4547693.6880295817, "CODE_H50": 939, "CODE_DOCU": " 40292", "VALU_BOU267": 28.581, "ESRI_OID": 29437 }, "geometry": { "type": "Point", "coordinates": [ -690033.007030208827928, 4547693.688029581680894 ] } },
{ "type": "Feature", "properties": { "ID": 52380, "VALU_COORX": -690656.85410241352, "VALU_COORY": 4547942.5122136399, "CODE_H50": 939, "CODE_DOCU": " 40292", "VALU_BOU267": 27.454, "ESRI_OID": 14346 }, "geometry": { "type": "Point", "coordinates": [ -690656.854102413519286, 4547942.512213639914989 ] } },
{ "type": "Feature", "properties": { "ID": 52389, "VALU_COORX": -695358.31742061372, "VALU_COORY": 4548955.9523998322, "CODE_H50": 939, "CODE_DOCU": " 40292", "VALU_BOU267": 21.91, "ESRI_OID": 222937 }, "geometry": { "type": "Point", "coordinates": [ -695358.31742061371915, 4548955.952399832196534 ] } },
{ "type": "Feature", "properties": { "ID": 52394, "VALU_COORX": -693118.38283490681, "VALU_COORY": 4546914.7475124542, "CODE_H50": 939, "CODE_DOCU": " 40292", "VALU_BOU267": 26.732, "ESRI_OID": 19556 }, "geometry": { "type": "Point", "coordinates": [ -693118.382834906806238, 4546914.747512454167008 ] } },
{ "type": "Feature", "properties": { "ID": 52397, "VALU_COORX": -691034.44489034498, "VALU_COORY": 4548416.7848183513, "CODE_H50": 939, "CODE_DOCU": " 40292", "VALU_BOU267": 26.593, "ESRI_OID": 24261 }, "geometry": { "type": "Point", "coordinates": [ -691034.444890344981104, 4548416.784818351268768 ] } },
{ "type": "Feature", "properties": { "ID": 52400, "VALU_COORX": -701198.18222603167, "VALU_COORY": 4547958.7984471163, "CODE_H50": 939, "CODE_DOCU": " 40292", "VALU_BOU267": 15.924, "ESRI_OID": 8216 }, "geometry": { "type": "Point", "coordinates": [ -701198.182226031669416, 4547958.798447116278112 ] } },
{ "type": "Feature", "properties": { "ID": 52415, "VALU_COORX": -695771.30927894474, "VALU_COORY": 4547087.6579756876, "CODE_H50": 939, "CODE_DOCU": " 40292", "VALU_BOU267": 23.345, "ESRI_OID": 215317 }, "geometry": { "type": "Point", "coordinates": [ -695771.309278944740072, 4547087.657975687645376 ] } },
{ "type": "Feature", "properties": { "ID": 52417, "VALU_COORX": -695592.61711486382, "VALU_COORY": 4546524.2180124596, "CODE_H50": 939, "CODE_DOCU": " 40292", "VALU_BOU267": 25.092, "ESRI_OID": 11517 }, "geometry": { "type": "Point", "coordinates": [ -695592.617114863824099, 4546524.21801245957613 ] } },
{ "type": "Feature", "properties": { "ID": 52420, "VALU_COORX": -694909.3798909185, "VALU_COORY": 4546824.6206869036, "CODE_H50": 939, "CODE_DOCU": " 40292", "VALU_BOU267": 25.036, "ESRI_OID": 24738 }, "geometry": { "type": "Point", "coordinates": [ -694909.379890918498859, 4546824.620686903595924 ] } },
{ "type": "Feature", "properties": { "ID": 52429, "VALU_COORX": -694524.24934397871, "VALU_COORY": 4548039.622228113, "CODE_H50": 939, "CODE_DOCU": " 40292", "VALU_BOU267": 23.676, "ESRI_OID": 51080 }, "geometry": { "type": "Point", "coordinates": [ -694524.249343978706747, 4548039.622228113003075 ] } },
{ "type": "Feature", "properties": { "ID": 52437, "VALU_COORX": -692347.82773861627, "VALU_COORY": 4546440.2581890374, "CODE_H50": 939, "CODE_DOCU": " 40292", "VALU_BOU267": 28.177, "ESRI_OID": 2565 }, "geometry": { "type": "Point", "coordinates": [ -692347.827738616266288, 4546440.258189037442207 ] } },
{ "type": "Feature", "properties": { "ID": 52440, "VALU_COORX": -698636.14585785125, "VALU_COORY": 4546198.1036243821, "CODE_H50": 939, "CODE_DOCU": " 40292", "VALU_BOU267": 21.516, "ESRI_OID": 18604 }, "geometry": { "type": "Point", "coordinates": [ -698636.145857851253822, 4546198.103624382056296 ] } },
{ "type": "Feature", "properties": { "ID": 52453, "VALU_COORX": -699251.52996475773, "VALU_COORY": 4544900.221879934, "CODE_H50": 939, "CODE_DOCU": " 40292", "VALU_BOU267": 23.289, "ESRI_OID": 163568 }, "geometry": { "type": "Point", "coordinates": [ -699251.529964757733978, 4544900.221879933960736 ] } },
{ "type": "Feature", "properties": { "ID": 52455, "VALU_COORX": -700028.08754827338, "VALU_COORY": 4546983.8611802021, "CODE_H50": 939, "CODE_DOCU": " 40292", "VALU_BOU267": 18.089, "ESRI_OID": 225068 }, "geometry": { "type": "Point", "coordinates": [ -700028.087548273382708, 4546983.861180202104151 ] } },
{ "type": "Feature", "properties": { "ID": 52457, "VALU_COORX": -699854.22239148302, "VALU_COORY": 4547467.0711793872, "CODE_H50": 939, "CODE_DOCU": " 40292", "VALU_BOU267": 17.655, "ESRI_OID": 16234 }, "geometry": { "type": "Point", "coordinates": [ -699854.222391483024694, 4547467.071179387159646 ] } },
{ "type": "Feature", "properties": { "ID": 52460, "VALU_COORX": -698899.26812288223, "VALU_COORY": 4547872.5193007942, "CODE_H50": 939, "CODE_DOCU": " 40292", "VALU_BOU267": 18.683, "ESRI_OID": 1163 }, "geometry": { "type": "Point", "coordinates": [ -698899.268122882233001, 4547872.519300794228911 ] } },
{ "type": "Feature", "properties": { "ID": 52462, "VALU_COORX": -698433.50153389515, "VALU_COORY": 4547487.9498384297, "CODE_H50": 939, "CODE_DOCU": " 40292", "VALU_BOU267": 20.771, "ESRI_OID": 92231 }, "geometry": { "type": "Point", "coordinates": [ -698433.501533895148896, 4547487.949838429689407 ] } },
{ "type": "Feature", "properties": { "ID": 52463, "VALU_COORX": -698246.4519870067, "VALU_COORY": 4547124.0311390255, "CODE_H50": 939, "CODE_DOCU": " 40292", "VALU_BOU267": 21.771, "ESRI_OID": 18138 }, "geometry": { "type": "Point", "coordinates": [ -698246.451987006701529, 4547124.031139025464654 ] } },
{ "type": "Feature", "properties": { "ID": 52467, "VALU_COORX": -698987.96332947467, "VALU_COORY": 4544659.6078350237, "CODE_H50": 939, "CODE_DOCU": " 40292", "VALU_BOU267": 23.961, "ESRI_OID": 177915 }, "geometry": { "type": "Point", "coordinates": [ -698987.963329474674538, 4544659.607835023663938 ] } },
{ "type": "Feature", "properties": { "ID": 52469, "VALU_COORX": -698034.57857720647, "VALU_COORY": 4544813.6372779338, "CODE_H50": 939, "CODE_DOCU": " 40292", "VALU_BOU267": 25.453, "ESRI_OID": 46162 }, "geometry": { "type": "Point", "coordinates": [ -698034.578577206470072, 4544813.637277933768928 ] } },
{ "type": "Feature", "properties": { "ID": 52475, "VALU_COORX": -703419.79576962802, "VALU_COORY": 4546429.6083176471, "CODE_H50": 939, "CODE_DOCU": " 40292", "VALU_BOU267": 14.99, "ESRI_OID": 224323 }, "geometry": { "type": "Point", "coordinates": [ -703419.795769628020935, 4546429.608317647129297 ] } },
{ "type": "Feature", "properties": { "ID": 52477, "VALU_COORX": -703097.63039039623, "VALU_COORY": 4547001.8670005584, "CODE_H50": 939, "CODE_DOCU": " 40292", "VALU_BOU267": 14.605, "ESRI_OID": 29910 }, "geometry": { "type": "Point", "coordinates": [ -703097.630390396225266, 4547001.867000558413565 ] } },
{ "type": "Feature", "properties": { "ID": 52480, "VALU_COORX": -702423.7347269092, "VALU_COORY": 4547955.8984653382, "CODE_H50": 939, "CODE_DOCU": " 40292", "VALU_BOU267": 15.373, "ESRI_OID": 13878 }, "geometry": { "type": "Point", "coordinates": [ -702423.734726909198798, 4547955.898465338163078 ] } },
{ "type": "Feature", "properties": { "ID": 52483, "VALU_COORX": -700027.00672942586, "VALU_COORY": 4548071.2956481203, "CODE_H50": 939, "CODE_DOCU": " 40292", "VALU_BOU267": 16.673, "ESRI_OID": 1625 }, "geometry": { "type": "Point", "coordinates": [ -700027.006729425862432, 4548071.295648120343685 ] } },
{ "type": "Feature", "properties": { "ID": 53001, "VALU_COORX": -703474.38295437302, "VALU_COORY": 4532886.7118591703, "CODE_H50": 939, "CODE_DOCU": " 40292", "VALU_BOU267": 19.884, "ESRI_OID": 2089 }, "geometry": { "type": "Point", "coordinates": [ -703474.382954373024404, 4532886.711859170347452 ] } },
{ "type": "Feature", "properties": { "ID": 53002, "VALU_COORX": -703810.92532514443, "VALU_COORY": 4532555.4406213192, "CODE_H50": 939, "CODE_DOCU": " 40292", "VALU_BOU267": 19.274, "ESRI_OID": 201658 }, "geometry": { "type": "Point", "coordinates": [ -703810.925325144431554, 4532555.440621319226921 ] } },
{ "type": "Feature", "properties": { "ID": 53004, "VALU_COORX": -704673.51693202031, "VALU_COORY": 4534362.0276332777, "CODE_H50": 939, "CODE_DOCU": " 40292", "VALU_BOU267": 19.704, "ESRI_OID": 15292 }, "geometry": { "type": "Point", "coordinates": [ -704673.516932020313106, 4534362.027633277699351 ] } },
{ "type": "Feature", "properties": { "ID": 53018, "VALU_COORX": -703698.68635219708, "VALU_COORY": 4534272.5903214412, "CODE_H50": 939, "CODE_DOCU": " 40292", "VALU_BOU267": 21.651, "ESRI_OID": 29915 }, "geometry": { "type": "Point", "coordinates": [ -703698.686352197080851, 4534272.590321441181004 ] } },
{ "type": "Feature", "properties": { "ID": 53021, "VALU_COORX": -705245.90871621238, "VALU_COORY": 4533279.6922692982, "CODE_H50": 939, "CODE_DOCU": " 40292", "VALU_BOU267": 17.215, "ESRI_OID": 11997 }, "geometry": { "type": "Point", "coordinates": [ -705245.908716212376021, 4533279.692269298247993 ] } },
{ "type": "Feature", "properties": { "ID": 53024, "VALU_COORX": -702631.15800288797, "VALU_COORY": 4539362.9601353286, "CODE_H50": 939, "CODE_DOCU": " 40292", "VALU_BOU267": 20.3, "ESRI_OID": 28028 }, "geometry": { "type": "Point", "coordinates": [ -702631.158002887968905, 4539362.960135328583419 ] } },
{ "type": "Feature", "properties": { "ID": 53029, "VALU_COORX": -703702.83677804237, "VALU_COORY": 4540036.1118494719, "CODE_H50": 939, "CODE_DOCU": " 40292", "VALU_BOU267": 17.173, "ESRI_OID": 101515 }, "geometry": { "type": "Point", "coordinates": [ -703702.836778042372316, 4540036.111849471926689 ] } },
{ "type": "Feature", "properties": { "ID": 53041, "VALU_COORX": -706361.81081773224, "VALU_COORY": 4541347.21916446, "CODE_H50": 939, "CODE_DOCU": " 40292", "VALU_BOU267": 11.711, "ESRI_OID": 6814 }, "geometry": { "type": "Point", "coordinates": [ -706361.810817732242867, 4541347.219164459966123 ] } },
{ "type": "Feature", "properties": { "ID": 53044, "VALU_COORX": -704223.95084255864, "VALU_COORY": 4538492.3318397254, "CODE_H50": 939, "CODE_DOCU": " 40292", "VALU_BOU267": 17.589, "ESRI_OID": 21899 }, "geometry": { "type": "Point", "coordinates": [ -704223.950842558639124, 4538492.331839725375175 ] } },
{ "type": "Feature", "properties": { "ID": 53049, "VALU_COORX": -704356.65711426793, "VALU_COORY": 4537676.2774353446, "CODE_H50": 939, "CODE_DOCU": " 40292", "VALU_BOU267": 16.64, "ESRI_OID": 104207 }, "geometry": { "type": "Point", "coordinates": [ -704356.65711426793132, 4537676.277435344643891 ] } },
{ "type": "Feature", "properties": { "ID": 53061, "VALU_COORX": -704665.29802089965, "VALU_COORY": 4539333.5989003545, "CODE_H50": 939, "CODE_DOCU": " 40292", "VALU_BOU267": 16.243, "ESRI_OID": 24263 }, "geometry": { "type": "Point", "coordinates": [ -704665.298020899645053, 4539333.598900354467332 ] } },
{ "type": "Feature", "properties": { "ID": 53064, "VALU_COORX": -706746.41215411958, "VALU_COORY": 4539241.2950254204, "CODE_H50": 939, "CODE_DOCU": " 40292", "VALU_BOU267": 11.278, "ESRI_OID": 8208 }, "geometry": { "type": "Point", "coordinates": [ -706746.41215411957819, 4539241.295025420375168 ] } },
{ "type": "Feature", "properties": { "ID": 53067, "VALU_COORX": -707058.97458343464, "VALU_COORY": 4542483.7838383727, "CODE_H50": 939, "CODE_DOCU": " 40292", "VALU_BOU267": 11.239, "ESRI_OID": 29926 }, "geometry": { "type": "Point", "coordinates": [ -707058.974583434639499, 4542483.783838372677565 ] } },
{ "type": "Feature", "properties": { "ID": 53069, "VALU_COORX": -706766.33151000005, "VALU_COORY": 4542706.1007353077, "CODE_H50": 939, "CODE_DOCU": " 40292", "VALU_BOU267": 12.205, "ESRI_OID": 102228 }, "geometry": { "type": "Point", "coordinates": [ -706766.331510000047274, 4542706.10073530767113 ] } },
{ "type": "Feature", "properties": { "ID": 53076, "VALU_COORX": -703396.93451828358, "VALU_COORY": 4541349.2498710304, "CODE_H50": 939, "CODE_DOCU": " 40292", "VALU_BOU267": 17.828, "ESRI_OID": 216161 }, "geometry": { "type": "Point", "coordinates": [ -703396.934518283582292, 4541349.249871030449867 ] } },
{ "type": "Feature", "properties": { "ID": 53081, "VALU_COORX": -706495.54001261143, "VALU_COORY": 4542372.1438762676, "CODE_H50": 939, "CODE_DOCU": " 40292", "VALU_BOU267": 12.688, "ESRI_OID": 19091 }, "geometry": { "type": "Point", "coordinates": [ -706495.540012611425482, 4542372.143876267597079 ] } },
{ "type": "Feature", "properties": { "ID": 53084, "VALU_COORX": -702357.57445426739, "VALU_COORY": 4540270.3509338954, "CODE_H50": 939, "CODE_DOCU": " 40292", "VALU_BOU267": 20.134, "ESRI_OID": 9646 }, "geometry": { "type": "Point", "coordinates": [ -702357.574454267392866, 4540270.35093389544636 ] } },
{ "type": "Feature", "properties": { "ID": 53087, "VALU_COORX": -701650.78460880416, "VALU_COORY": 4540853.3406226803, "CODE_H50": 939, "CODE_DOCU": " 40292", "VALU_BOU267": 22.259, "ESRI_OID": 22849 }, "geometry": { "type": "Point", "coordinates": [ -701650.784608804155141, 4540853.340622680261731 ] } },
{ "type": "Feature", "properties": { "ID": 53101, "VALU_COORX": -702891.86368473084, "VALU_COORY": 4543570.1241326928, "CODE_H50": 939, "CODE_DOCU": " 40292", "VALU_BOU267": 18.288, "ESRI_OID": 2566 }, "geometry": { "type": "Point", "coordinates": [ -702891.863684730837122, 4543570.124132692813873 ] } },
{ "type": "Feature", "properties": { "ID": 53104, "VALU_COORX": -707191.81584578182, "VALU_COORY": 4541322.4614412654, "CODE_H50": 939, "CODE_DOCU": " 40292", "VALU_BOU267": 9.517, "ESRI_OID": 18606 }, "geometry": { "type": "Point", "coordinates": [ -707191.815845781820826, 4541322.461441265419126 ] } },
{ "type": "Feature", "properties": { "ID": 53107, "VALU_COORX": -706988.4989727136, "VALU_COORY": 4539728.3233222682, "CODE_H50": 939, "CODE_DOCU": " 40292", "VALU_BOU267": 10.86, "ESRI_OID": 10121 }, "geometry": { "type": "Point", "coordinates": [ -706988.49897271359805, 4539728.323322268202901 ] } },
{ "type": "Feature", "properties": { "ID": 53110, "VALU_COORX": -702039.5977439885, "VALU_COORY": 4542680.8894739896, "CODE_H50": 939, "CODE_DOCU": " 40292", "VALU_BOU267": 20.946, "ESRI_OID": 49890 }, "geometry": { "type": "Point", "coordinates": [ -702039.597743988502771, 4542680.889473989605904 ] } },
{ "type": "Feature", "properties": { "ID": 53116, "VALU_COORX": -703405.81319550215, "VALU_COORY": 4535664.3856819412, "CODE_H50": 939, "CODE_DOCU": " 40292", "VALU_BOU267": 20.907, "ESRI_OID": 44387 }, "geometry": { "type": "Point", "coordinates": [ -703405.813195502152666, 4535664.385681941173971 ] } },
{ "type": "Feature", "properties": { "ID": 53117, "VALU_COORX": -703267.17341054569, "VALU_COORY": 4535311.9172529876, "CODE_H50": 939, "CODE_DOCU": " 40292", "VALU_BOU267": 21.404, "ESRI_OID": 156476 }, "geometry": { "type": "Point", "coordinates": [ -703267.173410545685329, 4535311.917252987623215 ] } },
{ "type": "Feature", "properties": { "ID": 53124, "VALU_COORX": -700236.53399947297, "VALU_COORY": 4542151.1926789237, "CODE_H50": 939, "CODE_DOCU": " 40292", "VALU_BOU267": 25.278, "ESRI_OID": 1165 }, "geometry": { "type": "Point", "coordinates": [ -700236.533999472972937, 4542151.192678923718631 ] } },
{ "type": "Feature", "properties": { "ID": 53127, "VALU_COORX": -703098.33158139011, "VALU_COORY": 4536751.3991367705, "CODE_H50": 939, "CODE_DOCU": " 40292", "VALU_BOU267": 18.796, "ESRI_OID": 18128 }, "geometry": { "type": "Point", "coordinates": [ -703098.33158139011357, 4536751.399136770516634 ] } },
{ "type": "Feature", "properties": { "ID": 53144, "VALU_COORX": -700549.02746683802, "VALU_COORY": 4540834.0004518442, "CODE_H50": 939, "CODE_DOCU": " 40292", "VALU_BOU267": 23.48, "ESRI_OID": 21423 }, "geometry": { "type": "Point", "coordinates": [ -700549.027466838015243, 4540834.000451844185591 ] } },
{ "type": "Feature", "properties": { "ID": 53147, "VALU_COORX": -701069.34523589769, "VALU_COORY": 4538173.3680820847, "CODE_H50": 939, "CODE_DOCU": " 40292", "VALU_BOU267": 24.292, "ESRI_OID": 1615 }, "geometry": { "type": "Point", "coordinates": [ -701069.345235897693783, 4538173.368082084693015 ] } },
{ "type": "Feature", "properties": { "ID": 53150, "VALU_COORX": -702546.11384220945, "VALU_COORY": 4536948.4761928022, "CODE_H50": 939, "CODE_DOCU": " 40292", "VALU_BOU267": 19.838, "ESRI_OID": 17663 }, "geometry": { "type": "Point", "coordinates": [ -702546.113842209451832, 4536948.476192802190781 ] } },
{ "type": "Feature", "properties": { "ID": 53153, "VALU_COORX": -701127.27693024999, "VALU_COORY": 4539536.7273991257, "CODE_H50": 939, "CODE_DOCU": " 40292", "VALU_BOU267": 23.373, "ESRI_OID": 45596 }, "geometry": { "type": "Point", "coordinates": [ -701127.276930249994621, 4539536.727399125695229 ] } },
{ "type": "Feature", "properties": { "ID": 53159, "VALU_COORX": -701413.73353560735, "VALU_COORY": 4537950.7446363568, "CODE_H50": 939, "CODE_DOCU": " 40292", "VALU_BOU267": 23.47, "ESRI_OID": 221538 }, "geometry": { "type": "Point", "coordinates": [ -701413.733535607345402, 4537950.744636356830597 ] } },
{ "type": "Feature", "properties": { "ID": 53164, "VALU_COORX": -701057.42244028731, "VALU_COORY": 4537509.5322213452, "CODE_H50": 939, "CODE_DOCU": " 40292", "VALU_BOU267": 24.14, "ESRI_OID": 11518 }, "geometry": { "type": "Point", "coordinates": [ -701057.422440287307836, 4537509.532221345230937 ] } },
{ "type": "Feature", "properties": { "ID": 53167, "VALU_COORX": -700775.00925909134, "VALU_COORY": 4534205.1883008601, "CODE_H50": 939, "CODE_DOCU": " 40292", "VALU_BOU267": 24.86, "ESRI_OID": 28504 }, "geometry": { "type": "Point", "coordinates": [ -700775.009259091340937, 4534205.188300860114396 ] } },
{ "type": "Feature", "properties": { "ID": 53170, "VALU_COORX": -699526.2920588695, "VALU_COORY": 4536571.0540270181, "CODE_H50": 939, "CODE_DOCU": " 40292", "VALU_BOU267": 27.276, "ESRI_OID": 218 }, "geometry": { "type": "Point", "coordinates": [ -699526.292058869497851, 4536571.054027018137276 ] } },
{ "type": "Feature", "properties": { "ID": 53173, "VALU_COORX": -698705.23849362682, "VALU_COORY": 4536553.0340317264, "CODE_H50": 939, "CODE_DOCU": " 40292", "VALU_BOU267": 28.76, "ESRI_OID": 50177 }, "geometry": { "type": "Point", "coordinates": [ -698705.238493626820855, 4536553.034031726419926 ] } },
{ "type": "Feature", "properties": { "ID": 53187, "VALU_COORX": -698738.84676518466, "VALU_COORY": 4535959.9387774477, "CODE_H50": 939, "CODE_DOCU": " 40292", "VALU_BOU267": 28.086, "ESRI_OID": 4439 }, "geometry": { "type": "Point", "coordinates": [ -698738.84676518465858, 4535959.938777447678149 ] } },
{ "type": "Feature", "properties": { "ID": 53190, "VALU_COORX": -698139.12062793365, "VALU_COORY": 4535409.386194258, "CODE_H50": 939, "CODE_DOCU": " 40292", "VALU_BOU267": 28.572, "ESRI_OID": 22370 }, "geometry": { "type": "Point", "coordinates": [ -698139.120627933647484, 4535409.386194257996976 ] } },
{ "type": "Feature", "properties": { "ID": 53193, "VALU_COORX": -700814.59533264081, "VALU_COORY": 4532741.5089004589, "CODE_H50": 939, "CODE_DOCU": " 40292", "VALU_BOU267": 25.734, "ESRI_OID": 50764 }, "geometry": { "type": "Point", "coordinates": [ -700814.595332640805282, 4532741.508900458924472 ] } },
{ "type": "Feature", "properties": { "ID": 53197, "VALU_COORX": -701537.22284639627, "VALU_COORY": 4533163.2421472855, "CODE_H50": 939, "CODE_DOCU": " 40292", "VALU_BOU267": 25.066, "ESRI_OID": 164524 }, "geometry": { "type": "Point", "coordinates": [ -701537.222846396267414, 4533163.242147285491228 ] } },
{ "type": "Feature", "properties": { "ID": 53200, "VALU_COORX": -695709.42532734969, "VALU_COORY": 4533868.3658226188, "CODE_H50": 939, "CODE_DOCU": " 40292", "VALU_BOU267": 29.157, "ESRI_OID": 163075 }, "geometry": { "type": "Point", "coordinates": [ -695709.425327349686995, 4533868.365822618827224 ] } },
{ "type": "Feature", "properties": { "ID": 53207, "VALU_COORX": -696976.61865372385, "VALU_COORY": 4536897.5514419666, "CODE_H50": 939, "CODE_DOCU": " 40292", "VALU_BOU267": 32.356, "ESRI_OID": 8704 }, "geometry": { "type": "Point", "coordinates": [ -696976.61865372385364, 4536897.551441966556013 ] } },
{ "type": "Feature", "properties": { "ID": 53210, "VALU_COORX": -699658.67530051304, "VALU_COORY": 4533025.5437985323, "CODE_H50": 939, "CODE_DOCU": " 40292", "VALU_BOU267": 25.935, "ESRI_OID": 27557 }, "geometry": { "type": "Point", "coordinates": [ -699658.675300513044931, 4533025.54379853233695 ] } },
{ "type": "Feature", "properties": { "ID": 53225, "VALU_COORX": -696528.96628015162, "VALU_COORY": 4535088.0548348809, "CODE_H50": 939, "CODE_DOCU": " 40292", "VALU_BOU267": 30.113, "ESRI_OID": 213804 }, "geometry": { "type": "Point", "coordinates": [ -696528.966280151624233, 4535088.05483488086611 ] } },
{ "type": "Feature", "properties": { "ID": 53227, "VALU_COORX": -696656.12438360509, "VALU_COORY": 4534131.8793819677, "CODE_H50": 939, "CODE_DOCU": " 40292", "VALU_BOU267": 27.089, "ESRI_OID": 11061 }, "geometry": { "type": "Point", "coordinates": [ -696656.124383605085313, 4534131.879381967708468 ] } },
{ "type": "Feature", "properties": { "ID": 53230, "VALU_COORX": -695936.76387770358, "VALU_COORY": 4535553.564339648, "CODE_H50": 939, "CODE_DOCU": " 40292", "VALU_BOU267": 32.04, "ESRI_OID": 23318 }, "geometry": { "type": "Point", "coordinates": [ -695936.763877703575417, 4535553.564339648000896 ] } },
{ "type": "Feature", "properties": { "ID": 53231, "VALU_COORX": -694863.76212908397, "VALU_COORY": 4533166.6294027725, "CODE_H50": 939, "CODE_DOCU": " 40292", "VALU_BOU267": 29.31, "ESRI_OID": 210413 }, "geometry": { "type": "Point", "coordinates": [ -694863.762129083974287, 4533166.629402772523463 ] } },
{ "type": "Feature", "properties": { "ID": 53233, "VALU_COORX": -695976.29647361964, "VALU_COORY": 4536003.3923242213, "CODE_H50": 939, "CODE_DOCU": " 40292", "VALU_BOU267": 32.909, "ESRI_OID": 5387 }, "geometry": { "type": "Point", "coordinates": [ -695976.29647361964453, 4536003.39232422132045 ] } },
{ "type": "Feature", "properties": { "ID": 53236, "VALU_COORX": -696879.40838117141, "VALU_COORY": 4533365.0354270674, "CODE_H50": 939, "CODE_DOCU": " 40292", "VALU_BOU267": 25.795, "ESRI_OID": 47479 }, "geometry": { "type": "Point", "coordinates": [ -696879.408381171408109, 4533365.035427067428827 ] } },
{ "type": "Feature", "properties": { "ID": 53250, "VALU_COORX": -696445.67242906883, "VALU_COORY": 4532973.4352283254, "CODE_H50": 939, "CODE_DOCU": " 40292", "VALU_BOU267": 25.907, "ESRI_OID": 9644 }, "geometry": { "type": "Point", "coordinates": [ -696445.672429068828933, 4532973.435228325426579 ] } },
{ "type": "Feature", "properties": { "ID": 53252, "VALU_COORX": -697874.19264439447, "VALU_COORY": 4533197.1837453414, "CODE_H50": 939, "CODE_DOCU": " 40292", "VALU_BOU267": 24.331, "ESRI_OID": 117733 }, "geometry": { "type": "Point", "coordinates": [ -697874.192644394468516, 4533197.18374534137547 ] } },
{ "type": "Feature", "properties": { "ID": 53253, "VALU_COORX": -694770.00712732936, "VALU_COORY": 4533814.8713750578, "CODE_H50": 939, "CODE_DOCU": " 40292", "VALU_BOU267": 30.686, "ESRI_OID": 22847 }, "geometry": { "type": "Point", "coordinates": [ -694770.0071273293579, 4533814.871375057846308 ] } },
{ "type": "Feature", "properties": { "ID": 53268, "VALU_COORX": -694221.45227854536, "VALU_COORY": 4538190.1944282074, "CODE_H50": 939, "CODE_DOCU": " 40292", "VALU_BOU267": 38.72, "ESRI_OID": 217173 }, "geometry": { "type": "Point", "coordinates": [ -694221.45227854535915, 4538190.194428207352757 ] } },
{ "type": "Feature", "properties": { "ID": 53270, "VALU_COORX": -693857.20572745323, "VALU_COORY": 4538647.8136324985, "CODE_H50": 939, "CODE_DOCU": " 40292", "VALU_BOU267": 39.396, "ESRI_OID": 12935 }, "geometry": { "type": "Point", "coordinates": [ -693857.205727453227155, 4538647.813632498495281 ] } },
{ "type": "Feature", "properties": { "ID": 53273, "VALU_COORX": -693360.60191775847, "VALU_COORY": 4534001.8611047231, "CODE_H50": 939, "CODE_DOCU": " 40292", "VALU_BOU267": 33.05, "ESRI_OID": 25206 }, "geometry": { "type": "Point", "coordinates": [ -693360.601917758467607, 4534001.861104723066092 ] } },
{ "type": "Feature", "properties": { "ID": 53275, "VALU_COORX": -693017.68333572138, "VALU_COORY": 4534047.9362065997, "CODE_H50": 939, "CODE_DOCU": " 40292", "VALU_BOU267": 33.608, "ESRI_OID": 119413 }, "geometry": { "type": "Point", "coordinates": [ -693017.683335721376352, 4534047.936206599697471 ] } },
{ "type": "Feature", "properties": { "ID": 53290, "VALU_COORX": -693705.48990608542, "VALU_COORY": 4537025.3618250983, "CODE_H50": 939, "CODE_DOCU": " 40292", "VALU_BOU267": 38.213, "ESRI_OID": 21898 }, "geometry": { "type": "Point", "coordinates": [ -693705.489906085422263, 4537025.361825098283589 ] } },
{ "type": "Feature", "properties": { "ID": 53293, "VALU_COORX": -692957.30385188258, "VALU_COORY": 4536740.7046612268, "CODE_H50": 939, "CODE_DOCU": " 40292", "VALU_BOU267": 38.632, "ESRI_OID": 4912 }, "geometry": { "type": "Point", "coordinates": [ -692957.303851882577874, 4536740.704661226831377 ] } },
{ "type": "Feature", "properties": { "ID": 53299, "VALU_COORX": -691953.57272976125, "VALU_COORY": 4536511.7130669951, "CODE_H50": 939, "CODE_DOCU": " 40292", "VALU_BOU267": 39.033, "ESRI_OID": 46422 }, "geometry": { "type": "Point", "coordinates": [ -691953.572729761246592, 4536511.71306699514389 ] } },
{ "type": "Feature", "properties": { "ID": 53310, "VALU_COORX": -694163.9584146766, "VALU_COORY": 4539600.7314227242, "CODE_H50": 939, "CODE_DOCU": " 40292", "VALU_BOU267": 39.372, "ESRI_OID": 28965 }, "geometry": { "type": "Point", "coordinates": [ -694163.958414676599205, 4539600.731422724202275 ] } },
{ "type": "Feature", "properties": { "ID": 53313, "VALU_COORX": -693029.02838615153, "VALU_COORY": 4542878.8011345034, "CODE_H50": 939, "CODE_DOCU": " 40292", "VALU_BOU267": 35.854, "ESRI_OID": 14809 }, "geometry": { "type": "Point", "coordinates": [ -693029.028386151534505, 4542878.801134503446519 ] } },
{ "type": "Feature", "properties": { "ID": 53316, "VALU_COORX": -693133.64619467198, "VALU_COORY": 4543461.1491976231, "CODE_H50": 939, "CODE_DOCU": " 40292", "VALU_BOU267": 34.966, "ESRI_OID": 28966 }, "geometry": { "type": "Point", "coordinates": [ -693133.646194671979174, 4543461.149197623133659 ] } },
{ "type": "Feature", "properties": { "ID": 53319, "VALU_COORX": -697132.87458741909, "VALU_COORY": 4542128.431907828, "CODE_H50": 939, "CODE_DOCU": " 40292", "VALU_BOU267": 27.88, "ESRI_OID": 49446 }, "geometry": { "type": "Point", "coordinates": [ -697132.874587419093587, 4542128.431907827965915 ] } },
{ "type": "Feature", "properties": { "ID": 53321, "VALU_COORX": -697181.03422545455, "VALU_COORY": 4542606.1347696707, "CODE_H50": 939, "CODE_DOCU": " 40292", "VALU_BOU267": 28.51, "ESRI_OID": 105754 }, "geometry": { "type": "Point", "coordinates": [ -697181.034225454553962, 4542606.134769670665264 ] } },
{ "type": "Feature", "properties": { "ID": 53322, "VALU_COORX": -697719.49669147492, "VALU_COORY": 4542837.1124969395, "CODE_H50": 939, "CODE_DOCU": " 40292", "VALU_BOU267": 27.542, "ESRI_OID": 47115 }, "geometry": { "type": "Point", "coordinates": [ -697719.496691474923864, 4542837.112496939487755 ] } },
{ "type": "Feature", "properties": { "ID": 53330, "VALU_COORX": -690695.11372689123, "VALU_COORY": 4541584.5718551362, "CODE_H50": 939, "CODE_DOCU": " 40292", "VALU_BOU267": 39.916, "ESRI_OID": 19090 }, "geometry": { "type": "Point", "coordinates": [ -690695.113726891227998, 4541584.571855136193335 ] } },
{ "type": "Feature", "properties": { "ID": 53331, "VALU_COORX": -690350.62709017261, "VALU_COORY": 4541629.3838254344, "CODE_H50": 939, "CODE_DOCU": " 40292", "VALU_BOU267": 40.475, "ESRI_OID": 218012 }, "geometry": { "type": "Point", "coordinates": [ -690350.627090172609314, 4541629.383825434371829 ] } },
{ "type": "Feature", "properties": { "ID": 53333, "VALU_COORX": -689599.15609285783, "VALU_COORY": 4541292.4840332214, "CODE_H50": 939, "CODE_DOCU": " 40292", "VALU_BOU267": 41.575, "ESRI_OID": 5866 }, "geometry": { "type": "Point", "coordinates": [ -689599.15609285782557, 4541292.484033221378922 ] } },
{ "type": "Feature", "properties": { "ID": 53335, "VALU_COORX": -689177.88584821601, "VALU_COORY": 4540712.1841641963, "CODE_H50": 939, "CODE_DOCU": " 40292", "VALU_BOU267": 42.831, "ESRI_OID": 120661 }, "geometry": { "type": "Point", "coordinates": [ -689177.885848216013983, 4540712.184164196252823 ] } },
{ "type": "Feature", "properties": { "ID": 53336, "VALU_COORX": -692605.87191297521, "VALU_COORY": 4535067.1303670006, "CODE_H50": 939, "CODE_DOCU": " 40292", "VALU_BOU267": 36.107, "ESRI_OID": 15302 }, "geometry": { "type": "Point", "coordinates": [ -692605.87191297521349, 4535067.130367000587285 ] } },
{ "type": "Feature", "properties": { "ID": 53338, "VALU_COORX": -692448.01458693075, "VALU_COORY": 4535359.0077250544, "CODE_H50": 939, "CODE_DOCU": " 40292", "VALU_BOU267": 36.619, "ESRI_OID": 117155 }, "geometry": { "type": "Point", "coordinates": [ -692448.014586930745281, 4535359.007725054398179 ] } },
{ "type": "Feature", "properties": { "ID": 53345, "VALU_COORX": -689926.0431281965, "VALU_COORY": 4539802.7548075384, "CODE_H50": 939, "CODE_DOCU": " 40292", "VALU_BOU267": 42.994, "ESRI_OID": 50229 }, "geometry": { "type": "Point", "coordinates": [ -689926.04312819649931, 4539802.754807538352907 ] } },
{ "type": "Feature", "properties": { "ID": 53348, "VALU_COORX": -691488.60268858075, "VALU_COORY": 4534834.4423840828, "CODE_H50": 939, "CODE_DOCU": " 40292", "VALU_BOU267": 36.354, "ESRI_OID": 222421 }, "geometry": { "type": "Point", "coordinates": [ -691488.602688580751419, 4534834.442384082823992 ] } },
{ "type": "Feature", "properties": { "ID": 53353, "VALU_COORX": -691400.90342018858, "VALU_COORY": 4539289.2764503574, "CODE_H50": 939, "CODE_DOCU": " 40292", "VALU_BOU267": 41.562, "ESRI_OID": 27088 }, "geometry": { "type": "Point", "coordinates": [ -691400.90342018858064, 4539289.276450357399881 ] } },
{ "type": "Feature", "properties": { "ID": 53356, "VALU_COORX": -691219.48665776127, "VALU_COORY": 4538413.1222853512, "CODE_H50": 939, "CODE_DOCU": " 40292", "VALU_BOU267": 41.799, "ESRI_OID": 12934 }, "geometry": { "type": "Point", "coordinates": [ -691219.48665776127018, 4538413.122285351157188 ] } },
{ "type": "Feature", "properties": { "ID": 53359, "VALU_COORX": -690900.49912568624, "VALU_COORY": 4537351.6208685888, "CODE_H50": 939, "CODE_DOCU": " 40292", "VALU_BOU267": 40.382, "ESRI_OID": 55831 }, "geometry": { "type": "Point", "coordinates": [ -690900.499125686241314, 4537351.620868588797748 ] } },
{ "type": "Feature", "properties": { "ID": 53368, "VALU_COORX": -691761.01301487745, "VALU_COORY": 4538891.4428748768, "CODE_H50": 939, "CODE_DOCU": " 40292", "VALU_BOU267": 41.884, "ESRI_OID": 223010 }, "geometry": { "type": "Point", "coordinates": [ -691761.013014877447858, 4538891.442874876782298 ] } },
{ "type": "Feature", "properties": { "ID": 53371, "VALU_COORX": -692013.7687007708, "VALU_COORY": 4538271.6554512419, "CODE_H50": 939, "CODE_DOCU": " 40292", "VALU_BOU267": 41.306, "ESRI_OID": 223549 }, "geometry": { "type": "Point", "coordinates": [ -692013.768700770800933, 4538271.655451241880655 ] } },
{ "type": "Feature", "properties": { "ID": 53373, "VALU_COORX": -693278.98983832786, "VALU_COORY": 4539382.904957247, "CODE_H50": 939, "CODE_DOCU": " 40292", "VALU_BOU267": 40.966, "ESRI_OID": 25685 }, "geometry": { "type": "Point", "coordinates": [ -693278.989838327863254, 4539382.90495724696666 ] } },
{ "type": "Feature", "properties": { "ID": 53376, "VALU_COORX": -691108.85137271008, "VALU_COORY": 4539758.3106831564, "CODE_H50": 939, "CODE_DOCU": " 40292", "VALU_BOU267": 41.671, "ESRI_OID": 10591 }, "geometry": { "type": "Point", "coordinates": [ -691108.851372710079886, 4539758.310683156363666 ] } },
{ "type": "Feature", "properties": { "ID": 53379, "VALU_COORX": -695312.64075759472, "VALU_COORY": 4542737.3466159068, "CODE_H50": 939, "CODE_DOCU": " 40292", "VALU_BOU267": 33.027, "ESRI_OID": 4913 }, "geometry": { "type": "Point", "coordinates": [ -695312.640757594723254, 4542737.3466159068048 ] } },
{ "type": "Feature", "properties": { "ID": 53382, "VALU_COORX": -696086.14309861592, "VALU_COORY": 4542972.9045176618, "CODE_H50": 939, "CODE_DOCU": " 40292", "VALU_BOU267": 30.652, "ESRI_OID": 55187 }, "geometry": { "type": "Point", "coordinates": [ -696086.143098615924828, 4542972.904517661780119 ] } },
{ "type": "Feature", "properties": { "ID": 53393, "VALU_COORX": -696506.2511539621, "VALU_COORY": 4541064.8279099837, "CODE_H50": 939, "CODE_DOCU": " 40292", "VALU_BOU267": 32.173, "ESRI_OID": 9178 }, "geometry": { "type": "Point", "coordinates": [ -696506.251153962104581, 4541064.827909983694553 ] } },
{ "type": "Feature", "properties": { "ID": 53394, "VALU_COORX": -689036.83327333, "VALU_COORY": 4543736.6740919882, "CODE_H50": 939, "CODE_DOCU": " 40292", "VALU_BOU267": 37.169, "ESRI_OID": 215087 }, "geometry": { "type": "Point", "coordinates": [ -689036.833273330004886, 4543736.674091988243163 ] } },
{ "type": "Feature", "properties": { "ID": 53396, "VALU_COORX": -696503.07134595013, "VALU_COORY": 4540353.5754815508, "CODE_H50": 939, "CODE_DOCU": " 40292", "VALU_BOU267": 33.152, "ESRI_OID": 23319 }, "geometry": { "type": "Point", "coordinates": [ -696503.071345950127579, 4540353.575481550768018 ] } },
{ "type": "Feature", "properties": { "ID": 53399, "VALU_COORX": -691996.10154671094, "VALU_COORY": 4543253.1522892304, "CODE_H50": 939, "CODE_DOCU": " 40292", "VALU_BOU267": 36.796, "ESRI_OID": 11062 }, "geometry": { "type": "Point", "coordinates": [ -691996.101546710939147, 4543253.152289230376482 ] } },
{ "type": "Feature", "properties": { "ID": 53403, "VALU_COORX": -695747.0389436566, "VALU_COORY": 4541092.5991760772, "CODE_H50": 939, "CODE_DOCU": " 40292", "VALU_BOU267": 34.94, "ESRI_OID": 174045 }, "geometry": { "type": "Point", "coordinates": [ -695747.038943656603806, 4541092.59917607717216 ] } },
{ "type": "Feature", "properties": { "ID": 53408, "VALU_COORX": -695624.95826077391, "VALU_COORY": 4542017.5199453076, "CODE_H50": 939, "CODE_DOCU": " 40292", "VALU_BOU267": 32.178, "ESRI_OID": 228502 }, "geometry": { "type": "Point", "coordinates": [ -695624.958260773913935, 4542017.519945307634771 ] } },
{ "type": "Feature", "properties": { "ID": 53411, "VALU_COORX": -692006.54679851222, "VALU_COORY": 4542377.6681489069, "CODE_H50": 939, "CODE_DOCU": " 40292", "VALU_BOU267": 38.004, "ESRI_OID": 222131 }, "geometry": { "type": "Point", "coordinates": [ -692006.546798512223177, 4542377.668148906901479 ] } },
{ "type": "Feature", "properties": { "ID": 53416, "VALU_COORX": -691133.33560346882, "VALU_COORY": 4542620.8404296022, "CODE_H50": 939, "CODE_DOCU": " 40292", "VALU_BOU267": 38.436, "ESRI_OID": 28493 }, "geometry": { "type": "Point", "coordinates": [ -691133.33560346881859, 4542620.840429602190852 ] } },
{ "type": "Feature", "properties": { "ID": 53419, "VALU_COORX": -690716.68835096469, "VALU_COORY": 4542513.4252333352, "CODE_H50": 939, "CODE_DOCU": " 40292", "VALU_BOU267": 39.037, "ESRI_OID": 7753 }, "geometry": { "type": "Point", "coordinates": [ -690716.688350964686833, 4542513.425233335234225 ] } },
{ "type": "Feature", "properties": { "ID": 53421, "VALU_COORX": -695075.17417198303, "VALU_COORY": 4543138.7906249985, "CODE_H50": 939, "CODE_DOCU": " 40292", "VALU_BOU267": 32.867, "ESRI_OID": 118871 }, "geometry": { "type": "Point", "coordinates": [ -695075.174171983031556, 4543138.790624998509884 ] } },
{ "type": "Feature", "properties": { "ID": 53436, "VALU_COORX": -699028.14210950711, "VALU_COORY": 4539514.4303932358, "CODE_H50": 939, "CODE_DOCU": " 40292", "VALU_BOU267": 28.268, "ESRI_OID": 22371 }, "geometry": { "type": "Point", "coordinates": [ -699028.142109507112764, 4539514.430393235757947 ] } },
{ "type": "Feature", "properties": { "ID": 53438, "VALU_COORX": -701022.38838484441, "VALU_COORY": 4544104.5038585914, "CODE_H50": 939, "CODE_DOCU": " 40292", "VALU_BOU267": 21.556, "ESRI_OID": 126262 }, "geometry": { "type": "Point", "coordinates": [ -701022.388384844409302, 4544104.503858591429889 ] } },
{ "type": "Feature", "properties": { "ID": 53439, "VALU_COORX": -700369.12844646827, "VALU_COORY": 4540023.774746092, "CODE_H50": 939, "CODE_DOCU": " 40292", "VALU_BOU267": 24.586, "ESRI_OID": 6338 }, "geometry": { "type": "Point", "coordinates": [ -700369.128446468268521, 4540023.774746092036366 ] } },
{ "type": "Feature", "properties": { "ID": 53440, "VALU_COORX": -700069.28089394188, "VALU_COORY": 4539934.1926358929, "CODE_H50": 939, "CODE_DOCU": " 40292", "VALU_BOU267": 24.974, "ESRI_OID": 182317 }, "geometry": { "type": "Point", "coordinates": [ -700069.280893941875547, 4539934.192635892890394 ] } },
{ "type": "Feature", "properties": { "ID": 53444, "VALU_COORX": -698734.55930095515, "VALU_COORY": 4539965.9849294247, "CODE_H50": 939, "CODE_DOCU": " 40292", "VALU_BOU267": 27.123, "ESRI_OID": 114070 }, "geometry": { "type": "Point", "coordinates": [ -698734.559300955152139, 4539965.984929424710572 ] } },
{ "type": "Feature", "properties": { "ID": 53452, "VALU_COORX": -697556.5857722637, "VALU_COORY": 4543927.2619749606, "CODE_H50": 939, "CODE_DOCU": " 40292", "VALU_BOU267": 26.704, "ESRI_OID": 161914 }, "geometry": { "type": "Point", "coordinates": [ -697556.585772263701074, 4543927.261974960565567 ] } },
{ "type": "Feature", "properties": { "ID": 53454, "VALU_COORX": -696692.09430449863, "VALU_COORY": 4544020.9589104727, "CODE_H50": 939, "CODE_DOCU": " 40292", "VALU_BOU267": 29.035, "ESRI_OID": 225722 }, "geometry": { "type": "Point", "coordinates": [ -696692.094304498634301, 4544020.958910472691059 ] } },
{ "type": "Feature", "properties": { "ID": 53456, "VALU_COORX": -700005.90899992629, "VALU_COORY": 4543247.4991669618, "CODE_H50": 939, "CODE_DOCU": " 40292", "VALU_BOU267": 24.362, "ESRI_OID": 1166 }, "geometry": { "type": "Point", "coordinates": [ -700005.9089999262942, 4543247.499166961759329 ] } },
{ "type": "Feature", "properties": { "ID": 53459, "VALU_COORX": -705393.3708888836, "VALU_COORY": 4542416.7465250846, "CODE_H50": 939, "CODE_DOCU": " 40292", "VALU_BOU267": 14.733, "ESRI_OID": 29438 }, "geometry": { "type": "Point", "coordinates": [ -705393.370888883597218, 4542416.746525084599853 ] } },
{ "type": "Feature", "properties": { "ID": 53462, "VALU_COORX": -703824.66488084884, "VALU_COORY": 4544160.9409291754, "CODE_H50": 939, "CODE_DOCU": " 40292", "VALU_BOU267": 15.708, "ESRI_OID": 14347 }, "geometry": { "type": "Point", "coordinates": [ -703824.664880848838948, 4544160.94092917535454 ] } },
{ "type": "Feature", "properties": { "ID": 53476, "VALU_COORX": -689313.92093721707, "VALU_COORY": 4535756.9694223385, "CODE_H50": 939, "CODE_DOCU": " 40292", "VALU_BOU267": 40.439, "ESRI_OID": 17661 }, "geometry": { "type": "Point", "coordinates": [ -689313.920937217073515, 4535756.969422338530421 ] } },
{ "type": "Feature", "properties": { "ID": 53479, "VALU_COORX": -689392.03297921002, "VALU_COORY": 4544004.8295509014, "CODE_H50": 939, "CODE_DOCU": " 40292", "VALU_BOU267": 36.516, "ESRI_OID": 1614 }, "geometry": { "type": "Point", "coordinates": [ -689392.032979210023768, 4544004.829550901427865 ] } },
{ "type": "Feature", "properties": { "ID": 53482, "VALU_COORX": -690158.5761230879, "VALU_COORY": 4543554.8780027535, "CODE_H50": 939, "CODE_DOCU": " 40292", "VALU_BOU267": 37.359, "ESRI_OID": 21422 }, "geometry": { "type": "Point", "coordinates": [ -690158.576123087899759, 4543554.878002753481269 ] } },
{ "type": "Feature", "properties": { "ID": 53496, "VALU_COORX": -698887.43447462283, "VALU_COORY": 4538303.557196199, "CODE_H50": 939, "CODE_DOCU": " 40292", "VALU_BOU267": 30.13, "ESRI_OID": 70340 }, "geometry": { "type": "Point", "coordinates": [ -698887.434474622830749, 4538303.557196198962629 ] } },
{ "type": "Feature", "properties": { "ID": 53499, "VALU_COORX": -699887.46209650266, "VALU_COORY": 4538128.8996792957, "CODE_H50": 939, "CODE_DOCU": " 40292", "VALU_BOU267": 27.9, "ESRI_OID": 17186 }, "geometry": { "type": "Point", "coordinates": [ -699887.462096502655186, 4538128.89967929571867 ] } },
{ "type": "Feature", "properties": { "ID": 53502, "VALU_COORX": -706792.43415625102, "VALU_COORY": 4532630.0461594416, "CODE_H50": 939, "CODE_DOCU": " 40292", "VALU_BOU267": 18.014, "ESRI_OID": 219 }, "geometry": { "type": "Point", "coordinates": [ -706792.434156251023524, 4532630.046159441582859 ] } },
{ "type": "Feature", "properties": { "ID": 52326, "VALU_COORX": -692887.15624688496, "VALU_COORY": 4544154.6258469634, "CODE_H50": 939, "CODE_DOCU": " 40292", "VALU_BOU267": 34.048, "ESRI_OID": 225008 }, "geometry": { "type": "Point", "coordinates": [ -692887.156246884958819, 4544154.625846963375807 ] } },
{ "type": "Feature", "properties": { "ID": 52330, "VALU_COORX": -692149.34455906821, "VALU_COORY": 4545477.8511567824, "CODE_H50": 939, "CODE_DOCU": " 40292", "VALU_BOU267": 30.768, "ESRI_OID": 126462 }, "geometry": { "type": "Point", "coordinates": [ -692149.344559068209492, 4545477.851156782358885 ] } },
{ "type": "Feature", "properties": { "ID": 53208, "VALU_COORX": -696750.36028850451, "VALU_COORY": 4536961.23362312, "CODE_H50": 939, "CODE_DOCU": " 40292", "VALU_BOU267": 32.9, "ESRI_OID": 209500 }, "geometry": { "type": "Point", "coordinates": [ -696750.360288504511118, 4536961.233623120002449 ] } },
{ "type": "Feature", "properties": { "ID": 52448, "VALU_COORX": -696729.93484782276, "VALU_COORY": 4546422.3094724119, "CODE_H50": 939, "CODE_DOCU": " 40292", "VALU_BOU267": 24.473, "ESRI_OID": 82257 }, "geometry": { "type": "Point", "coordinates": [ -696729.934847822762094, 4546422.309472411870956 ] } },
{ "type": "Feature", "properties": { "ID": 101613, "VALU_COORX": -680457.58385589765, "VALU_COORY": 4529960.0368446112, "CODE_H50": 962, "CODE_DOCU": null, "VALU_BOU267": 38.449, "ESRI_OID": 137335 }, "geometry": { "type": "Point", "coordinates": [ -680457.583855897653848, 4529960.036844611167908 ] } },
{ "type": "Feature", "properties": { "ID": 52202, "VALU_COORX": -705624.76588380162, "VALU_COORY": 4548146.115938765, "CODE_H50": 939, "CODE_DOCU": " 40292", "VALU_BOU267": 11.727, "ESRI_OID": 71717 }, "geometry": { "type": "Point", "coordinates": [ -705624.765883801621385, 4548146.115938764996827 ] } },
{ "type": "Feature", "properties": { "ID": 53057, "VALU_COORX": -703077.12316266703, "VALU_COORY": 4538118.6390251815, "CODE_H50": 939, "CODE_DOCU": " 40292", "VALU_BOU267": 20.489, "ESRI_OID": 126932 }, "geometry": { "type": "Point", "coordinates": [ -703077.123162667034194, 4538118.639025181531906 ] } },
{ "type": "Feature", "properties": { "ID": 62698, "VALU_COORX": -692756.75331603957, "VALU_COORY": 4530851.337757851, "CODE_H50": 961, "CODE_DOCU": " 40292", "VALU_BOU267": 26.291, "ESRI_OID": 147477 }, "geometry": { "type": "Point", "coordinates": [ -692756.753316039568745, 4530851.33775785099715 ] } },
{ "type": "Feature", "properties": { "ID": 62741, "VALU_COORX": -688941.69518245256, "VALU_COORY": 4529094.8834644342, "CODE_H50": 961, "CODE_DOCU": " 40292", "VALU_BOU267": 30.824, "ESRI_OID": 143309 }, "geometry": { "type": "Point", "coordinates": [ -688941.695182452560402, 4529094.883464434184134 ] } },
{ "type": "Feature", "properties": { "ID": 62783, "VALU_COORX": -701749.64702543721, "VALU_COORY": 4531199.5024871221, "CODE_H50": 961, "CODE_DOCU": " 40292", "VALU_BOU267": 23.127, "ESRI_OID": 209499 }, "geometry": { "type": "Point", "coordinates": [ -701749.647025437210687, 4531199.50248712208122 ] } },
{ "type": "Feature", "properties": { "ID": 52177, "VALU_COORX": -705629.95368449634, "VALU_COORY": 4546835.239664943, "CODE_H50": 939, "CODE_DOCU": " 40292", "VALU_BOU267": 11.669, "ESRI_OID": 44755 }, "geometry": { "type": "Point", "coordinates": [ -705629.953684496344067, 4546835.239664942957461 ] } },
{ "type": "Feature", "properties": { "ID": 53166, "VALU_COORX": -700662.69477164163, "VALU_COORY": 4537231.9334658105, "CODE_H50": 939, "CODE_DOCU": " 40292", "VALU_BOU267": 25.139, "ESRI_OID": 147072 }, "geometry": { "type": "Point", "coordinates": [ -700662.694771641632542, 4537231.933465810492635 ] } },
{ "type": "Feature", "properties": { "ID": 53323, "VALU_COORX": -694478.29392382817, "VALU_COORY": 4540185.7445541844, "CODE_H50": 939, "CODE_DOCU": " 40292", "VALU_BOU267": 38.74, "ESRI_OID": 169823 }, "geometry": { "type": "Point", "coordinates": [ -694478.293923828168772, 4540185.744554184377193 ] } },
{ "type": "Feature", "properties": { "ID": 53332, "VALU_COORX": -689850.69127539487, "VALU_COORY": 4541522.2672538171, "CODE_H50": 939, "CODE_DOCU": " 40292", "VALU_BOU267": 40.723, "ESRI_OID": 122009 }, "geometry": { "type": "Point", "coordinates": [ -689850.6912753948709, 4541522.2672538170591 ] } },
{ "type": "Feature", "properties": { "ID": 52429, "VALU_COORX": -694524.24934397871, "VALU_COORY": 4548039.622228113, "CODE_H50": 939, "CODE_DOCU": " 40292", "VALU_BOU267": 23.676, "ESRI_OID": 51079 }, "geometry": { "type": "Point", "coordinates": [ -694524.249343978706747, 4548039.622228113003075 ] } },
{ "type": "Feature", "properties": { "ID": 52201, "VALU_COORX": -706608.5071636528, "VALU_COORY": 4548129.8177286731, "CODE_H50": 939, "CODE_DOCU": " 40292", "VALU_BOU267": 11.0, "ESRI_OID": 160466 }, "geometry": { "type": "Point", "coordinates": [ -706608.507163652800955, 4548129.817728673107922 ] } },
{ "type": "Feature", "properties": { "ID": 52343, "VALU_COORX": -691079.41940426861, "VALU_COORY": 4545776.1001536865, "CODE_H50": 939, "CODE_DOCU": " 40292", "VALU_BOU267": 30.613, "ESRI_OID": 47225 }, "geometry": { "type": "Point", "coordinates": [ -691079.419404268614016, 4545776.100153686478734 ] } },
{ "type": "Feature", "properties": { "ID": 62367, "VALU_COORX": -706061.37140163907, "VALU_COORY": 4528814.0675684493, "CODE_H50": 961, "CODE_DOCU": " 40292", "VALU_BOU267": 20.482, "ESRI_OID": 12472 }, "geometry": { "type": "Point", "coordinates": [ -706061.371401639073156, 4528814.067568449303508 ] } },
{ "type": "Feature", "properties": { "ID": 62387, "VALU_COORX": -706724.49501825753, "VALU_COORY": 4531039.9580784468, "CODE_H50": 961, "CODE_DOCU": " 40292", "VALU_BOU267": 20.032, "ESRI_OID": 7272 }, "geometry": { "type": "Point", "coordinates": [ -706724.495018257526681, 4531039.958078446798027 ] } },
{ "type": "Feature", "properties": { "ID": 62404, "VALU_COORX": -704821.56533790298, "VALU_COORY": 4528849.5103247873, "CODE_H50": 961, "CODE_DOCU": " 40292", "VALU_BOU267": 21.359, "ESRI_OID": 9635 }, "geometry": { "type": "Point", "coordinates": [ -704821.565337902982719, 4528849.510324787348509 ] } },
{ "type": "Feature", "properties": { "ID": 62407, "VALU_COORX": -701080.72202105739, "VALU_COORY": 4530218.5787095251, "CODE_H50": 961, "CODE_DOCU": " 40292", "VALU_BOU267": 21.558, "ESRI_OID": 22848 }, "geometry": { "type": "Point", "coordinates": [ -701080.722021057386883, 4530218.578709525056183 ] } },
{ "type": "Feature", "properties": { "ID": 62596, "VALU_COORX": -697760.21901074622, "VALU_COORY": 4530206.1377110444, "CODE_H50": 961, "CODE_DOCU": " 40292", "VALU_BOU267": 22.524, "ESRI_OID": 11060 }, "geometry": { "type": "Point", "coordinates": [ -697760.219010746222921, 4530206.13771104440093 ] } },
{ "type": "Feature", "properties": { "ID": 62598, "VALU_COORX": -697561.16007438698, "VALU_COORY": 4529377.0771085517, "CODE_H50": 961, "CODE_DOCU": " 40292", "VALU_BOU267": 22.023, "ESRI_OID": 111188 }, "geometry": { "type": "Point", "coordinates": [ -697561.160074386978522, 4529377.077108551748097 ] } },
{ "type": "Feature", "properties": { "ID": 62613, "VALU_COORX": -695454.54908794933, "VALU_COORY": 4529005.9635844855, "CODE_H50": 961, "CODE_DOCU": " 40292", "VALU_BOU267": 21.874, "ESRI_OID": 27556 }, "geometry": { "type": "Point", "coordinates": [ -695454.549087949329987, 4529005.963584485463798 ] } },
{ "type": "Feature", "properties": { "ID": 62696, "VALU_COORX": -694518.11867350119, "VALU_COORY": 4529429.8812730424, "CODE_H50": 961, "CODE_DOCU": " 40292", "VALU_BOU267": 22.631, "ESRI_OID": 10590 }, "geometry": { "type": "Point", "coordinates": [ -694518.118673501187004, 4529429.881273042410612 ] } },
{ "type": "Feature", "properties": { "ID": 62699, "VALU_COORX": -693415.46827423864, "VALU_COORY": 4531372.0637242319, "CODE_H50": 961, "CODE_DOCU": " 40292", "VALU_BOU267": 26.657, "ESRI_OID": 27555 }, "geometry": { "type": "Point", "coordinates": [ -693415.468274238635786, 4531372.063724231906235 ] } },
{ "type": "Feature", "properties": { "ID": 62701, "VALU_COORX": -694228.68494051148, "VALU_COORY": 4531981.1719785696, "CODE_H50": 961, "CODE_DOCU": " 40292", "VALU_BOU267": 27.147, "ESRI_OID": 113117 }, "geometry": { "type": "Point", "coordinates": [ -694228.68494051147718, 4531981.171978569589555 ] } },
{ "type": "Feature", "properties": { "ID": 62702, "VALU_COORX": -695617.98422583786, "VALU_COORY": 4530087.0923276804, "CODE_H50": 961, "CODE_DOCU": " 40292", "VALU_BOU267": 23.103, "ESRI_OID": 1164 }, "geometry": { "type": "Point", "coordinates": [ -695617.98422583786305, 4530087.092327680438757 ] } },
{ "type": "Feature", "properties": { "ID": 62714, "VALU_COORX": -694136.86695668567, "VALU_COORY": 4529530.5002959454, "CODE_H50": 961, "CODE_DOCU": " 40292", "VALU_BOU267": 22.565, "ESRI_OID": 214892 }, "geometry": { "type": "Point", "coordinates": [ -694136.86695668566972, 4529530.500295945443213 ] } },
{ "type": "Feature", "properties": { "ID": 62716, "VALU_COORX": -693887.8525844597, "VALU_COORY": 4529992.6098434394, "CODE_H50": 961, "CODE_DOCU": " 40292", "VALU_BOU267": 23.598, "ESRI_OID": 8217 }, "geometry": { "type": "Point", "coordinates": [ -693887.852584459702484, 4529992.609843439422548 ] } },
{ "type": "Feature", "properties": { "ID": 62719, "VALU_COORX": -691133.96929039957, "VALU_COORY": 4529801.3298218651, "CODE_H50": 961, "CODE_DOCU": " 40292", "VALU_BOU267": 28.527, "ESRI_OID": 26151 }, "geometry": { "type": "Point", "coordinates": [ -691133.969290399574675, 4529801.329821865074337 ] } },
{ "type": "Feature", "properties": { "ID": 62724, "VALU_COORX": -694161.6826053164, "VALU_COORY": 4531023.1679599909, "CODE_H50": 961, "CODE_DOCU": " 40292", "VALU_BOU267": 25.531, "ESRI_OID": 109751 }, "geometry": { "type": "Point", "coordinates": [ -694161.682605316396803, 4531023.167959990911186 ] } },
{ "type": "Feature", "properties": { "ID": 62742, "VALU_COORX": -689202.95151392615, "VALU_COORY": 4529211.3571871538, "CODE_H50": 961, "CODE_DOCU": " 40292", "VALU_BOU267": 30.829, "ESRI_OID": 24739 }, "geometry": { "type": "Point", "coordinates": [ -689202.951513926149346, 4529211.35718715377152 ] } },
{ "type": "Feature", "properties": { "ID": 62744, "VALU_COORX": -689300.59273000213, "VALU_COORY": 4530565.9667380238, "CODE_H50": 961, "CODE_DOCU": " 40292", "VALU_BOU267": 29.534, "ESRI_OID": 108175 }, "geometry": { "type": "Point", "coordinates": [ -689300.592730002128519, 4530565.966738023795187 ] } },
{ "type": "Feature", "properties": { "ID": 62770, "VALU_COORX": -701111.50346767169, "VALU_COORY": 4531241.0734111378, "CODE_H50": 961, "CODE_DOCU": " 40292", "VALU_BOU267": 23.852, "ESRI_OID": 107734 }, "geometry": { "type": "Point", "coordinates": [ -701111.503467671689577, 4531241.073411137796938 ] } },
{ "type": "Feature", "properties": { "ID": 62772, "VALU_COORX": -701612.17308318755, "VALU_COORY": 4529510.7049781391, "CODE_H50": 961, "CODE_DOCU": " 40292", "VALU_BOU267": 21.75, "ESRI_OID": 164890 }, "geometry": { "type": "Point", "coordinates": [ -701612.173083187546581, 4529510.704978139139712 ] } },
{ "type": "Feature", "properties": { "ID": 62779, "VALU_COORX": -699812.16319691273, "VALU_COORY": 4531242.5630838033, "CODE_H50": 961, "CODE_DOCU": " 40292", "VALU_BOU267": 23.923, "ESRI_OID": 6813 }, "geometry": { "type": "Point", "coordinates": [ -699812.163196912733838, 4531242.563083803281188 ] } },
{ "type": "Feature", "properties": { "ID": 62782, "VALU_COORX": -700232.08314364066, "VALU_COORY": 4530515.8115576459, "CODE_H50": 961, "CODE_DOCU": " 40292", "VALU_BOU267": 22.315, "ESRI_OID": 21909 }, "geometry": { "type": "Point", "coordinates": [ -700232.083143640658818, 4530515.811557645909488 ] } },
{ "type": "Feature", "properties": { "ID": 62785, "VALU_COORX": -703557.42174575652, "VALU_COORY": 4531592.7008653367, "CODE_H50": 961, "CODE_DOCU": " 40292", "VALU_BOU267": 20.064, "ESRI_OID": 23789 }, "geometry": { "type": "Point", "coordinates": [ -703557.421745756524615, 4531592.700865336693823 ] } },
{ "type": "Feature", "properties": { "ID": 62791, "VALU_COORX": -705055.53872689826, "VALU_COORY": 4530969.2136370046, "CODE_H50": 961, "CODE_DOCU": " 40292", "VALU_BOU267": 21.031, "ESRI_OID": 50840 }, "geometry": { "type": "Point", "coordinates": [ -705055.538726898259483, 4530969.213637004606426 ] } },
{ "type": "Feature", "properties": { "ID": 62799, "VALU_COORX": -706108.40713179728, "VALU_COORY": 4530032.1555120442, "CODE_H50": 961, "CODE_DOCU": " 40292", "VALU_BOU267": 20.692, "ESRI_OID": 16717 }, "geometry": { "type": "Point", "coordinates": [ -706108.407131797284819, 4530032.155512044206262 ] } },
{ "type": "Feature", "properties": { "ID": 62802, "VALU_COORX": -704459.61755973788, "VALU_COORY": 4530027.7313531339, "CODE_H50": 961, "CODE_DOCU": " 40292", "VALU_BOU267": 20.605, "ESRI_OID": 13883 }, "geometry": { "type": "Point", "coordinates": [ -704459.617559737875126, 4530027.731353133916855 ] } },
{ "type": "Feature", "properties": { "ID": 62805, "VALU_COORX": -704978.02501191234, "VALU_COORY": 4532378.2538751503, "CODE_H50": 961, "CODE_DOCU": " 40292", "VALU_BOU267": 18.929, "ESRI_OID": 29916 }, "geometry": { "type": "Point", "coordinates": [ -704978.025011912337504, 4532378.253875150345266 ] } },
{ "type": "Feature", "properties": { "ID": 62810, "VALU_COORX": -695321.69257568207, "VALU_COORY": 4532139.5975256953, "CODE_H50": 961, "CODE_DOCU": " 40292", "VALU_BOU267": 26.146, "ESRI_OID": 110313 }, "geometry": { "type": "Point", "coordinates": [ -695321.692575682071038, 4532139.597525695338845 ] } },
{ "type": "Feature", "properties": { "ID": 62820, "VALU_COORX": -697282.95572796045, "VALU_COORY": 4531321.1713052979, "CODE_H50": 961, "CODE_DOCU": " 40292", "VALU_BOU267": 26.255, "ESRI_OID": 218179 }, "geometry": { "type": "Point", "coordinates": [ -697282.955727960448712, 4531321.171305297873914 ] } },
{ "type": "Feature", "properties": { "ID": 62822, "VALU_COORX": -697979.82353475271, "VALU_COORY": 4530826.7770185862, "CODE_H50": 961, "CODE_DOCU": " 40292", "VALU_BOU267": 24.322, "ESRI_OID": 15291 }, "geometry": { "type": "Point", "coordinates": [ -697979.823534752707928, 4530826.777018586173654 ] } },
{ "type": "Feature", "properties": { "ID": 62692, "VALU_COORX": -692196.58429741929, "VALU_COORY": 4530997.349145948, "CODE_H50": 961, "CODE_DOCU": " 40292", "VALU_BOU267": 26.854, "ESRI_OID": 123604 }, "geometry": { "type": "Point", "coordinates": [ -692196.584297419292852, 4530997.349145947955549 ] } },
{ "type": "Feature", "properties": { "ID": 53096, "VALU_COORX": -703423.01485249167, "VALU_COORY": 4542445.2708734684, "CODE_H50": 939, "CODE_DOCU": " 40292", "VALU_BOU267": 17.85, "ESRI_OID": 213157 }, "geometry": { "type": "Point", "coordinates": [ -703423.014852491673082, 4542445.270873468369246 ] } },
{ "type": "Feature", "properties": { "ID": 62366, "VALU_COORX": -706538.72586619307, "VALU_COORY": 4528902.0932414364, "CODE_H50": 961, "CODE_DOCU": " 40292", "VALU_BOU267": 20.243, "ESRI_OID": 133055 }, "geometry": { "type": "Point", "coordinates": [ -706538.725866193068214, 4528902.09324143640697 ] } },
{ "type": "Feature", "properties": { "ID": 53212, "VALU_COORX": -699215.64414769574, "VALU_COORY": 4535300.6025969265, "CODE_H50": 939, "CODE_DOCU": " 40292", "VALU_BOU267": 25.564, "ESRI_OID": 119288 }, "geometry": { "type": "Point", "coordinates": [ -699215.644147695740685, 4535300.602596926502883 ] } },
{ "type": "Feature", "properties": { "ID": 101528, "VALU_COORX": -689698.70986607973, "VALU_COORY": 4547041.5582431303, "CODE_H50": 939, "CODE_DOCU": null, "VALU_BOU267": 29.505, "ESRI_OID": 17197 }, "geometry": { "type": "Point", "coordinates": [ -689698.709866079734638, 4547041.558243130333722 ] } },
{ "type": "Feature", "properties": { "ID": 101531, "VALU_COORX": -699284.36980975757, "VALU_COORY": 4536329.8712105714, "CODE_H50": 939, "CODE_DOCU": null, "VALU_BOU267": 28.241, "ESRI_OID": 3976 }, "geometry": { "type": "Point", "coordinates": [ -699284.369809757568873, 4536329.871210571378469 ] } },
{ "type": "Feature", "properties": { "ID": 101548, "VALU_COORX": -696499.55588679563, "VALU_COORY": 4534530.1956135826, "CODE_H50": 939, "CODE_DOCU": null, "VALU_BOU267": 28.441, "ESRI_OID": 3506 }, "geometry": { "type": "Point", "coordinates": [ -696499.555886795627885, 4534530.195613582618535 ] } },
{ "type": "Feature", "properties": { "ID": 101554, "VALU_COORX": -682972.53463759308, "VALU_COORY": 4548423.6730222935, "CODE_H50": 940, "CODE_DOCU": null, "VALU_BOU267": 37.649, "ESRI_OID": 12945 }, "geometry": { "type": "Point", "coordinates": [ -682972.534637593082152, 4548423.673022293485701 ] } },
{ "type": "Feature", "properties": { "ID": 101577, "VALU_COORX": -687802.80279433308, "VALU_COORY": 4540675.4767963914, "CODE_H50": 940, "CODE_DOCU": null, "VALU_BOU267": 47.323, "ESRI_OID": 41070 }, "geometry": { "type": "Point", "coordinates": [ -687802.802794333081692, 4540675.476796391420066 ] } },
{ "type": "Feature", "properties": { "ID": 53388, "VALU_COORX": -693430.47032075026, "VALU_COORY": 4542542.7532846881, "CODE_H50": 939, "CODE_DOCU": " 40292", "VALU_BOU267": 35.902, "ESRI_OID": 227877 }, "geometry": { "type": "Point", "coordinates": [ -693430.470320750260726, 4542542.753284688107669 ] } },
{ "type": "Feature", "properties": { "ID": 53175, "VALU_COORX": -701585.80015156686, "VALU_COORY": 4535985.0042945417, "CODE_H50": 939, "CODE_DOCU": " 40292", "VALU_BOU267": 20.772, "ESRI_OID": 106356 }, "geometry": { "type": "Point", "coordinates": [ -701585.800151566858403, 4535985.004294541664422 ] } },
{ "type": "Feature", "properties": { "ID": 62595, "VALU_COORX": -698010.36894384061, "VALU_COORY": 4530616.6820686711, "CODE_H50": 961, "CODE_DOCU": " 40292", "VALU_BOU267": 23.909, "ESRI_OID": 139049 }, "geometry": { "type": "Point", "coordinates": [ -698010.36894384061452, 4530616.682068671099842 ] } },
{ "type": "Feature", "properties": { "ID": 52018, "VALU_COORX": -700368.15384141437, "VALU_COORY": 4544286.1975237485, "CODE_H50": 939, "CODE_DOCU": " 40292", "VALU_BOU267": 22.497, "ESRI_OID": 149126 }, "geometry": { "type": "Point", "coordinates": [ -700368.153841414372437, 4544286.197523748502135 ] } }
]
}
